sr,service,name,name_mm,address,address_mm,phone1,phone2,phone3,phone4,phone5,township_mm,Pyinoolwin,state_region_mm,state_region,LatLong,remark,running_status,status,services,curfew,opening_hour,opening_days,updated_phone,new_lat,new_long,url
1,အောက်ဆီဂျင်,Mingalar,မင်္ဂလာ,"Mingalar Theiddi St., Corner of U Chit Maung Rd., Min Lane Bus Stop, Saya San (South) Ward,
Bahan, Yangon
, Myanmar",မင်္ဂလာ သိဒ္ဓိလမ်း၊ ဦးချစ်မောင်လမ်းဒေါင့်၊ မင်းလမ်းမှတ်တိုင်၊ ဆရာစံ(တောင်)ရပ်ကွက်၊ ဗဟန်း၊ ရန်ကုန်,095021569,095117535,095177186,,,ဗဟန်း,Bahan,ရန်ကုန်တိုင်းဒေသကြီး,Yangon,"16.815427,96.156112",,,Need Confirmation,,,,,,16.818913,96.165244,http://www.yangondirectory.com/listing/mingalar-l00205460.html
2,အောက်ဆီဂျင်,Ah Phyu Yaung Piti Lu Hmu Ku Nyi Yae Ah Thin,အဖြူရောင်ပီတိ လူမှုကူညီရေးအသင်း,"Ngar Htat Kyee Pagoda Rd., Ngarr Htatt Gyee (South) Ward,
Bahan, Yangon
, Myanmar",ငါးထပ်ကြီးဘုရားလမ်း၊ ငါးထပ်ကြီး(တောင်)ရပ်ကွက်၊ ဗဟန်း၊ ရန်ကုန်,09799881592,09794690062,0979847267,,,ဗဟန်း,Bahan,ရန်ကုန်တိုင်းဒေသကြီး,Yangon,"16.815427,96.156112",,,Need Confirmation,,,,,,,,http://www.yangondirectory.com/listing/ah-phyu-yaung-piti-lu-hmu-ku-nyi-yae-ah-thin-l00245493.html
3,အောက်ဆီဂျင်,Ahnine Mae Ka Yu Nar Shin,အနှိုင်းမဲ့ကရုဏာရှင်,"Hlaing Yadanar St., Dhama Thukha Dhamar Yone, Ward (13),
Hlaing Thar Yar, Yangon
, Myanmar",လှိုင်ရတနာလမ်း၊ ဓမ္မသုခ ဓမ္မာရုံ၊ ၁၃ ရပ်ကွက်၊ လှိုင်သာယာ၊ ရန်ကုန်,095033115,0943114919,,,,လှိုင်သာယာ,Hlaingtharya ,ရန်ကုန်တိုင်းဒေသကြီး,Yangon,"16.85402,96.06893",,,Need Confirmation,အောက်ဆီဂျင်ဖြည့်လို့ရ,,,,,16.880776,96.031764,http://www.yangondirectory.com/listing/ahnine-mae-ka-yu-nar-shin-l00292997.html
4,အောက်ဆီဂျင်,Arseinnakan Lu Hmu Ku Nyi Yae Parahita Association,အစိဏ္ဏကံလူမှုကူညီရေးပရဟိတအသင်း,"Bayint Naung St., Saik Mway Ward (1),
South Dagon, Yangon
, Myanmar",ဘုရင့်နောင်လမ်း၊ စိုက်မွှေး(၁)ရပ်ကွက်၊ တောင်ဒဂုံ၊ ရန်ကုန်,09250373926,09799585850,09421142755,,,ဒဂုံမြို့သစ်(တောင်ပိုင်း),Dagon Myothit (South) ,ရန်ကုန်တိုင်းဒေသကြီး,Yangon,"16.84016,96.22582",,,Need Confirmation,,,,,,16.878374,96.268388,http://www.yangondirectory.com/listing/arseinnakan-lu-hmu-ku-nyi-yae-parahita-association-l00245497.html
5,အောက်ဆီဂျင်,Aye Saydanar,အေးစေတနာ,"428, Shwe Inwa St., Ward (55),
South Dagon, Yangon
, Myanmar",၄၂၈၊ ရွှေအင်းဝလမ်း၊ ၅၅ ရပ်ကွက်၊ တောင်ဒဂုံ၊ ရန်ကုန်,09777778027,09977778027,012348446,,,ဒဂုံမြို့သစ်(တောင်ပိုင်း),Dagon Myothit (South) ,ရန်ကုန်တိုင်းဒေသကြီး,Yangon,"16.84016,96.22582",,,Need Confirmation,,,,,,,,http://www.yangondirectory.com/listing/aye-saydanar-l00275165.html
6,အောက်ဆီဂျင်,Aye Yeik San,အေးရိပ်စံ,"Rm 2, May Darwi Rd., Corner of Theingi St., Sit Hmu Htan Haung Shop Room, Sa Lone Ward,
North Okkalapa, Yangon
, Myanmar",၂၊ မေဒါဝီလမ်း၊ သိင်္ဂီလမ်းထောင့်၊ စစ်မှူထမ်းဟောင်း ဆိုင်တန်း၊ စ ရပ်ကွက်၊ မြောက်ဥက္ကလာ၊ ရန်ကုန်,095116801,09775117790,09965116801,,,မြောက်ဥက္ကလာပ,North Okkalapa,ရန်ကုန်တိုင်းဒေသကြီး,Yangon,"16.918775,96.163028",,stopped,Stop Service,,,,,,,,http://www.yangondirectory.com/listing/aye-yeik-san-l00208503.html
7,အောက်ဆီဂျင်,Aye Yeik San,အေးရိပ်စံ,"54, Pyi Daw Aye St., Lay Daunt Kan Ward,
Thingangyun, Yangon
, Myanmar",၅၄၊ ပြည်တော်အေးလမ်း၊ လေးထောင့်ကန်ရပ်ကွက်၊ သင်္ဃန်းကျွန်း၊ ရန်ကုန်,0973031343,,,,,သင်္ဃန်းကျွန်း,Thingangyun,ရန်ကုန်တိုင်းဒေသကြီး,Yangon,"16.831011,96.19323",,,Need Confirmation,,,,,,,,http://www.yangondirectory.com/listing/aye-yeik-san-l00245825.html
8,အောက်ဆီဂျင်,Blood Donation Hotline,သွေးလှူအသင်း,"Bldg F/S/34/35, Bayint Naung Rd., Shwe Padauk Yeikmon,
Kamayut, Yangon
, Myanmar",စ/၃၄/၃၅၊ ဘုရင့်နောင်လမ်း၊ ရွှေပိတောက်ရိပ်မွန်၊ ကမာရွတ်၊ ရန်ကုန်,011880 Ext.1,011877 Ext.1,,,,ကမာရွတ်,Kamaryut,ရန်ကုန်တိုင်းဒေသကြီး,Yangon,"16.827684,96.132439",,,Need Confirmation,,,,,,,,http://www.yangondirectory.com/listing/blood-donation-hotline-l00243941.html
9,အောက်ဆီဂျင်,Byamaso Moe,ဗြဟ္မစိုရ်မိုး,"Baya Thuddi St., Pathein Nyunt Ward,
Tarmwe, Yangon
, Myanmar",ပုသိမ်ညွန့်ရပ်ကွက်၊ တာမွေ၊ ရန်ကုန်,09250136334,0973082180,09799991846,,,တာမွေ,Tamwe,ရန်ကုန်တိုင်းဒေသကြီး,Yangon,"16.810182,96.17646",,stopped,Stop Service,,,,,,,,http://www.yangondirectory.com/listing/byamaso-moe-l00245510.html
10,အောက်ဆီဂျင်,Digar Yu,ဒီဃာယု,"Zaw Ta Yone St., Corner of Man Pyay St., Ward (2-South),
Thaketa, Yangon
, Myanmar",ဇောတရုံလမ်း၊ မာန်ပြေလမ်းထောင့်၊ ၂ (တောင်) ရပ်ကွက်၊ သာကေတ၊ ရန်ကုန်,09254922290,,,,,သာကေတ,Thaketa,ရန်ကုန်တိုင်းဒေသကြီး,Yangon,"16.793009,96.202959",,stopped,Stop Service,,,,,,,,http://www.yangondirectory.com/listing/digar-yu-l00224661.html
11,အောက်ဆီဂျင်,Gone Taw Yeik Thar Oxygen Donation Group,ဂုဏ်တော်ရိပ်သာ အောက်ဆီဂျင် အလှူအဖွဲ့,"Thandar St., Corner of Shukhin Thar St., Gone Taw Yeik Thar Thandar Oo Kyaung Tike, Nga Ward,
North Okkalapa, Yangon
, Myanmar",သန္တာလမ်း၊ ရှုခင်းသာလမ်းဒေါင့်၊ ဂုဏ်တော်ရိပ်သာ သန္တာဦး ကျောင်းတိုက်၊ င ရပ်ကွက်၊ မြောက်ဥက္ကလာပ၊ ရန်ကုန်,09250506272,09250673126,,,,မြောက်ဥက္ကလာပ,North Okkalapa,ရန်ကုန်တိုင်းဒေသကြီး,Yangon,"16.918775,96.163028",,,Need Confirmation,,,,,,,,http://www.yangondirectory.com/listing/gone-taw-yeik-thar-oxygen-donation-group-l00245463.html
12,အောက်ဆီဂျင်,Kan Kaung,ကံကောင်း,"277, Theingi 1st St., Ward (5),
Thaketa, Yangon
, Myanmar",၂၇၇၊ သိင်္ဂီ ၁လမ်း၊ ၅ ရပ်ကွက်၊ သာကေတ၊ ရန်ကုန်,09420778897,0943125637,,,,သာကေတ,Thaketa,ရန်ကုန်တိုင်းဒေသကြီး,Yangon,"16.793009,96.202959",,,Need Confirmation,,,,,,,,http://www.yangondirectory.com/listing/kan-kaung-l00227918.html
13,အောက်ဆီဂျင်,Karunar Yaung Chi Oxygen Group,ဂရုဏာရောင်ခြည် အောက်ဆီဂျင်အဖွဲ့,"Mandalay St., Peinnae Kone Kyaung Tike, Kan Daw Kalay (South) Ward,
Mingalar Taung Nyunt, Yangon
, Myanmar",မန္တလေးလမ်း၊ ပိန္နဲကုန်းကျောင်းတိုက်၊ ကန်တော်လေး(တောင်)ရပ်ကွက်၊ မင်္ဂလာတောင်ညွန့်၊ ရန်ကုန်,01379086,09401645712,0930073739,,,မင်္ဂလာတောင်ညွန့်,Mingalartaungnyunt,ရန်ကုန်တိုင်းဒေသကြီး,Yangon,"16.788908,96.167859",,,Need Confirmation,,,,,,,,http://www.yangondirectory.com/listing/karunar-yaung-chi-oxygen-group-l00245535.html
14,အောက်ဆီဂျင်,Lu Hmu Saydanar [Free] Oxygen Ku Nyi Yae,လူမှုစေတနာ(အခမဲ့)အောက်ဆီဂျင်ကူညီရေး,"Padamyar 4th St., Sarsanar Hita Dhara Dhamar Yone, Ward (7-West),
Thaketa, Yangon
, Myanmar",ပတ္တမြား(၄)လမ်း၊ လမ်းသွယ် အိမ်ယာသစ်(၇) အနောက်ရပ်ကွက်၊ သာကေတမြို့နယ်,0943128518,09547403,09421030317,0973109633,,သာကေတ,Thaketa,ရန်ကုန်တိုင်းဒေသကြီး,Yangon,"16.793009,96.202959",,,Need Confirmation,,,,,,,,http://www.yangondirectory.com/listing/lu-hmu-saydanar-free-oxygen-ku-nyi-yae-l00246313.html
15,အောက်ဆီဂျင်,Marga Oxygen Jivitadana Kutho Pyu Group,မာဃ အောက်ဆီဂျင် ဇီဝိတဒါန ကုသိုလ်ပြုအဖွဲ့,"913/A, Mar Ga 12th St., Ward (12),
South Okkalapa, Yangon
, Myanmar",၉၁၃/က၊ မာဃ ၁၂ လမ်း၊ ၁၂ ရပ်ကွက်၊ တောင်ဥက္ကလာပ၊ ရန်ကုန်,09420591759,09448017726,09799884300,095188936,09451835194,တောင်ဥက္ကလာပ,South Okkalapa,ရန်ကုန်တိုင်းဒေသကြီး,Yangon,"16.846249,96.179859",,,Need Confirmation,,,,,,,,http://www.yangondirectory.com/listing/marga-oxygen-jivitadana-kutho-pyu-group-l00245490.html
16,အောက်ဆီဂျင်,Mayan Su Saetanar,မရမ်းစု စေတနာ,"Mayan Su St., Ward (3),
Mayangone, Yangon
, Myanmar",မရမ်းစုလမ်း၊ ၃ ရပ်ကွက်၊ မရမ်းကုန်း၊ ရန်ကုန်,09262651983,09692732665,0932239445,,,မရမ်းကုန်း,Mayangone,ရန်ကုန်တိုင်းဒေသကြီး,Yangon,"16.86619,96.142611",,,Need Confirmation,,,,,,16.86619,96.142611,http://www.yangondirectory.com/listing/mayan-su-saetanar-l00292565.html
17,အောက်ဆီဂျင်,Muditar,မုဒိတာ,"Sittaung St., Ward (31),
North Dagon, Yangon
, Myanmar",စစ်တောင်းလမ်း၊ ၃၁ ရပ်ကွက်၊ တောင်ဒဂုံ၊ ရန်ကုန်,095050719,,,,,ဒဂုံမြို့သစ်(တောင်ပိုင်း),Dagon Myothit (South) ,ရန်ကုန်တိုင်းဒေသကြီး,Yangon,"16.84016,96.22582",,,Need Confirmation,,,,,,16.81779673,96.24434903,http://www.yangondirectory.com/listing/muditar-l00210106.html
18,အောက်ဆီဂျင်,Muditar,မုဒိတာ,"166th St., Tarmway Gyee (Kha) Ward,
Tarmwe, Yangon
, Myanmar",၁၆၆ လမ်း၊ တာမွေကြီး(ခ) ရပ်ကွက်၊ တာမွေ၊ ရန်ကုန်,09421005335,095146798,0943081618,09798162370,,တာမွေ,Tamwe,ရန်ကုန်တိုင်းဒေသကြီး,Yangon,"16.810182,96.17646",,,Need Confirmation,,,,,,16.81319752,96.17280304,http://www.yangondirectory.com/listing/muditar-l00245508.html
19,အောက်ဆီဂျင်,Myat Saydanar Mon Welfare Association,မြတ်စေတနာမွန်ပရဟိတအသင်း,"Baya Kyaw Thu St., Ward (7),
South Okkalapa, Yangon
, Myanmar",ဘယကျော်သူလမ်း၊၇ရပ်ကွက်၊တောင်ဥက္ကလာပ၊ ရန်ကုန်,09773994911,09773994922,09795379733,09789577566,0943027191,တောင်ဥက္ကလာပ,South Okkalapa,ရန်ကုန်တိုင်းဒေသကြီး,Yangon,"16.846249,96.179859",,,Need Confirmation,,,,,,16.84845178,96.18030514,http://www.yangondirectory.com/listing/myat-saydanar-mon-welfare-association-l00245488.html
20,အောက်ဆီဂျင်,Nay La,နေလ,"Ka Gyi/164, Kanbei Butar Yon Rd., Ward (12),
Yankin, Yangon
, Myanmar",က/၁၆၄၊ ကန်ဘဲ့ဘူတာရုံလမ်း၊ ၁၂ ရပ်ကွက်၊ ရန်ကင်း၊ ရန်ကုန်,09450021082,098619939,0973016916,9771147482,,ရန်ကင်း,Yankin,ရန်ကုန်တိုင်းဒေသကြီး,Yangon,"16.83601,96.162395",,,Same as Original,အောက်ဆီဂျင်အပိုပစ္စည်းရရှိနိုင်,ညမထွက်ရအချိန်ကူညီပေး,၂၄ နာရီ,ပိတ်ရက်မရှိ,09-8619989,16.84153162,96.16581827,http://www.yangondirectory.com/listing/nay-la-l00249431.html
21,အောက်ဆီဂျင်,O2 Jivitadana Emergency Oxygen Supply,အိုတူး ဇီဝိတဒါန အရေးပေါ် အောက်ဆီဂျင် အလှူ,"Aung Thapyay St., Corner of Dhamar Yone St., Ward (7-East),
Thaketa, Yangon
, Myanmar",အောင်သပြေလမ်း၊ ဓမ္မာရုံလမ်းဒေါင့်၊ အရှေ့ ၇ ရပ်ကွက်၊ သာကေတ၊ ရန်ကုန်,09421087409,0943105871,9420065089,,,သာကေတ,Thaketa,ရန်ကုန်တိုင်းဒေသကြီး,Yangon,"16.793009,96.202959",,,Need Confirmation,,,,,,16.80302341,96.21468899,http://www.yangondirectory.com/listing/o2-jivitadana-emergency-oxygen-supply-l150416.html
22,အောက်ဆီဂျင်,Oxygen Donation Group,အောက်ဆီဂျင်အလှူအဖွဲ့,"8/1, Dhama Yarzar St., Ward (10),
South Okkalapa, Yangon
, Myanmar",၈/၁၊ ဓမ္မရာဇာလမ်း၊ ၁၀ ရပ်ကွက်၊ တောင်ဥက္ကလာပ၊ ရန်ကုန်,095072781,09420000564,09979613961,,,တောင်ဥက္ကလာပ,South Okkalapa,ရန်ကုန်တိုင်းဒေသကြီး,Yangon,"16.846249,96.179859",,,Need Confirmation,,,,,,16.8466016,96.18258463,http://www.yangondirectory.com/listing/oxygen-donation-group-l00245489.html
23,အောက်ဆီဂျင်,Padan Myay Phyu Sin Myittar [Free],ပန်းမြဖြူစင်မေတ္တာ (အခမဲ့),"Anawrahta Rd., Padan Pariyati Sar Thin Tike, Ah Twinn Padan Village,
Hlaing Thar Yar, Yangon
, Myanmar",အနော်ရထာလမ်း၊ ပဒန်း ပရိယတ္တိ စာသင်တိုက်၊ အတွင်းပဒန်းရွာ၊ လှိုင်သာယာ၊ ရန်ကုန်,0973022897,097322897,09250039600,0973031420,09450017677,လှိုင်သာယာ,Hlaingtharya ,ရန်ကုန်တိုင်းဒေသကြီး,Yangon,"16.85402,96.06893",,,Need Confirmation,,,,,,16.91789202,96.05343293,http://www.yangondirectory.com/listing/padan-myay-phyu-sin-myittar-free-l00245494.html
24,အောက်ဆီဂျင်,Pay Satt Chinn Welfare Association,ပေးဆပ်ခြင်း လူမှူဖူလုံရေးအသင်း,"Tharyar Gone St., Byama Wihara Kyaung Tike,
Pazundaung, Yangon
, Myanmar",သာယာကုန်းလမ်း၊ ဗြမ္မဝိဟာရကျောင်းတိုက်၊ ပုဇွန်တောင်၊ ရန်ကုန်,09421060011,09777704461,09421139525,,,ပုဇွန်တောင်,Pazundaung,ရန်ကုန်တိုင်းဒေသကြီး,Yangon,"16.779648,96.174392",,,Same as Original,"အောက်ဆီဂျင်အပိုပစ္စည်းရရှိနိုင်,အောက်ဆီဂျင်ဖြည့်လို့ရ",ညမထွက်ရအချိန်ကူညီပေး,၂၄ နာရီ,ပိတ်ရက်မရှိ,,16.77809958,96.17461043,http://www.yangondirectory.com/listing/pay-satt-chinn-welfare-association-l00245469.html
25,အောက်ဆီဂျင်,Pone Nya Kari,ပုညကာရီ အောက်ဆီဂျင် ကူညီရေး,"Baho Rd. (Upper), Zeyar Lin Monastery, Ward (2),
Mayangone, Yangon
, Myanmar",ဗဟိုအထက်လမ်း၊ ဇေယျာလင်းကျောင်းတိုက်၊ ၂ ရပ်ကွက်၊ မရမ်းကုန်း၊ ရန်ကုန်,09795533696,09250152545,098622653,098611653,,မရမ်းကုန်း,Mayangone,ရန်ကုန်တိုင်းဒေသကြီး,Yangon,"16.86619,96.142611",,,Need Confirmation,,,,,,16.81110597,96.1263544,http://www.yangondirectory.com/listing/pone-nya-kari-l00249428.html
26,အောက်ဆီဂျင်,Private Oxygen Donation,ပုဂ္ဂလိက အောက်ဆီဂျင် အလှူ,"601/A, Atthaka 20th St., Ward (10),
South Okkalapa, Yangon
, Myanmar",၆၀၁/က၊ အသက ၂၀ လမ်း၊ ၁၀ ရပ်ကွက်၊ တောင်ဥက္ကလာပ၊ ရန်ကုန်,0973008409,,,,,တောင်ဥက္ကလာပ,South Okkalapa,ရန်ကုန်တိုင်းဒေသကြီး,Yangon,"16.846249,96.179859",,,Need Confirmation,,,,,,16.84998727,96.18747813,http://www.yangondirectory.com/listing/private-oxygen-donation-l00245532.html
27,အောက်ဆီဂျင်,Saydanar Shin Lu Hmu Ku Nyi Yay Ah Thin,စေတနာရှင် လူမှူကူညီရေးအသင်း,"8, Bo La Yaung St., Bo Htun Zan Ward,
Dawbon, Yangon
, Myanmar",၈ ဗိုလ်လရောင်လမ်း၊ ဗိုလ်ထွန်းဇန်ရပ်ကွက်၊ ဒေါပုံ၊ ရန်ကုန်,09421117466,9793181781,,,,ဒေါပုံ,Dawbon,ရန်ကုန်တိုင်းဒေသကြီး,Yangon,"16.781917,96.18435",,,Same as Original,"အောက်ဆီဂျင်အပိုပစ္စည်းရရှိနိုင်,အောက်ဆီဂျင်ဖြည့်လို့ရ",ညမထွက်ရအချိန်ကူညီပေး,၂၄ နာရီ,ပိတ်ရက်မရှိ,,16.78666612,96.18868432,http://www.yangondirectory.com/listing/saydanar-shin-lu-hmu-ku-nyi-yay-ah-thin-l00245504.html
28,အောက်ဆီဂျင်,Shin Than Chin,ရှင်သန်ခြင်း,"44, 1st Flr, Htar Nar St., Ma Gyee Dan (North-East) Ward,
Kyeemyin Daing, Yangon
, Myanmar",၄၄၊ ပထမထပ်၊ ဌာနာလမ်း၊ မန်ကျီးတန်း အရှေ့မြောက်ရပ်ကွက်၊ ကြည့်မြင်တိုင်၊ ရန်ကုန်,095062666,0943021296,095090780,0943115305,09799641769,ကြည့်မြင်တိုင်,Kyeemyindaing,ရန်ကုန်တိုင်းဒေသကြီး,Yangon,"16.814573,96.121879",,,Same as Original,"အောက်ဆီဂျင်အပိုပစ္စည်းရရှိနိုင်,လူနာတင်ယဥ်,နာရေးကူညီမှု",ညမထွက်ရအချိန်ကူညီပေး,၂၄ နာရီ,ပိတ်ရက်မရှိ,,16.78939449,96.1279349,http://www.yangondirectory.com/listing/shin-than-chin-l00219495.html
29,အောက်ဆီဂျင်,Shwe Sin Thitsar,ရွှေစင်သစ္စာ,"85, Set Yon Rd.(Mill Rd.), Mingalar Taung Nyunt Ward,
Mingalar Taung Nyunt, Yangon
, Myanmar",၈၅၊ စက်ရုံလမ်း၊ မင်္ဂလာတောင်ညွန့် ရပ်ကွက်၊ မင်္ဂလာတောင်ညွန့်,095171161,095061077,09261797720,,,မင်္ဂလာတောင်ညွန့်,Mingalartaungnyunt,ရန်ကုန်တိုင်းဒေသကြီး,Yangon,"16.788908,96.167859",,,Same as Original,,ညမထွက်ရအချိန်ကူညီပေး,၂၄ နာရီ,ပိတ်ရက်မရှိ,,16.78851298,96.17582387,http://www.yangondirectory.com/listing/shwe-sin-thitsar-l00219857.html
30,အောက်ဆီဂျင်,Tagaung Oxygen,တကောင်း အောက်ဆီဂျင်,"464, Tagaung 8th St., Ward (5),
South Okkalapa, Yangon
, Myanmar",၄၆၄၊ တကောင်း ၈ လမ်း၊ ၅ ရပ်ကွက်၊ တောင်ဥက္ကလာပ၊ ရန်ကုန်,09450015272,09790966994,,,,တောင်ဥက္ကလာပ,South Okkalapa,ရန်ကုန်တိုင်းဒေသကြီး,Yangon,"16.846249,96.179859",,,Same as Original,,ညမထွက်ရအချိန်ကူညီပေး,၂၄ နာရီ,ပိတ်ရက်မရှိ,,16.85778432,96.17637426,http://www.yangondirectory.com/listing/tagaung-oxygen-l00245514.html
31,အောက်ဆီဂျင်,U Thone Da Ya [Mya Saydi Saya Taw],ဥူး သုန္ဒရ မြစေတီ ဆရာတော်,"Kyaik Khauk Pagoda Rd., Ah Hmu Htan Ward,
Than Lyin, Yangon
, Myanmar",ကျိုက်ခေါက်ဘုရားလမ်း၊ အမှုထမ်းရပ်ကွက်၊ သန်လျင်၊ ရန်ကုန်,09256510400,,,,,သန်လျင်,Thanlyin ,ရန်ကုန်တိုင်းဒေသကြီး,Yangon,"16.76378,96.25184",,,Can't Identify,,,,,,16.75416417,96.25890023,http://www.yangondirectory.com/listing/u-thone-da-ya-mya-saydi-saya-taw-l00248144.html
32,အောက်ဆီဂျင်,Wah Yu Darna,ဝါယု ဒါန,"Oak Pon Seik St., Zwe Sone Thantika Kyaung Tike Compound, Ward (8),
Mayangone, Yangon
, Myanmar",အုတ်ပုံဆိပ်လမ်း၊ ဇွဲစုံသန္တိကကျောင်းတိုက်ဝန်း၊ ၈ ရပ်ကွက်၊ မရမ်းကုန်း၊ ရန်ကုန်,09250029882,09252694278,09793131440,09780552612,,မရမ်းကုန်း,Mayangone,ရန်ကုန်တိုင်းဒေသကြီး,Yangon,"16.86619,96.142611",,,Same as Original,,,,,,16.86619,96.142611,http://www.yangondirectory.com/listing/wah-yu-darna-l00249432.html
33,အောက်ဆီဂျင်,Wuntharnu Rakhita Sanay Lu Nge Myar Ah Thin,ဝံသာနု ရက္ခိတ - စနေလူငယ်များ အသင်း (ကမာရွတ်),"102, Baho Rd., Ward (3),
Kamayut, Yangon
, Myanmar",၁၀၂၊ ဗဟိုလမ်း၊ ၃ ရပ်ကွက်၊ ကမာရွတ်၊ ရန်ကုန်,09421067069,095401677,09799294856,,,ကမာရွတ်,Kamaryut,ရန်ကုန်တိုင်းဒေသကြီး,Yangon,"16.827684,96.132439",,,Same as Original,"အောက်ဆီဂျင်အပိုပစ္စည်းရရှိနိုင်,အောက်ဆီဂျင်ဖြည့်လို့ရ",ညမထွက်ရအချိန်ကူညီပေး,၂၄ နာရီ,ပိတ်ရက်မရှိ,,16.82798609,96.12449293,http://www.yangondirectory.com/listing/wuntharnu-rakhita-sanay-lu-nge-myar-ah-thin-l00245533.html
34,အောက်ဆီဂျင်,Yan Aung Myay Lay Ah Hlu Taw,ရန်အောင်မြေ လေအလှူတော်,"Myoh Patt (East) St., Infront Of B.E.P.S (4), Saya San (North-East) Ward,
Bahan, Yangon
, Myanmar",အရှေ့ မြို့ပါတ်လမ်း၊ အမက ၄ ရှေ့၊ ဆရာစံ အရှေ့မြောက် ရပ်ကွက်၊ ဗဟန်း၊ ရန်ကုန်,0930257024,09401646395,,,,ဗဟန်း,Bahan,ရန်ကုန်တိုင်းဒေသကြီး,Yangon,"16.815427,96.156112",,,Can't Identify,,,,,,16.8210586,96.16539515,http://www.yangondirectory.com/listing/yan-aung-myay-lay-ah-hlu-taw-l00245495.html
35,အောက်ဆီဂျင်,Za Myin Zwel-May Darwi Oxygen,စျ-မေဒါဝီ အောက်ဆီဂျင်,"May Darwi Rd., Thedamahitakari Dhamar Yone, Za Myin Zwel Ward,
North Okkalapa, Yangon
, Myanmar",မေဒါဝီလမ်း၊ ဓမ္မထိတကာရီ ဓမ္မာရုံ၊ (စျ)ရပ်ကွက် မြောက်ဥက္ကလာပ၊ ရန်ကုန်,0973242261,095139145,09764433747,,,မြောက်ဥက္ကလာပ,North Okkalapa,ရန်ကုန်တိုင်းဒေသကြီး,Yangon,"16.918775,96.163028",,,Can't Identify,,,,,,16.91251814,96.16172156,http://www.yangondirectory.com/listing/za-myin-zwel-may-darwi-oxygen-l00245462.html
36,အောက်ဆီဂျင်,Zabu Maung Mel,ဇမ္ဗူ မောင်မယ်,"Zabu Thiri St., Corner of Zabu Thiri 6th St., Ward (6-West),
Thaketa, Yangon
, Myanmar",ဇမ္ဗူသီရိလမ်း၊ ဇမ္ဗူသီရိ(၆)လမ်းဒေါင့်၊ အနောက် ၆ ရပ်ကွက်၊ သာကေတ၊ ရန်ကုန်,09254447215,09443015420,,,,သာကေတ,Thaketa,ရန်ကုန်တိုင်းဒေသကြီး,Yangon,"16.793009,96.202959",,,Same as Original,"အောက်ဆီဂျင်ဖြည့်လို့ရ,လူနာတင်ယဥ်",,မနက်၈-ည၇,ပိတ်ရက်မရှိ,,16.79425851,96.20568206,http://www.yangondirectory.com/listing/zabu-maung-mel-l00245518.html
37,အောက်ဆီဂျင်,,မြတ်သဒ္ဒါ လူမှုနာမူ ကူညီရေးအသင်း,,၆၂လမ်းနှင့် ၂၇လမ်းထောင့်၊ ချမ်းအေးသာဇံမြို့နယ်,09252599299,09777199299,,,,ချမ်းအေးသာဇံ,Chanayethazan ,မန္တလေးတိုင်းဒေသကြီး,Mandalay,"21.97535,96.094599",,,Can't Identify,,,,,,,,https://www.facebook.com/drni.online2020/posts/298322988690355
38,အောက်ဆီဂျင်,Pale Foundation,ပုလဲဖောင်ဒေးရှင်း,,၇၈လမ်းနှင့် သိပ္ပံလမ်းထောင့်၊ သီတာအေး ၉၀၁ ရပ်၊ ချမ်း/မြောက်၊ မဟာအောင်မြေမြို့နယ်,09889900345,024076261,,,,မဟာအောင်မြေ,Mahaaungmyay ,မန္တလေးတိုင်းဒေသကြီး,Mandalay,"21.97535,96.094599",,stopped,Stop Service,,,,,,,,https://www.facebook.com/drni.online2020/posts/298322988690355
39,အောက်ဆီဂျင်,,မနောကြာဖြူ ပရဟိတအသင်း,,53 လမ်း မြရည်နန္ဒာရပ်ကွက် ချမ်းမြသာစည်မြို့နယ်,09752348362,092006423,0943099660,,,ချမ်းမြသာစည်,Chanmyathazi ,မန္တလေးတိုင်းဒေသကြီး,Mandalay,"21.939404,96.095838",,,Same as Original,အောက်ဆီဂျင်ဖြည့်လို့ရ,,မနက်၈-ည၇,ပိတ်ရက်မရှိ,,,,https://www.facebook.com/drni.online2020/posts/298322988690355
40,အောက်ဆီဂျင်,,သစ္စာတံခွန် ပရဟိတအသင်း,,,0991004560,,,,,,,,,,,stopped,Stop Service,,,,Unavailable,,,,https://www.facebook.com/drni.online2020/posts/298322988690355
41,အောက်ဆီဂျင်,,စေတမန် လူမှုကူညီရေးအသင်း,,၃၅လမ်း၊ ၇၄လမ်း×၇၅လမ်းကြား,0943100786,09444457786,,,,မဟာအောင်မြေ,Mahaaungmyay ,မန္တလေးတိုင်းဒေသကြီး,Mandalay,"21.97535,96.094599",,,74-75 လမ်း၊ 35 လမ်းထောင့်၊ ကရဝိတ် လက်ဖက်ရည် ဆိုင်နား မဟာအောင်မြေ မန္တလေးတိုင်းဒေသကြီး,လူနာတင်ယဥ်,ညမထွက်ရအချိန်ကူညီပေး,၂၄ နာရီ,,,21.968747,96.091414,https://www.facebook.com/drni.online2020/posts/298322988690355
42,အောက်ဆီဂျင်,O2 Mandalar,O2 မန္တလာ - အရောင်း/အငှား,,အမှတ် (၄၄)၊ ၇၅လမ်း၊ ၂၇လမ်း×၂၈လမ်းကြား,0991045365,095017308,098635500,09402602066,,ချမ်းအေးသာဇံ,Chanayethazan ,မန္တလေးတိုင်းဒေသကြီး,Mandalay,"21.97535,96.094599",,stopped,Stop service,,,,Unavailable,,,,https://www.facebook.com/drni.online2020/posts/298322988690355
43,အောက်ဆီဂျင်,U Kyaw Hla & Sons,ဦးကျော်လှနှင့်သားများ - အရောင်း/အငှား,,၇၇လမ်းနှင့် ၃၈လမ်းထောင့်၊ မဟာအောင်မြေမြို့နယ်,092056298,09962056298,,,,မဟာအောင်မြေ,Mahaaungmyay ,မန္တလေးတိုင်းဒေသကြီး,Mandalay,"21.97535,96.094599",,stopped,Stop service,,,,Unavailable,,,,https://www.facebook.com/drni.online2020/posts/298322988690355
44,အောက်ဆီဂျင်,Aung,အောင် - အရောင်း/အငှား,,အမှတ် (ပပ-၂၀/၆၅)၊ ၆၄×၆၅လမ်းကြား၊ ပိတောက်လမ်းသွယ်၊ စက်မှုဇုံ-၁,09798663944,09402654411,0991027110,,,ပြည်ကြီးတံခွန်,Pyigyitagon ,မန္တလေးတိုင်းဒေသကြီး,Mandalay,"21.901964,96.104181",,stopped,Stop service,,,,Unavailable,,,,https://www.facebook.com/drni.online2020/posts/298322988690355
45,အောက်ဆီဂျင်,Ko Zarni,ကိုဇာနည် - အရောင်း/အငှား,,၈၇လမ်း၊ ၃၄×၃၅လမ်းကြား၊ စမွန်းရပ်၊ ချမ်းအောင်းသာဇံမြို့နယ်,09797776721,,,,,ချမ်းအေးသာဇံ,Chanayethazan ,မန္တလေးတိုင်းဒေသကြီး,Mandalay,"21.97535,96.094599",,stopped,Stop service,,,,Unavailable,,,,https://www.facebook.com/drni.online2020/posts/298322988690355
46,အောက်ဆီဂျင်,U Kyaw Hla,ဦးကျော်လှ - အရောင်း,,ထ ၂၀/၂၀၊ ၆၄×၆၅ကြား၊ ငုဝါလမ်း၊ စက်မှုဇုန်(၁),095152066,0991000036,09258344929,097749044133,,ပြည်ကြီးတံခွန်,Pyigyitagon ,မန္တလေးတိုင်းဒေသကြီး,Mandalay,"21.901964,96.104181",,stopped,Wrong Info/ Stop Service,,,,,,,,https://www.facebook.com/drni.online2020/posts/298322988690355
47,အောက်ဆီဂျင်,National Gas,National gas - အရောင်း/အငှား,,လမ်း၈၀၊ ၂၈×၂၉လမ်းကြား,,,,,,ချမ်းအေးသာဇံ,Chanayethazan ,မန္တလေးတိုင်းဒေသကြီး,Mandalay,"21.97535,96.094599",,stopped,Stop Service,,,,,02-4034104,,,https://www.facebook.com/drni.online2020/posts/298322988690355
48,အောက်ဆီဂျင်,Min Thein,မင်းသိန်း လေအိုးရောင်းဝယ်ရေး,,၄၁လမ်း၊ ၉၀×၉၁ကြား၊ မဟာအောင်မြေမြို့နယ်.စိန်ပန်း,,,,,,မဟာအောင်မြေ,Mahaaungmyay ,မန္တလေးတိုင်းဒေသကြီး,Mandalay,"21.97535,96.094599",,,Can't Identify,,,,,,,,https://www.facebook.com/drni.online2020/posts/298322988690355
49,အောက်ဆီဂျင်,Man Shin,မန်းရှင်အောက်စီဂျင်စက်ရုံ (နေပြည်တော်),,,09952000290,09799046325,,,,နေပြည်တော်,Nay Pyi Taw ,နေပြည်တော်,Nay Pyi Taw,"19.80326,96.18566",,,JW038၊ မိုးသောက်ပန်းလမ်းနှင့် ရှူမဝလမ်းထောင့်၊ ဒက္ခိဏသီရိအသေးစားနှင့် အလတ်စားစက်မှုဇုန်၊ နေပြည်တော်,အောက်ဆီဂျင်ဖြည့်လို့ရ,ညမထွက်ရအချိန်ကူညီပေး,၂၄ နာရီ,ပိတ်ရက်မရှိ,,"19°44'16""N","96°10'14""""E",https://www.facebook.com/naychi91/posts/10219838835262002
50,အောက်ဆီဂျင်,Man Shin,မန်းရှင်အောက်စီဂျင်စက်ရုံ (တောင်ကြီး),,တောင်ကြီးမြို့,09422000290,0991035778,09796168101,,,တောင်ကြီး,Taunggyi ,ရှမ်းပြည်နယ် (တောင်),Shan (South),"20.77477,97.03598",,,Can't Identify,,,,,,"20°46'29.2""N","97°02'09.5""E",https://www.facebook.com/naychi91/posts/10219838835262002
51,အောက်ဆီဂျင်,,တူညီတွဲလက်ကလေးလူနာကူညီရေး,,,09687008690,,,,,,,,,,,,Can't Identify,,,,,,,,https://www.facebook.com/naychi91/posts/10219838835262002
52,အောက်ဆီဂျင်,Hein Thit,ဟိန်းသစ်,,၈၀-၄၈/၅၂၊ ၁၃၁လမ်း (ရတနာလမ်း)၊ ၅၄x၅၅လမ်းကြား၊ ပြည်ကြီးတံခွန်မြို့နယ်,,,,,,ပြည်ကြီးတံခွန်,Pyigyitagon ,မန္တလေးတိုင်းဒေသကြီး,Mandalay,"21.901964,96.104181",,,Need Confirmation,,,,,,,,https://www.facebook.com/naychi91/posts/10219838835262002
53,အောက်ဆီဂျင်,Yadanarpone,ရတနာပုံ,,ကမ္မဝါတန်း၊ တံခွန်တိုင်ရပ်ကွက်၊ ပြည်ကြီးတံခွန်မြို့နယ်,0994418604,0925628064,,,,ပြည်ကြီးတံခွန်,Pyigyitagon ,မန္တလေးတိုင်းဒေသကြီး,Mandalay,"21.901964,96.104181",,stopped,Wrong Info/ Stop Service,,,,,,,,https://www.facebook.com/naychi91/posts/10219838835262002
54,အောက်ဆီဂျင်,Five Oceans,Five Oceans,,B-2A၊ ၆၂ ပန်းခြံလမ်း၊ စက်မှု(၁) (ISEKI Show Room)၊ ပြည်ကြီးတံခွန်မြို့နယ်,,,,,,ပြည်ကြီးတံခွန်,Pyigyitagon ,မန္တလေးတိုင်းဒေသကြီး,Mandalay,"21.901964,96.104181",,,Need Confirmation,,,,,,,,https://www.facebook.com/naychi91/posts/10219838835262002
55,အောက်ဆီဂျင်,Chan Mya Thitsar Funeral Service,ချမ်းမြသစ္စာ နာရေးကူညီမှုအသင်း,,ခိုင်လီကြက်ချဥ်စပ်နား၊ ၆၈လမ်း,,,,,,ချမ်းမြသာစည်,Chanmyathazi ,မန္တလေးတိုင်းဒေသကြီး,Mandalay,"21.939404,96.095838",,,Need Confirmation,,,,,,,,https://www.facebook.com/naychi91/posts/10219838835262002
56,အောက်ဆီဂျင်,Moe Pale,မိုးပုလဲ - အရောင်း/အငှား,,၁၁ လမ်း၊ ၇၈x၇၉ လမ်းကြား,09444027753,09448533094,,,,အောင်မြေသာဇံ,Aungmyaythazan ,မန္တလေးတိုင်းဒေသကြီး,Mandalay,"21.993206,96.096861",,,Need Confirmation,,,,,,,,https://www.facebook.com/drni.online2020/posts/298322988690355
57,အောက်ဆီဂျင်,Arkar Moe,အာကာမိုး - အရောင်း/အငှား,,၂၄ လမ်း၊ ၈၁ လမ်း ထောင့်။အောင်မြေသာဇံ မြို့နယ်,09776504544,09402500522,,,,အောင်မြေသာဇံ,Aungmyaythazan ,မန္တလေးတိုင်းဒေသကြီး,Mandalay,"21.993206,96.096861",,,Need Confirmation,,,,,,,,https://www.facebook.com/drni.online2020/posts/298322988690355
58,အောက်ဆီဂျင်,Sein Son Nyo,စိန်စွန်ညို - အရောင်း/အငှား,,,094027300400,,,,,,,,,,,stopped,Wrong Info/ Stop Service,,,,,,,,https://www.facebook.com/drni.online2020/posts/298322988690355
59,အောက်ဆီဂျင်,,ဘုရားလမ်း လူမှုကူညီရေးအသင်း,,ပန်းပဲတန်းမြို့နယ်,09786012786,,,,,ပန်းဘဲတန်း,Pabedan,ရန်ကုန်တိုင်းဒေသကြီး,Yangon,"16.776983,96.15601",,,Need Confirmation,,,,,,16.776983,",96.15601",https://www.facebook.com/drni.online2020/posts/298322502023737
60,အောက်ဆီဂျင်,,ပေးဆပ်ခြင်း ပရဟိတအသင်း,,ပုဇွန်တောင်မြို့နယ်,09421139525,09263876640,09263876644,,,ပုဇွန်တောင်,Pazundaung,ရန်ကုန်တိုင်းဒေသကြီး,Yangon,"16.779648,96.174392",,,Need Confirmation,,,,,,16.779648,96.174392,https://www.facebook.com/drni.online2020/posts/298322502023737
61,အောက်ဆီဂျင်,,စေတနာ လူမှုကူညီရေးအသင်း,,အမှတ်(၃/၄)ရပ်ကွက်၊ ပုဇွန်တောင်မြို့နယ်,09254839779,09253381448,09250080010,09440470636,09793622114,ပုဇွန်တောင်,Pazundaung,ရန်ကုန်တိုင်းဒေသကြီး,Yangon,"16.779648,96.174392",,,Need Confirmation,,,,,,16.779648,96.174392,https://www.facebook.com/drni.online2020/posts/298322502023737
62,အောက်ဆီဂျင်,,ငြိမ်းချမ်းခြင်းလက်များ ပရဟိတအသင်း,,အနော်မာရပ်ကွက်၊ သာကေတမြို့နယ်,09421004119,095077446,09420259094,,,သာကေတ,Thaketa,ရန်ကုန်တိုင်းဒေသကြီး,Yangon,"16.793009,96.202959",,,Need Confirmation,,,,,,,,https://www.facebook.com/drni.online2020/posts/298322502023737
63,အောက်ဆီဂျင်,Nwe Aye Mosque,နွယ်အေး ဗလီ,,ဒေါပုံမြို့နယ်,09976544981,09250011562,095500787,,,ဒေါပုံ,Dawbon,ရန်ကုန်တိုင်းဒေသကြီး,Yangon,"16.781917,96.18435",,,နွယ်​အေးရပ်ကွက်၊ ​ဒေါပုံမြို့နယ်,"အောက်ဆီဂျင်ဖြည့်လို့ရ,လူနာတင်ယဥ်",,မနက်၈-ည၇,ပိတ်ရက်မရှိ,,,,https://www.facebook.com/drni.online2020/posts/298322502023737
64,အောက်ဆီဂျင်,,ဖို့မြေရပ်ကွက် လူမှုကူညီရေးအသင်း,,အမှတ်(၉၈/၁၀၀)၊ ၁၀၁လမ်း၊ မင်္ဂလာတောင်ညွန့်မြို့နယ်,01290782,095047868,0940044545,09443219152,,မင်္ဂလာတောင်ညွန့်,Mingalartaungnyunt,ရန်ကုန်တိုင်းဒေသကြီး,Yangon,"16.788908,96.167859",,,Need Confirmation,,,,,,,,https://www.facebook.com/drni.online2020/posts/298322502023737
65,အောက်ဆီဂျင်,,သပြေကုန်းရပ်ကွက် လူမှုကူညီရေးအသင်း,,အမှတ်(၃၅ ဘီ) ၁၂၅လမ်း၊ မင်္ဂလာတောင်ညွန့်မြို့နယ်,09424777120,09424777150,09424777160,09424777180,,မင်္ဂလာတောင်ညွန့်,Mingalartaungnyunt,ရန်ကုန်တိုင်းဒေသကြီး,Yangon,"16.788908,96.167859",,,Same as Original,လူနာတင်ယဥ်,ညမထွက်ရအချိန်ကူညီပေး,၂၄ နာရီ,ပိတ်ရက်မရှိ,,,,https://www.facebook.com/drni.online2020/posts/298322502023737
66,အောက်ဆီဂျင်,Mingalar Free Oxygen,မင်္ဂလာအောက်စီဂျင်လေအလှူတော်,,ဆရာစံတောင်ရပ်ကွက်၊ မင်းလမ်းမှတ်တိုင်အနီး၊ ဗဟန်းမြို့နယ်,095177186,095050668,,,,ဗဟန်း,Bahan,ရန်ကုန်တိုင်းဒေသကြီး,Yangon,"16.815427,96.156112",,,Need Confirmation,,,,,,,,https://www.facebook.com/drni.online2020/posts/298322502023737
67,အောက်ဆီဂျင်,,ချမ်းမြေ့ဆည်းဆာ လူမှုကူညီရေးအသင်း,,မရမ်းကုန်းမြို့နယ်,09254191610,09761965504,,,,မရမ်းကုန်း,Mayangone,ရန်ကုန်တိုင်းဒေသကြီး,Yangon,"16.86619,96.142611",,,Need Confirmation,,,,,,,,https://www.facebook.com/drni.online2020/posts/298322502023737
68,အောက်ဆီဂျင်,,ရတနာအောင်လူမှုကူညီကယ်ဆယ်ရေးအသင်း,,(၁)ရပ်ကွက်၊ အောင်ချမ်းသာ(၄)လမ်း၊ ကမာရွတ်မြို့နယ်,09448006765,09403077227,09880996991,,,ကမာရွတ်,Kamaryut,ရန်ကုန်တိုင်းဒေသကြီး,Yangon,"16.827684,96.132439",,,Need Confirmation,,,,,,,,https://www.facebook.com/drni.online2020/posts/298322502023737
69,အောက်ဆီဂျင်,,လှည်းတန်း လူမှုကူညီရေးအသင်း,,ကမာရွတ်မြို့နယ်,09403789779,09788526300,,,,ကမာရွတ်,Kamaryut,ရန်ကုန်တိုင်းဒေသကြီး,Yangon,"16.827684,96.132439",,,Need Confirmation,,,,,,,,https://www.facebook.com/drni.online2020/posts/298322502023737
70,အောက်ဆီဂျင်,Amay - Free Oxygen,အမေ - အောက်ဆီဂျင် ကုသိုလ်ဖြစ်,,အမှတ် ၂၁၊ မင်္ဂလာလမ်း၊ ၈ရပ်ကွက်၊ ကမာရွတ်မြို့နယ်,095122487,,,,,ကမာရွတ်,Kamaryut,ရန်ကုန်တိုင်းဒေသကြီး,Yangon,"16.827684,96.132439",,,Need Confirmation,,,,,,,,https://www.facebook.com/drni.online2020/posts/298322502023737
71,အောက်ဆီဂျင်,,လှိုင်မြို့နယ်(၃)ရပ်ကွက်(၁၀)ဓမ္မာရုံ,,,,,,,,လှိုင်,Hlaing,ရန်ကုန်တိုင်းဒေသကြီး,Yangon,"16.847934,96.125227",,,Can't Identify,,,,,Can't find ph no,16.8345425,96.1208167,https://www.facebook.com/drni.online2020/posts/298322502023737
72,အောက်ဆီဂျင်,,မယ်ဇလီ ပရဟိအသင်း,,အမှတ်(၈)ရပ်ကွက်၊ ဦးချိူလမ်း၊ လှိုင်မြို့နယ်,,,,,,လှိုင်,Hlaing,ရန်ကုန်တိုင်းဒေသကြီး,Yangon,"16.847934,96.125227",,,Need Confirmation,,,,,,,,https://www.facebook.com/drni.online2020/posts/298322502023737
73,အောက်ဆီဂျင်,,ပရဟိတအသင်း - အမည်မသိ,,ဘူတာရုံလမ်းမှတ်တိုင်အနီး၊ လှိုင်မြို့နယ်,09443193099,,,,,လှိုင်,Hlaing,ရန်ကုန်တိုင်းဒေသကြီး,Yangon,"16.847934,96.125227",,,Need Confirmation,,,,,,,,https://www.facebook.com/drni.online2020/posts/298322502023737
74,အောက်ဆီဂျင်,,ရောင်စဥ်မဲ့ လူမှုကူညီရေးအသင်း,,ကြည့်မြင်တိုင်မြို့နယ်,09259967778,09799639331,,,,ကြည့်မြင်တိုင်,Kyeemyindaing,ရန်ကုန်တိုင်းဒေသကြီး,Yangon,"16.814573,96.121879",,,Need Confirmation,,,,,,,,https://www.facebook.com/drni.online2020/posts/298322502023737
75,အောက်ဆီဂျင်,,ပရဟိတနှလုံးသား လူမှုကူညီရေးအသင်း,,ကြည့်မြင်တိုင်မြို့နယ်,,,,,,ကြည့်မြင်တိုင်,Kyeemyindaing,ရန်ကုန်တိုင်းဒေသကြီး,Yangon,"16.814573,96.121879",,,Need Confirmation,,,,,,,,https://www.facebook.com/drni.online2020/posts/298322502023737
76,အောက်ဆီဂျင်,,မွန်မြတ်သန့်ရှင်း ပရဟိတအသင်း,,၄၀ စျေးအနီး၊ ၃၅ရပ်ကွက်၊ တပင်ရွှေထီးလမ်း၊ မြောက်ဒဂုံမြို့နယ်,,,,,,ဒဂုံမြို့သစ်(မြောက်ပိုင်း),Dagon Myothit (North) ,ရန်ကုန်တိုင်းဒေသကြီး,Yangon,"16.87774,96.19079",,,Need Confirmation,,,,,,,,https://www.facebook.com/drni.online2020/posts/298322502023737
77,အောက်ဆီဂျင်,,စက္ကဝတ်ထိပ်ကဓမ္မာရုံ,,,,,,,,မြောက်ဥက္ကလာပ,North Okkalapa,ရန်ကုန်တိုင်းဒေသကြီး,Yangon,"16.918775,96.163028",,,Can't Identify,,,,,,16.918775,96.163028,https://www.facebook.com/drni.online2020/posts/298322502023737
78,အောက်ဆီဂျင်,Mingalardone Funeral Service,မင်္ဂလာဒုံ နာရေးကူညီမှုအသင်း,,ကျိုက္ကလော့ဘုရား၊ ဝတ္တကနယ်မြေ၊ မင်္ဂလာဒုံမြို့နယ်,09899964587,09899964588,,,,မင်္ဂလာဒုံ,Mingaladon,ရန်ကုန်တိုင်းဒေသကြီး,Yangon,"16.94914,96.12795",,,Need Confirmation,,,,,,,,https://www.facebook.com/drni.online2020/posts/298322502023737
79,အောက်ဆီဂျင်,,အေးချမ်းမေတ္တာ လူမှုကူညီရေးအသင်း,,အင်းစိန်မြို့နယ်,09751072309,,,,,အင်းစိန်,Insein,ရန်ကုန်တိုင်းဒေသကြီး,Yangon,"16.901771,96.095959",,,Need Confirmation,,,,,,,,https://www.facebook.com/drni.online2020/posts/298322502023737
80,အောက်ဆီဂျင်,,K.K နိုင် - အရောင်း/အငှား,,အမှတ်(၂၃၆/ဘီ)၊ အခန်း(၁၄)၊ ဗိုလ်တစ်ထောင်စျေးလမ်း×အနော်ရထာလမ်းထောင့်၊ ပုဇွန်တောင်မြို့နယ်,01397255,095048718,09421115487,,,ပုဇွန်တောင်,Pazundaung,ရန်ကုန်တိုင်းဒေသကြီး,Yangon,"16.779648,96.174392",,,Need Confirmation,,,,,,,,https://www.facebook.com/drni.online2020/posts/298322502023737
81,အောက်ဆီဂျင်,,Naing Family - အရောင်း/အငှား,,အမှတ်(၂၈၈)၊ ကုန်သည်လမ်း၊ ဗိုလ်တထောင်မြို့နယ်,09952218898,,,,,ဗိုလ်တထောင်,Botahtaung,ရန်ကုန်တိုင်းဒေသကြီး,Yangon,"16.771967,96.169709",,,Need Confirmation,,,,,,,,https://www.facebook.com/drni.online2020/posts/298322502023737
82,အောက်ဆီဂျင်,Marga Oxygen Sale,မာဃအောက်ဆီဂျင် - အရောင်း,,မာဃလမ်းမကြီး ၁၂လမ်းကွေ့ အနီး။ တောင်ဥက္ကလာပမြို့နယ်,09402591759,09448017726,09799884300,095188936,,တောင်ဥက္ကလာပ,South Okkalapa,ရန်ကုန်တိုင်းဒေသကြီး,Yangon,"16.846249,96.179859",,,Need Confirmation,,,,,,,,https://www.facebook.com/drni.online2020/posts/298322502023737
83,အောက်ဆီဂျင်,Nayla Oxygen,နေလအောက်စီဂျင်,,ကံဘဲ့၊ ရန်ကင်းမြို့နယ်,,,,,,ရန်ကင်း,Yankin,ရန်ကုန်တိုင်းဒေသကြီး,Yangon,"16.83601,96.162395",,,Need Confirmation,,,,,,,,https://www.facebook.com/drni.online2020/posts/298322502023737
84,အောက်ဆီဂျင်,Aung Myanmar,အောင်မြန်မာ - အရောင်း,,ဟံသာဝတီပျိုးဥယျာဥ်ဝန်း၊ ကျွန်းတောလမ်းမ၊ ကမာရွတ်မြို့နယ်,0973009532,098612738,09266027185,0973011903,,ကမာရွတ်,Kamaryut,ရန်ကုန်တိုင်းဒေသကြီး,Yangon,"16.827684,96.132439",,,Need Confirmation,,,,,,,,https://www.facebook.com/drni.online2020/posts/298322502023737
85,အောက်ဆီဂျင်,,ရွှေသွေးအိမ်လုပ်ငန်းစု - အရောင်း,,မြို့သစ်ဈေးရှေ့၊ အင်းစိန်မြို့နယ်,095080178,,,,,အင်းစိန်,Insein,ရန်ကုန်တိုင်းဒေသကြီး,Yangon,"16.901771,96.095959",,,Need Confirmation,အောက်ဆီဂျင်အိုးရောင်း,,,,,,,https://www.facebook.com/drni.online2020/posts/298322502023737
86,အောက်ဆီဂျင်,Joy House,Joy House - အရောင်း,,ဘုရင့်နောင် လမ်းမကြီး၊ ရွာမအနောက်ရပ်ကွက်၊ အင်းစိန်မြို့နယ်,09444555946,,,,,အင်းစိန်,Insein,ရန်ကုန်တိုင်းဒေသကြီး,Yangon,"16.901771,96.095959",,,Need Confirmation,,,,,,,,https://www.facebook.com/drni.online2020/posts/298322502023737
87,အောက်ဆီဂျင်,Unity Oxygen,Unity Oxygen - အရောင်း,,အမှတ် ၂၈၆၊ စက်မှုလမ်းသွယ် (၆)လမ်း၊ ဇုံ (၁)၊ ရွှေပြည်သာမြို့နယ်၊ ရန်ကုန်မြို့။,,,,,,ရွှေပြည်သာ,Shwepyithar ,ရန်ကုန်တိုင်းဒေသကြီး,Yangon,"16.95504,96.08329",,,Can't identify,,,,,,,,https://www.facebook.com/drni.online2020/posts/298322502023737
88,အောက်ဆီဂျင်,,"""လေ"" အလှူတော်အဖွဲ့",,ဓမ္မရာဇာလမ်း၊၁၀ရပ်ကွက်၊တောင်ဥက္ကလာပမြို့နယ်,09420000564,095072781,09254120751,09979613961,,တောင်ဥက္ကလာပ,South Okkalapa,ရန်ကုန်တိုင်းဒေသကြီး,Yangon,"16.846249,96.179859",,stopped,Can't identify/stop service,,,,,,,,https://www.facebook.com/myanmarbizlaw/posts/3642300949204850
89,အောက်ဆီဂျင်,,တကောင်း အောက်ဆီဂျင်,,တကောင်းလမ်း၊၅ရပ်ကွက်၊တောင်ဥက္ကလာပမြို့နယ်,09790966994,09450015272,09791259814,09421069667,09420071876,တောင်ဥက္ကလာပ,South Okkalapa,ရန်ကုန်တိုင်းဒေသကြီး,Yangon,"16.846249,96.179859",,,"464, Tagaung 8th St., Ward (5), South Okkalapa, Yangon , Myanmar",အောက်ဆီဂျင်အိုးရောင်း,,,,,16.857425,96.176325,https://www.facebook.com/myanmarbizlaw/posts/3642300949204850
90,အောက်ဆီဂျင်,,လေသွေးသစ္စာပရဟိတအသင်း,,သီရိဇေယျာ၊ (၉၇၉) - (၁၈) လမ်း (က)၊၇ ရပ်ကွက်၊တောင်ဥက္ကလာပမြို့နယ်,09450543929,09799970397,0973085976,09421161230,,တောင်ဥက္ကလာပ,South Okkalapa,ရန်ကုန်တိုင်းဒေသကြီး,Yangon,"16.846249,96.179859",,,Can't identify,,,,,,,,https://www.facebook.com/myanmarbizlaw/posts/3642300949204850
91,အောက်ဆီဂျင်,,ကိုအောင်ဆန်း,,ပန်းဘဲတန်း,095128954,,,,,ပန်းဘဲတန်း,Pabedan,ရန်ကုန်တိုင်းဒေသကြီး,Yangon,"16.776983,96.15601",,,Can't identify,,,,,,,,https://www.facebook.com/myanmarbizlaw/posts/3642300949204850
92,အောက်ဆီဂျင်,Shwe Nyi Ko (Ko Tun Tun),ရွှေညီကို (ကိုထွန်းထွန်း),,,09791126485,,,,,ကလေး,Kale ,စစ်ကိုင်းတိုင်းဒေသကြီး,Sagaing,"23.1933,94.02977",,,"လပြည့်အောင်ကွန်ပြူတာဆိုင်, ဆေးရုံတံတားနား, မချောင်း-ကလေးဝလမ်းမ,ကလေးမြို့။",အောက်ဆီဂျင်ဖြည့်လို့ရ,,ညမထွက်ရအချိန်မှအပ,ပိတ်ရက်မရှိ,"09-976823605, 09-259662828",,,
93,အောက်ဆီဂျင်,,Central Chin Pawlpi (CCP),,,09775975213,,,,,ကလေး,Kale ,စစ်ကိုင်းတိုင်းဒေသကြီး,Sagaing,"23.1933,94.02977",,,"Central Chin Pawlpi, အိမ်အမှတ်၁၄, တာယနယ်မြေ၃, ကလေးမြို့။",အောက်ဆီဂျင်ဖြည့်လို့ရ,,ညမထွက်ရအချိန်မှအပ,ပိတ်ရက်မရှိ,09-771720347(Office),,,
94,အောက်ဆီဂျင်,,တပ်ဦးသီတာနှင့် သဇင်ဦး Center(LCEC),,,09421459897,09259162861,09457070084,09792778037,,ကလေး,Kale ,စစ်ကိုင်းတိုင်းဒေသကြီး,Sagaing,"23.1933,94.02977",,,LCECကိုယ်ပိုင်ကျောင်း ၊မြို့ပတ်လမ်း၊ ကရင်ရပ်ကွက်၊ ကလေးမြို့။,အောက်ဆီဂျင်အပိုပစ္စည်းရရှိနိုင်,,မနက်၈-ည၇,ပိတ်ရက်မရှိ,,23.19708,94.03337,
95,အောက်ဆီဂျင်,Tahan Oxygen,Tahan Oxygen,,,09442183330,,,,,ကလေး,Kale ,စစ်ကိုင်းတိုင်းဒေသကြီး,Sagaing,"23.1933,94.02977",,,ဂရုဏာလမ်း၊ Wesley ဆေးရုံအနောက်ဘက်၊ တာဟန်းရပ်ကွက်၊ ကလေးမြို့။,"အောက်ဆီဂျင်အိုးရောင်း,အောက်ဆီဂျင်အပိုပစ္စည်းရရှိနိုင်",,မနက်၈-ည၇,ပိတ်ရက်မရှိ,,23.20108,94.01412,
96,အောက်ဆီဂျင်,Kawlpi Dimlokhua Kipawlna,Kawlpi Dimlokhua Kipawlna,,,09263857322,09400457397,,,,ကလေး,Kale ,စစ်ကိုင်းတိုင်းဒေသကြီး,Sagaing,"23.1933,94.02977",,,နံပါတ် (၄၅) ၊ တပ်ဦးသီတာ (၂) ၊ ဂျိုးဖြူလမ်း၊ ကလေးမြို့။,,,၂၄ နာရီ,ပိတ်ရက်မရှိ,,23.19203,94.04175,
97,အောက်ဆီဂျင်,Zo Baptist Association (ZBA),Zo Baptist Association (ZBA),,,09289208436,09893790612,,,,ကလေး,Kale ,စစ်ကိုင်းတိုင်းဒေသကြီး,Sagaing,"23.1933,94.02977",,,Can't identify,,,,,,23.19514,94.03042,
98,အောက်ဆီဂျင်,Pinlong Baptist Church (PBC),Pinlong Baptist Church (PBC),,,09445293358,,,,,ကလေး,Kale ,စစ်ကိုင်းတိုင်းဒေသကြီး,Sagaing,"23.1933,94.02977",,,Can't identify,,,,,,23.19201,94.05519,
99,အောက်ဆီဂျင်,Gaspa (Tahan),Gaspa (Tahan),,,09782299135,09782299737,,,,ကလေး,Kale ,စစ်ကိုင်းတိုင်းဒေသကြီး,Sagaing,"23.1933,94.02977",,,Can't identify,,,,,,,,
100,အောက်ဆီဂျင်,Tat U Thidar,တပ်ဦးသီတာ,,,09400457626,,,,,ကလေး,Kale ,စစ်ကိုင်းတိုင်းဒေသကြီး,Sagaing,"23.1933,94.02977",,,Can't identify,,,,,,,,
101,အောက်ဆီဂျင်,Saung Thet Lal Kar Ya Kan Myittar,ဆောင်းသက်လယ်ကာယကံမေတ္တာ,,,09426441199,,,,,ကလေး,Kale ,စစ်ကိုင်းတိုင်းဒေသကြီး,Sagaing,"23.1933,94.02977",,,ဗိုလ်ချုပ်လမ်း၊ နေသာကျောင်းအနီး၊ ညောင်ပင်သာရပ်ကွက်၊ ကလေးမြို့။,"အောက်ဆီဂျင်ဖြည့်လို့ရ,လူနာတင်ယဥ်,နာရေးကူညီမှု",,မနက်၈-ည၇,ပိတ်ရက်မရှိ,,23.18848,94.0687,
102,အောက်ဆီဂျင်,U Sint Myittar Htut Khaung,ဦးဆင့်မေတ္တာထွဋ်ခေါင်,,,09449146619,,,,,ကလေး,Kale ,စစ်ကိုင်းတိုင်းဒေသကြီး,Sagaing,"23.1933,94.02977",,,Need Confirmation,,,,,,,,
103,အောက်ဆီဂျင်,KPT Construction Co.Ltd,KPT Construction Co.Ltd.,,,09264991350,09768638234,,,,ကလေး,Kale ,စစ်ကိုင်းတိုင်းဒေသကြီး,Sagaing,"23.1933,94.02977",,,အမှတ် ၉/၁၀၂၊ စိန့်မိုက်ကယ်လမ်း၊ တောင်ဖီလာရပ်ကွက်၊ ကလေးမြို့။,,ညမထွက်ရအချိန်ကူညီပေး,၂၄ နာရီ,ပိတ်ရက်မရှိ,,23.19466,94.00556,
104,အောက်ဆီဂျင်,ZBCM Zum,ZBCM Zum,,,09257183427,,,,,ကလေး,Kale ,စစ်ကိုင်းတိုင်းဒေသကြီး,Sagaing,"23.1933,94.02977",,stopped,Stop Service,,,,,,23.19925,94.03064,https://www.facebook.com/HHinformation/posts/115432707460325
105,အောက်ဆီဂျင်,Gaspa Gas,Gaspa Gas အရောင်းဆိုင်,,စက်မှုဇုန်,09766679395,,,,,ကလေး,Kale ,စစ်ကိုင်းတိုင်းဒေသကြီး,Sagaing,"23.1933,94.02977",,,"Khat Tar Street, Industrial Zone, Kale",,,,,,23.204044,93.977412,https://www.facebook.com/HHinformation/posts/115432707460325
106,အောက်ဆီဂျင်,Gaspa Gas,Gaspa Gas အရောင်းဆိုင်,,တာဟန်း,09442001138,,,,,ကလေး,Kale ,စစ်ကိုင်းတိုင်းဒေသကြီး,Sagaing,"23.1933,94.02977",,,Need Confirmation,,,,,,,,https://www.facebook.com/HHinformation/posts/115432707460325
107,အောက်ဆီဂျင်,Gaspa Gas,Gaspa Gas အရောင်းဆိုင်,,ပင်လုံ,09400302806,,,,,ကလေး,Kale ,စစ်ကိုင်းတိုင်းဒေသကြီး,Sagaing,"23.1933,94.02977",,stopped,Stop Service,,,,,,,,https://www.facebook.com/HHinformation/posts/115432707460325
108,အောက်ဆီဂျင်,Modern Gas,Modern gas အရောင်းဆိုင်,,,09400534688,09452746063,,,,ကလေး,Kale ,စစ်ကိုင်းတိုင်းဒေသကြီး,Sagaing,"23.1933,94.02977",,stopped,Stop Service,,,,,,23.19195,94.050256,https://www.facebook.com/HHinformation/posts/115432707460325
109,အောက်ဆီဂျင်,Mingyi Hotel,မင်းကြီး ဟိုတယ်,,,09400534265,,,,,ကလေး,Kale ,စစ်ကိုင်းတိုင်းဒေသကြီး,Sagaing,"23.1933,94.02977",,,"8/6, Bogyote Road, Thazin Ward, Kale",,,မနက်၈-ည၆,ပိတ်ရက်မရှိ,,23.19195,94.050256,https://www.facebook.com/HHinformation/posts/115432707460325
110,အောက်ဆီဂျင်,Hong Kong 3,ဟောင်ကောင် ၃,,,09964009962,,,,,ကလေး,Kale ,စစ်ကိုင်းတိုင်းဒေသကြီး,Sagaing,"23.1933,94.02977",,,Need Confirmation,,,,,962151547,,,https://www.facebook.com/HHinformation/posts/115432707460325
111,အောက်ဆီဂျင်,Aung Yadanar,အောင်ရတနာ,,,09447777628,,,,,ကလေး,Kale ,စစ်ကိုင်းတိုင်းဒေသကြီး,Sagaing,"23.1933,94.02977",,stopped,Stop Service,,,,,,,,https://www.facebook.com/HHinformation/posts/115432707460325
112,အောက်ဆီဂျင်,Wathan Oo,ဝဿန်ဦး,,,09400465000,,,,,ကလေး,Kale ,စစ်ကိုင်းတိုင်းဒေသကြီး,Sagaing,"23.1933,94.02977",,stopped,Stop Service,,,,,,23.185409,94.061563,https://www.facebook.com/HHinformation/posts/115432707460325
113,အောက်ဆီဂျင်,Hnin Thazin,နှင်းသဇင်,,,09400457875,09964457875,,,,ကလေး,Kale ,စစ်ကိုင်းတိုင်းဒေသကြီး,Sagaing,"23.1933,94.02977",,,Need Confirmation,,,,,,,,https://www.facebook.com/HHinformation/posts/115432707460325
114,အောက်ဆီဂျင်,Flacon Motorbike,Flacon ဆိုင်ကယ်ဆိုင်,,,09967805288,,,,,ကလေး,Kale ,စစ်ကိုင်းတိုင်းဒေသကြီး,Sagaing,"23.1933,94.02977",,stopped,Wrong Info/ Stop Service,,,,,,,,https://www.facebook.com/HHinformation/posts/115432707460325
115,အောက်ဆီဂျင်,3 Stars,3 stars,,,09259162848,,,,,ကလေး,Kale ,စစ်ကိုင်းတိုင်းဒေသကြီး,Sagaing,"23.1933,94.02977",,,"1/7, Bogyote Road, Ta Oo Thida Ward, Kale",,,,,,23.190293,94.046258,https://www.facebook.com/HHinformation/posts/115432707460325
116,အောက်ဆီဂျင်,Wizaya Oxygen,ဝိဇယ အောက်ဆီဂျင်,,၃၉လမ်း၊အထက်၊ ဇေယျမင်္ဂလာဓမ္မာရုံ၊ ကျောက်တံတားမြို့နယ်,0943201893,0973206443,,,,ကျောက်တံတား,Kyauktada,ရန်ကုန်တိုင်းဒေသကြီး,Yangon,"16.774263,96.161642",,,Need Confirmation,,,,,,,,https://www.facebook.com/myanmarbizlaw/posts/3642300949204850
117,အောက်ဆီဂျင်,,ကရုဏာရောင်ခြည် အောက်ဆီဂျင် အဖွဲ့,,အရှေ့ပိန္နဲကုန်းကျောင်းတိုက်၊ မန္တလေးလမ်း၊ ကန်တော်ကလေးတောင်ရပ်ကွက်၊ မင်္ဂလာတောင်ညွန့်မြို့နယ်,0940164572,09421051883,09771219712,09796257112,09425019576,မင်္ဂလာတောင်ညွန့်,Mingalartaungnyunt,ရန်ကုန်တိုင်းဒေသကြီး,Yangon,"16.788908,96.167859",,,Same as Original,,,၂၄ နာရီ,ပိတ်ရက်မရှိ,,,,https://www.facebook.com/myanmarbizlaw/posts/3642300949204850
118,အောက်ဆီဂျင်,,FREE OXYGEN,,အမှတ်(၄)၊ ၁၂၆ လမ်း၊ သပြေကုန်း၊ မင်္ဂလာတောင်ညွန့်မြို့နယ်,0943135650,095199084,0973188313,,,မင်္ဂလာတောင်ညွန့်,Mingalartaungnyunt,ရန်ကုန်တိုင်းဒေသကြီး,Yangon,"16.788908,96.167859",,,Need Confirmation,,,,,,,,https://www.facebook.com/myanmarbizlaw/posts/3642300949204850
119,အောက်ဆီဂျင်,,ရွှေစင်သစ္စာ သွေးနှင့်အသက်ကယ် အောက် ဆီဂျင် ပရဟိတ လူမှုကူညီရေးအသင်း,,အရှင်အာဒိစ္စဝံသ ကျောင်းတိုက်၊ မင်္ဂလာတောင်ညွန့်မြို့နယ်,09250142157,09402546081,0930070545,09250674489,,မင်္ဂလာတောင်ညွန့်,Mingalartaungnyunt,ရန်ကုန်တိုင်းဒေသကြီး,Yangon,"16.788908,96.167859",,,Same as Original,,,၂၄ နာရီ,ပိတ်ရက်မရှိ,,,,https://www.facebook.com/myanmarbizlaw/posts/3642300949204850
120,အောက်ဆီဂျင်,,ပေးဆပ်ခြင်း ပရဟိတနှင့် နာရေး (အခမဲ့) ကူညီမှု အသင်း,,ဗြဟ္မဝိဟာရကျောင်းတိုက်၊ သာယာကုန်း(၂)ရပ်ကွက်၊ ပုဇွန်တောင်မြို့နယ်,09777704461,09421060011,,,,ပုဇွန်တောင်,Pazundaung,ရန်ကုန်တိုင်းဒေသကြီး,Yangon,"16.779648,96.174392",,,Need Confirmation,,,,,,,,https://www.facebook.com/myanmarbizlaw/posts/3642300949204850
121,အောက်ဆီဂျင်,,အောက်ဆီဂျင် အသင်း (၅၁) လမ်း အပေါ်,,(၁၇၄/၁၇၆)၊ (၁၀)ရပ်ကွက်၊ ပုဇွန်တောင်မြို့နယ်,0930086020,,,,,ပုဇွန်တောင်,Pazundaung,ရန်ကုန်တိုင်းဒေသကြီး,Yangon,"16.779648,96.174392",,,Need Confirmation,,,,,,,,https://www.facebook.com/myanmarbizlaw/posts/3642300949204850
122,အောက်ဆီဂျင်,,စေတနာရှင်များ လူမှုကူညီရေး အသင်း,,ဗိုလ်ထွန်းဇံ ရပ်ကွက်၊ ဒေါပုံမြို့နယ်,09250918670,09798181781,09421117466,,,ဒေါပုံ,Dawbon,ရန်ကုန်တိုင်းဒေသကြီး,Yangon,"16.781917,96.18435",,,Same as Original,,,,,,,,https://www.facebook.com/myanmarbizlaw/posts/3642300949204850
123,အောက်ဆီဂျင်,,O2 ဇီဝိတဒါန အသက်ကယ် အောက်ဆီဂျင်,,အောင်သပြေလမ်းနှင့် ဓမ္မာရုံလမ်းထောင့် (၇) လမ်း၊ ဝီရိယအဓိက ဓမ္မာရုံဘေး၊ အရှေ့ရပ်ကွက်၊ သာကေတမြို့နယ်,0973014753,0943105871,09421087409,00942006 5089,,သာကေတ,Thaketa,ရန်ကုန်တိုင်းဒေသကြီး,Yangon,"16.793009,96.202959",,,Need Confirmation,,,,,,,,https://www.facebook.com/myanmarbizlaw/posts/3642300949204850
124,အောက်ဆီဂျင်,,မဥ္ဇူမောင်မယ် အောက်ဆီဂျင်,,၆ ရပ်ကွက်၊ သာကေတမြို့နယ်,09251029600,095187110,,,,သာကေတ,Thaketa,ရန်ကုန်တိုင်းဒေသကြီး,Yangon,"16.793009,96.202959",,,Same as Original,,,၂၄ နာရီ,ပိတ်ရက်မရှိ,,,,https://www.facebook.com/myanmarbizlaw/posts/3642300949204850
125,အောက်ဆီဂျင်,,"“ စံ "" (ပုဂ္ဂလိက ) O2 အလှူ",,(၃၈)၊ မာန်ပြေ (၁၆) လမ်း၊ အရှေ့ (၃)ရပ်ကွက်၊ သာကေတမြို့နယ်,0943032966,09782914109,09263060994,,,သာကေတ,Thaketa,ရန်ကုန်တိုင်းဒေသကြီး,Yangon,"16.793009,96.202959",,,Need Confirmation,,,,,,,,https://www.facebook.com/myanmarbizlaw/posts/3642300949204850
126,အောက်ဆီဂျင်,,မေတ္တာရောင်ခြည် လူမှုအကျိုးပြု အဖွဲ့,,အောင်သိဒ္ဓိကျောင်းတိုက် (ယာယီ)၊ အမှတ် (၉) ရပ်ကွက်၊ သာကေတမြို့နယ်,09262683383,0997221799,,,,သာကေတ,Thaketa,ရန်ကုန်တိုင်းဒေသကြီး,Yangon,"16.793009,96.202959",,,Need Confirmation,,,,,,,,https://www.facebook.com/myanmarbizlaw/posts/3642300949204850
127,အောက်ဆီဂျင်,,ကံကောင်းပရဟိတအဖွဲ့,,အမှတ် (၂၂၇)၊ သိဂီ (၁) လမ်း၊ (၅) ရပ်ကွက်၊ သာကေတမြို့နယ်,01541658,0973011981,09421056866,09420778897,0925001962,သာကေတ,Thaketa,ရန်ကုန်တိုင်းဒေသကြီး,Yangon,"16.793009,96.202959",,,Same as Original,,,၂၄ နာရီ,ပိတ်ရက်မရှိ,,,,https://www.facebook.com/myanmarbizlaw/posts/3642300949204850
128,အောက်ဆီဂျင်,,ဒီဃာတု ကျန်းမာရေးကူညီစောင့်ရှောက်ရေးအဖွဲ့,,ဇောတရုံလမ်း၊ ၂/တောင် ရပ်ကွက်၊ သာကေတမြို့နယ်,095199427,09258400303,,,,သာကေတ,Thaketa,ရန်ကုန်တိုင်းဒေသကြီး,Yangon,"16.793009,96.202959",,,Need Confirmation,,,,,,,,https://www.facebook.com/myanmarbizlaw/posts/3642300949204850
129,အောက်ဆီဂျင်,,ပီတိ လူမှုကူညီရေး အသင်း,,ဇေယျဝတီလမ်းမကြီး၊(၁၂/၁၃)ရပ်ကွက်၊ သာကေတမြို့နယ်,09781803890,09421090656,,,,သာကေတ,Thaketa,ရန်ကုန်တိုင်းဒေသကြီး,Yangon,"16.793009,96.202959",,,Need Confirmation,,,,,,,,https://www.facebook.com/myanmarbizlaw/posts/3642300949204850
130,အောက်ဆီဂျင်,,ကြီးပွားရေး 02 လူမှုကူညီရေးနှင့် အောက်ဆီဂျင် အသင်း,,ကြီးပွားရေး တောင်ပိုင်း၊ သင်္ဃန်းကျွန်းမြို့နယ်,09795878625,09254310654,0931348688,,,သင်္ဃန်းကျွန်း,Thingangyun,ရန်ကုန်တိုင်းဒေသကြီး,Yangon,"16.831011,96.19323",,,Same as Original,,,,,,,,https://www.facebook.com/myanmarbizlaw/posts/3642300949204850
131,အောက်ဆီဂျင်,,အနှိုင်းမဲ့ မေတ္တာလူငယ် ပရဟိတအသင်း,,ရန်မျိုးအောင် ဘုရားဝင်း၊ စံပြရပ်ကွက်၊ သင်္ဃန်းကျွန်းမြို့နယ်,09420149908,09778102115,,,,သင်္ဃန်းကျွန်း,Thingangyun,ရန်ကုန်တိုင်းဒေသကြီး,Yangon,"16.831011,96.19323",,,Need Confirmation,,,,,,,,https://www.facebook.com/myanmarbizlaw/posts/3642300949204850
132,အောက်ဆီဂျင်,,ကြယ်ဖြူသာရေးနာရေးကူညီမှုအသင်း,,ဦးစံဖေလမ်း၊ ဦးစံဖေရပ်ကွက်၊ သင်္ဃန်းကျွန်းမြို့နယ်,09421162093,09420061980,,,,သင်္ဃန်းကျွန်း,Thingangyun,ရန်ကုန်တိုင်းဒေသကြီး,Yangon,"16.831011,96.19323",,,Need Confirmation,,,,,,,,https://www.facebook.com/myanmarbizlaw/posts/3642300949204850
133,အောက်ဆီဂျင်,,ပုဂ္ဂလိက O2 အလှူ,,၂၂ ရပ်ကွက်၊ တောင်ဒဂုံမြို့နယ်,0973253411,,,,,ဒဂုံမြို့သစ်(တောင်ပိုင်း),Dagon Myothit (South) ,ရန်ကုန်တိုင်းဒေသကြီး,Yangon,"16.84016,96.22582",,,Need Confirmation,,,,,,,,https://www.facebook.com/myanmarbizlaw/posts/3642300949204850
134,အောက်ဆီဂျင်,,ဘဝသံသရာ ပရဟိတအဖွဲ့,,တိုက်(၁၈)၊ ၄ ဘလောက်၊ အခန်း(၂၀၂)၊ ယုဇန ဥယျာဉ်မြို့တော်၊ ဆောင်းဟေမာန်အိမ်ယာ၊ တောင်ဒဂုံမြို့နယ်,095506812,,,,,ဒဂုံမြို့သစ်(တောင်ပိုင်း),Dagon Myothit (South) ,ရန်ကုန်တိုင်းဒေသကြီး,Yangon,"16.84016,96.22582",,,Need Confirmation,အောက်ဆီဂျင်ဖြည့်လို့ရ,,၂၄ နာရီ,ပိတ်ရက်မရှိ,,,,https://www.facebook.com/myanmarbizlaw/posts/3642300949204850
135,အောက်ဆီဂျင်,,စစ်ကိုင်း (ခင်မကန်) ကျောင်းတိုက် O2အလှူ,,စစ်ကိုင်း (ခင်မကန်) ကျောင်းတိုက်၊ တောင်ဒဂုံမြို့နယ်,098612803,095063816,,,,ဒဂုံမြို့သစ်(တောင်ပိုင်း),Dagon Myothit (South) ,ရန်ကုန်တိုင်းဒေသကြီး,Yangon,"16.84016,96.22582",,,Need Confirmation,,,,,,,,https://www.facebook.com/myanmarbizlaw/posts/3642300949204850
136,အောက်ဆီဂျင်,,အေးမြစေသား 02 အဖွဲ့,,အမှတ်( ၆၄၁)၊ မြရတနာ (၃) လမ်း၊ (၂၄) ရပ်ကွက်၊ တောင်ဒဂုံမြို့နယ်,09445466895,095095946,,,,ဒဂုံမြို့သစ်(တောင်ပိုင်း),Dagon Myothit (South) ,ရန်ကုန်တိုင်းဒေသကြီး,Yangon,"16.84016,96.22582",,,Need Confirmation,"အောက်ဆီဂျင်အပိုပစ္စည်းရရှိနိုင်,လူနာတင်ယဥ်,နာရေးကူညီမှု",,၂၄ နာရီ,ပိတ်ရက်မရှိ,,,,https://www.facebook.com/myanmarbizlaw/posts/3642300949204850
137,အောက်ဆီဂျင်,,ဖြိုးစေတနာ ပရဟိတအသင်း,,(၅၃) ရပ်ကွက်၊ (၇၁) ရပ်ကွက်၊ တောင်ဒဂုံမြို့နယ်,09799538119,09799620724,09254676881,09799556636,09421024656,ဒဂုံမြို့သစ်(တောင်ပိုင်း),Dagon Myothit (South) ,ရန်ကုန်တိုင်းဒေသကြီး,Yangon,"16.84016,96.22582",,,Need Confirmation,,,,,,,,https://www.facebook.com/myanmarbizlaw/posts/3642300949204850
138,အောက်ဆီဂျင်,,အာဇိဏ္ဏကံ လူမှုကူညီရေး ပရဟိတအသင်း,,စိုက်/မွေ၊ (၁)၊ တောင်ဒဂုံမြို့နယ်,09250918670,09250373926,0925057972,,,ဒဂုံမြို့သစ်(တောင်ပိုင်း),Dagon Myothit (South) ,ရန်ကုန်တိုင်းဒေသကြီး,Yangon,"16.84016,96.22582",,,Need Confirmation,လူနာတင်ယဥ်,,,ပိတ်ရက်မရှိ,,,,https://www.facebook.com/myanmarbizlaw/posts/3642300949204850
139,အောက်ဆီဂျင်,,ရွှေသန်လျင် နာရေးကူညီမှု အသင်း (ဒဂုံ),,ကျီစုသုဿန်အရှေ့ဒဂုံမြို့သစ်(ဆိပ်ကမ်း) မြို့နယ်,0943065543,097309873,09251013151,,,ဒဂုံမြို့သစ် (ဆိပ်ကမ်း),Dagon Myothit (Seikkan),ရန်ကုန်တိုင်းဒေသကြီး,Yangon,"16.840488,96.272564",,,Need Confirmation,လူနာတင်ယဥ်,,,ပိတ်ရက်မရှိ,,,,https://www.facebook.com/myanmarbizlaw/posts/3642300949204850
140,အောက်ဆီဂျင်,,မေတ္တာရောင်ခြည် လူမှုကူညီရေး အသင်း,,(၁၂) ရပ်ကွက်၊ ဗိုလ်မြင့်အောင်လမ်း၊ အရှေ့/ဒဂုံမြို့နယ်,09769370725,,,,,ဒဂုံမြို့သစ် (အရှေ့ပိုင်း),Dagon Myothit (East),ရန်ကုန်တိုင်းဒေသကြီး,Yangon,"16.912805,96.213226",,,Need Confirmation,,,,,,,,https://www.facebook.com/myanmarbizlaw/posts/3642300949204850
141,အောက်ဆီဂျင်,,စေတနာရှင် ပရဟိတ,,အမှတ် (၁၁၀၀)၊ မင်းရဲကျော်စွာလမ်းမ၊ (၆)ရပ်ကွက်၊ အရှေ့ဒဂုံမြို့နယ်,09250010032,0973145427,,,,ဒဂုံမြို့သစ် (အရှေ့ပိုင်း),Dagon Myothit (East),ရန်ကုန်တိုင်းဒေသကြီး,Yangon,"16.912805,96.213226",,,Need Confirmation,,,,,,,,https://www.facebook.com/myanmarbizlaw/posts/3642300949204850
142,အောက်ဆီဂျင်,,မုဒိတာ အောက်ဆီဂျင် အလှူတော်အဖွဲ့,,(၃၀) ရပ်ကွက်၊ မြောက်ဒဂုံမြို့နယ်,09795635778,095050719,0942514211,,,ဒဂုံမြို့သစ်(မြောက်ပိုင်း),Dagon Myothit (North) ,ရန်ကုန်တိုင်းဒေသကြီး,Yangon,"16.87774,96.19079",,,Need Confirmation,,,,,,,,https://www.facebook.com/myanmarbizlaw/posts/3642300949204850
143,အောက်ဆီဂျင်,,ကရုဏာ နာရေးကူညီမှု O2 အလှူတော်အသင်း,,(၄၅) ရပ်ကွက်၊ မြောက်ဒဂုံမြို့နယ်,09761564295,09264324742,,,,ဒဂုံမြို့သစ်(မြောက်ပိုင်း),Dagon Myothit (North) ,ရန်ကုန်တိုင်းဒေသကြီး,Yangon,"16.87774,96.19079",,,Need Confirmation,,,,,,,,https://www.facebook.com/myanmarbizlaw/posts/3642300949204850
144,အောက်ဆီဂျင်,,“ကမ်” လေအလှူတော် (ပုဂ္ဂလိက) O2 အလှူ,,(၉၁၂) ဗိုလ်ဆွန်ပက်လမ်း၊ (၃၆)ရပ်ကွက်၊ မြောက်ဒဂုံမြို့နယ်,018010021,09264370402,09252453042,,,ဒဂုံမြို့သစ်(မြောက်ပိုင်း),Dagon Myothit (North) ,ရန်ကုန်တိုင်းဒေသကြီး,Yangon,"16.87774,96.19079",,,Need Confirmation,,,,,,,,https://www.facebook.com/myanmarbizlaw/posts/3642300949204850
145,အောက်ဆီဂျင်,,ခရေမိသားစု ပရဟိတနှင့် သွေးအလှူရှင်များ အသင်း,,(၃၈/၉၇၁)၊ ခရေလမ်း၊ မြောက်ဒဂုံမြို့နယ်,095078627,,,,,ဒဂုံမြို့သစ်(မြောက်ပိုင်း),Dagon Myothit (North) ,ရန်ကုန်တိုင်းဒေသကြီး,Yangon,"16.87774,96.19079",,,Need Confirmation,,,,,,,,https://www.facebook.com/myanmarbizlaw/posts/3642300949204850
146,အောက်ဆီဂျင်,,ဈ/မေဓာဝီ အောက်ဆီဂျင် ဦးတင်စိန်,,သဒ္ဒမ္မဟိတကာရုံ ဓမ္မာရုံ၊ မေဓာဝီလမ်း၊ (ဈ) ရပ်ကွက်၊ မြောက်ဥက္ကလာပမြို့နယ်,0925449253,09786586392,09785182319,095401785,0931880569,မြောက်ဥက္ကလာပ,North Okkalapa,ရန်ကုန်တိုင်းဒေသကြီး,Yangon,"16.918775,96.163028",,,Need Confirmation,,,,,,,,https://www.facebook.com/myanmarbizlaw/posts/3642300949204850
147,အောက်ဆီဂျင်,,ဂုဏ်တော်ရိပ်သာ လေအလှူတော်အဖွဲ့,,သန္တာလမ်း၊ မြောက်ဥက္ကလာပမြို့နယ်,09250506272,097301502,09250673126,,,မြောက်ဥက္ကလာပ,North Okkalapa,ရန်ကုန်တိုင်းဒေသကြီး,Yangon,"16.918775,96.163028",,,Need Confirmation,,,,,,,,https://www.facebook.com/myanmarbizlaw/posts/3642300949204850
148,အောက်ဆီဂျင်,,မြင့်မြတ်သူတို့ နှလုံးသား ပရဟိတအဖွဲ့,,အောင်သပြေလမ်းနှင့်ဝေဟင်းလမ်းထောင့်၊ ဝေဘာဂီ (၃)ဝေဟင်းလမ်းထောင့်၊ ဝေဘာဂီ (၃),09761899255,09968980443,,,,မြောက်ဥက္ကလာပ,North Okkalapa,ရန်ကုန်တိုင်းဒေသကြီး,Yangon,"16.918775,96.163028",,,Need Confirmation,,,,,,,,https://www.facebook.com/myanmarbizlaw/posts/3642300949204850
149,အောက်ဆီဂျင်,,"“လေ"" အလှူတော်အဖွဲ့",,ဓမ္မရာဇာ လမ်း၊ (၁၀) ရပ်ကွက်၊ တောင်ဥက္ကလာပမြို့နယ်,09420000564,095072781,09254120751,09979613961,,တောင်ဥက္ကလာပ,South Okkalapa,ရန်ကုန်တိုင်းဒေသကြီး,Yangon,"16.846249,96.179859",,,Need Confirmation,,,,,,,,https://www.facebook.com/myanmarbizlaw/posts/3642300949204850
150,အောက်ဆီဂျင်,Ta Gaung Oxygen,တကောင်း အောက်ဆီဂျင်,,တကောင်းလမ်း၊ (၅) ရပ်ကွက်၊ တောင်ဥက္ကလာပမြို့နယ်,09790966994,09450015272,09791259814,09421069667,09421071876,တောင်ဥက္ကလာပ,South Okkalapa,ရန်ကုန်တိုင်းဒေသကြီး,Yangon,"16.846249,96.179859",,stopped,Wrong Info/ Stop Service,,,,,,,,https://www.facebook.com/myanmarbizlaw/posts/3642300949204850
151,အောက်ဆီဂျင်,,လေ-သွေး ပရဟိတအသင်း,,သီရိဇေယျ (၉၇၉)-(၁၈)လမ်း၊ (က)/(၇)ရပ်ကွက်,09450543929,09799970397,0973085976,09421161230,,တောင်ဥက္ကလာပ,South Okkalapa,ရန်ကုန်တိုင်းဒေသကြီး,Yangon,"16.846249,96.179859",,,Need Confirmation,,,,,,,,https://www.facebook.com/myanmarbizlaw/posts/3642300949204850
152,အောက်ဆီဂျင်,,မျှဝေခံစား တွဲလက်များ ပရဟိတ အသင်း,,အမှတ် (၄၉၄)၊ ယဿဝတီ လမ်း၊ (၁၃) ရပ်ကွက်၊ တောင်ဥက္ကလာပမြို့နယ်,09484442770,09484442770,09765000579,,,တောင်ဥက္ကလာပ,South Okkalapa,ရန်ကုန်တိုင်းဒေသကြီး,Yangon,"16.846249,96.179859",,,Need Confirmation,,,,,,,,https://www.facebook.com/myanmarbizlaw/posts/3642300949204850
153,အောက်ဆီဂျင်,Nay La Free Oxygen,နေလ အောက်ဆီဂျင် အလှူတော်,,၄/၂/၆၇(ခ)၊ စိုက်ပျိုးရေးပဒေသာလမ်း၊ (၁၁)ရပ်ကွက်၊ ၁၄၆ ကံဘဲ့ဘူတာရုံလမ်း၊ (၁၂) ရပ်ကွက်၊ ရန်ကင်းမြို့နယ်,09795816657,09450021082,09790209503,,,ရန်ကင်း,Yankin,ရန်ကုန်တိုင်းဒေသကြီး,Yangon,"16.83601,96.162395",,,Same as Original,လူနာတင်ယဥ်,,,,,,,https://www.facebook.com/myanmarbizlaw/posts/3642300949204850
154,အောက်ဆီဂျင်,,ခရေပွင့် လူငယ်များ ပရဟိတအသင်း,,(၄/၃/၇၄) လူငယ်မေတ္တာလမ်း၊ (၁၂) ရပ်ကွက်၊ ရန်ကင်းမြို့နယ်,09730195811,0945021878,0942324264,,,ရန်ကင်း,Yankin,ရန်ကုန်တိုင်းဒေသကြီး,Yangon,"16.83601,96.162395",,,Need Confirmation,,,,,,,,https://www.facebook.com/myanmarbizlaw/posts/3642300949204850
155,အောက်ဆီဂျင်,Lay Pyay Nyin,လေပြေညှင်း အဖွဲ့,,ပြည်သာယာ အဆင့်မြင့်အိမ်ယာ၊ ဘောက်ထော် ရပ်ကွက်၊ ရန်ကင်းမြို့နယ်,09250278923,09252576879,0943165950,,,ရန်ကင်း,Yankin,ရန်ကုန်တိုင်းဒေသကြီး,Yangon,"16.83601,96.162395",,stopped,Wrong Info/ Stop Service,,,,,,,,https://www.facebook.com/myanmarbizlaw/posts/3642300949204850
156,အောက်ဆီဂျင်,,ရန်အောင်မြေလေ အလှူတော် (ဆရာစံ/မြောက်),,အရှေ့မြို့ပတ်လမ်း၊ အ.မ.က (၄)ကျောင်းရှေ့၊ ဆရာစံမြောက်၊ အရှေ့ဗဟန်းမြို့နယ်,0931692790,09254255054,09250367336,09401523238,,ဗဟန်း,Bahan,ရန်ကုန်တိုင်းဒေသကြီး,Yangon,"16.815427,96.156112",,,Need Confirmation,,,,,,,,https://www.facebook.com/myanmarbizlaw/posts/3642300949204850
157,အောက်ဆီဂျင်,Mingalar Free Oxygen,မင်္ဂလာလေ အလှူတော် (ဆရာစံ/တောင်),,မင်္ဂလာသိဒ္ဓိလမ်း၊ ဆရာစံတောင်ရပ်ကွက်၊ ဗဟန်းမြို့နယ်,095021569,095117535,094241086,,,ဗဟန်း,Bahan,ရန်ကုန်တိုင်းဒေသကြီး,Yangon,"16.815427,96.156112",,,Need Confirmation,,,,,,,,https://www.facebook.com/myanmarbizlaw/posts/3642300949204850
158,အောက်ဆီဂျင်,Bo Sein Hman Youth Free Oxygen,ဗိုလ်စိန်မှန် လူငယ်များ၏ O2 အလှူ,,ဗိုလ်မှူးအောင်လမ်းထောင့်၊ ဗဟန်းမြို့နယ်,0997577951,095055868,,,,ဗဟန်း,Bahan,ရန်ကုန်တိုင်းဒေသကြီး,Yangon,"16.815427,96.156112",,stopped,Stop Service,,,,,,,,https://www.facebook.com/myanmarbizlaw/posts/3642300949204850
159,အောက်ဆီဂျင်,,မုဒိတာ တာမွေ အောက်ဆီဂျင်လေ အလှူတော်,,(၁၆၆) လမ်း၊ တာမွေကြီး (ခ)ရပ်ကွက်၊ တာမွေဓမ္မာရုံဘေး၊ တာမွေမြို့နယ်,0942100535,095146798,0943081618,,,တာမွေ,Tamwe,ရန်ကုန်တိုင်းဒေသကြီး,Yangon,"16.810182,96.17646",,,Need Confirmation,,,,,,,,https://www.facebook.com/myanmarbizlaw/posts/3642300949204850
160,အောက်ဆီဂျင်,,ဗြဟ္မစိုရ်မိုး ဇိဝိတဒါန ကုသိုလ်ဖြင့် အသက်ကယ် အောက်ဆီဂျင်,,ဘယသုဒ္ဓိဖြတ်လမ်း၊ ပုသိမ်ညွန့်၊ ကျောက်မြောင်း၊ တာမွေမြို့နယ်,0950136334,09799992846,0943081618,,,တာမွေ,Tamwe,ရန်ကုန်တိုင်းဒေသကြီး,Yangon,"16.810182,96.17646",,,Need Confirmation,,,,,,,,https://www.facebook.com/myanmarbizlaw/posts/3642300949204850
161,အောက်ဆီဂျင်,,မေတ္တာညွှန့်ကုသိုလ်ဖြစ် အသက်ကယ် O2,,မစိုးရိမ်ကျောင်းတိုက်၊ မေတ္တာညွန့်ရပ်ကွက်၊ တာမွေမြို့နယ်,095102381,0949200518,095078243,,,တာမွေ,Tamwe,ရန်ကုန်တိုင်းဒေသကြီး,Yangon,"16.810182,96.17646",,,Need Confirmation,,,,,,,,https://www.facebook.com/myanmarbizlaw/posts/3642300949204850
162,အောက်ဆီဂျင်,Wuntharnu Rakhita Sanay Lu Nge Myar Ah Thin,ဝံသာနု ရက္ခိတ - စနေလူငယ်များ အသင်း (စမ်းချောင်း),,တိမ်ချယ် ကိုသူ ဘတ္ထရီဆိုင်၊ ဗဟိုလမ်းနှင့် ခိုင်ရွှေဝါလမ်းထောင့်၊ BRP မှတ်တိုင်၊ စမ်းချောင်းမြို့နယ်,09421067069,,,,,စမ်းချောင်း,Sanchaung,ရန်ကုန်တိုင်းဒေသကြီး,Yangon,"16.803809,96.137291",,,Need Confirmation,,,,,,,,https://www.facebook.com/myanmarbizlaw/posts/3642300949204850
163,အောက်ဆီဂျင်,,သွေးမေတ္တာနှင့် စံရိပ်ငြိမ် နာရေးကူညီမှုအသင်း,,အင်းလျားရွာသစ်၊ ဘုန်းတော်ကြီးကျောင်း၊ စံရိပ်ငြိမ်မှတ်တိုင်၊ အင်းစိန်လမ်းမကြီး၊ ကမာရွတ်မြို့နယ်,094923724,,,,,ကမာရွတ်,Kamaryut,ရန်ကုန်တိုင်းဒေသကြီး,Yangon,"16.827684,96.132439",,,Need Confirmation,,,,,,,,https://www.facebook.com/myanmarbizlaw/posts/3642300949204850
164,အောက်ဆီဂျင်,,အားမာန် လူငယ် ပရဟိတအသင်း,,ဓမ္မဝီယကျောင်းတိုက်၊ ထီးတန်းလမ်း၊ ကြည်မြင်တိုင်မြို့နယ်,095025982,095070299,095196510,,,ကြည့်မြင်တိုင်,Kyeemyindaing,ရန်ကုန်တိုင်းဒေသကြီး,Yangon,"16.814573,96.121879",,stopped,Stop Service,,,,,,,,https://www.facebook.com/myanmarbizlaw/posts/3642300949204850
165,အောက်ဆီဂျင်,,ခရစ်တော်၏ အသင်းတော်,,ဗဟိုရ်လမ်းနှင့် မင်းရဲကျော်စွာလမ်းထောင့်၊ ခရစ်ယာန်ဘုရားကျောင်း၊ အ.ထ.က (၄) အနီး,0943083559,0925868399,,,,အလုံ,Ahlone,ရန်ကုန်တိုင်းဒေသကြီး,Yangon,"16.782398,96.127863",,,Need Confirmation,,,,,,,,https://www.facebook.com/myanmarbizlaw/posts/3642300949204850
166,အောက်ဆီဂျင်,,စေတနာ သာ/နာရေးအသင်း,,ခြံအမှတ် (၆)၊ ကွန်ဦးမီးပွိုင့်ထိပ်၊ ပါရမီလမ်း၊ မရမ်းကုန်းမြို့နယ်,09975115691,09420125446,,,,မရမ်းကုန်း,Mayangone,ရန်ကုန်တိုင်းဒေသကြီး,Yangon,"16.86619,96.142611",,,Need Confirmation,,,,,,,,https://www.facebook.com/myanmarbizlaw/posts/3642300949204850
167,အောက်ဆီဂျင်,,(သတ္တ) ဝါသုဒါန အောက်ဆီဂျင် (အခမဲ့) ကုသိုလ်ပြုအသင်း,,မူလဓမ္မာရုံ-ဖွဲ့စုံသာသနာရာမ(သံယိက) ကျောင်းတိုက်၊ (၈)ရပ်ကွက်၊ မရမ်းကုန်းမြို့နယ်,09455321568,09787224272,0925402549,0943142464,09250183054,မရမ်းကုန်း,Mayangone,ရန်ကုန်တိုင်းဒေသကြီး,Yangon,"16.86619,96.142611",,,Need Confirmation,,,,,,,,https://www.facebook.com/myanmarbizlaw/posts/3642300949204850
168,အောက်ဆီဂျင်,,ခရီးဖော် ပရဟိတအသင်း,,(၁) ရပ်ကွက်၊ သမိုင်း၊ မရမ်းကုန်း၊ ညောင်(၃)ပင်၊ ပရိယတ္တိစာသင်တိုက်,0942004114,09423744548,,,,မရမ်းကုန်း,Mayangone,ရန်ကုန်တိုင်းဒေသကြီး,Yangon,"16.86619,96.142611",,,Need Confirmation,,,,,,,,https://www.facebook.com/myanmarbizlaw/posts/3642300949204850
169,အောက်ဆီဂျင်,,ဝါတွင်းသံဃာဝေယျာဝစ္စအဖွဲ့,,လှိုင်ဓမ္မာရုံကျောင်း၊ ဈေးကုန်းအရှေ့ရပ်ကွက်၊ မီးရထားဝင်း၊ အင်းစိန်,0931072924,0925007577,,,,အင်းစိန်,Insein,ရန်ကုန်တိုင်းဒေသကြီး,Yangon,"16.901771,96.095959",,,Need Confirmation,,,,,,,,https://www.facebook.com/myanmarbizlaw/posts/3642300949204850
170,,,,,,,,,,,,,,,,,,,,,,,,,,
171,အောက်ဆီဂျင်,,ရွှေလမင်း ပရဟိတ အသင်း,,အမှတ် (၂၃၃) ၊ အောင်သပြေလမ်းသွယ်၊ ပုလဲမြို့သစ်,09428043733,,,,,အင်းစိန်,Insein,ရန်ကုန်တိုင်းဒေသကြီး,Yangon,"16.901771,96.095959",,stopped,Wrong Info/ Stop Service,,,,,,,,https://www.facebook.com/myanmarbizlaw/posts/3642300949204850
172,အောက်ဆီဂျင်,,ပုညကာရီ (အခမဲ့)နာရေးကုသိုလ်ပြုနှင့် အောက်ဆီဂျင် ပေးလှူရေးအဖွဲ့,,လမ်းသစ်လမ်း၊ စမ်းကြီး ရပ်ကွက်၊ မင်္ဂလာဒုံမြို့နယ်,0973062123,,,,,မင်္ဂလာဒုံ,Mingaladon,ရန်ကုန်တိုင်းဒေသကြီး,Yangon,"16.94914,96.12795",,,Need Confirmation,,,,,,,,https://www.facebook.com/myanmarbizlaw/posts/3642300949204850
173,အောက်ဆီဂျင်,,ပုညသဟာယ O2 အဖွဲ့,,ပတ္တမြားမြို့သစ်၊ မင်္ဂလာဒုံမြို့နယ်,09420094953,09428138572,,,,မင်္ဂလာဒုံ,Mingaladon,ရန်ကုန်တိုင်းဒေသကြီး,Yangon,"16.94914,96.12795",,,Same as Original,အောက်ဆီဂျင်ဖြည့်လို့ရ,,မနက်၈-ည၆,ပိတ်ရက်မရှိ,,,,https://www.facebook.com/myanmarbizlaw/posts/3642300949204850
174,အောက်ဆီဂျင်,,နှလုံးသားမြင့်မိုရ် O2 ဇီဝိတဒါနအဖွဲ့,,(၄၅၂/က)၊ ရတနာသီရီလမ်း၊ (၁၀)ရပ်ကွက်၊ ရွှေပြည်သာမြို့နယ်,0931301727,,,,,ရွှေပြည်သာ,Shwepyithar ,ရန်ကုန်တိုင်းဒေသကြီး,Yangon,"16.95504,96.08329",,,Can't connect,,,,,,,,https://www.facebook.com/myanmarbizlaw/posts/3642300949204850
175,အောက်ဆီဂျင်,,ကရုဏာရှင် နာရေးကူညီမှုအသင်းများ အောက်ဆီဂျင်ပေးလှူရေးအဖွဲ့,,နိဗ္ဗာန်ဆိပ်ဦးဘုန်းကြီးကျောင်း၊ အနောက်မင်းလမ်း၊ လမ်းရိပ်သာရပ်ကွက်၊ လှည်းကူးမြို့နယ်,01629443,09899961155,,,,လှည်းကူး,Hlegu ,ရန်ကုန်တိုင်းဒေသကြီး,Yangon,"17.09875,96.22745",,,Can't Connect,,,,,,,,https://www.facebook.com/myanmarbizlaw/posts/3642300949204850
176,အောက်ဆီဂျင်,,မေတ္တာရှင် အောက်ဆီဂျင်နှင့် သွေး,,သရက်ကုန်းကျေးရွာ၊ လှည်းကူးမြို့နယ်,09794590375,,,,,လှည်းကူး,Hlegu ,ရန်ကုန်တိုင်းဒေသကြီး,Yangon,"17.09875,96.22745",,,Can't Connect,,,,,,,,https://www.facebook.com/myanmarbizlaw/posts/3642300949204850
177,အောက်ဆီဂျင်,,မြတ်ဒါန အောက်ဆီဂျင်ကုသိုလ်ပြုအသင်း,,ဖောင်ကြီးအနောက်ဖက်လမ်း၊ လှည်းကူးမြို့နယ်,09965163359,09783207778,,,,လှည်းကူး,Hlegu ,ရန်ကုန်တိုင်းဒေသကြီး,Yangon,"17.09875,96.22745",,,Can't connect,,,,,,,,https://www.facebook.com/myanmarbizlaw/posts/3642300949204850
178,အောက်ဆီဂျင်,,မေတ္တာရောင်ခြည် အောက်ဆီဂျင်,,ပြည်တော်သာကျေးရွာ၊ ကွမ်းခြံကုန်းမြို့နယ်,09420196947,,,,,ကွမ်းခြံကုန်း,Kungyangon ,ရန်ကုန်တိုင်းဒေသကြီး,Yangon,"16.4394,96.0119",,,Can't Connect,,,,,,,,https://www.facebook.com/myanmarbizlaw/posts/3642300949204850
179,အောက်ဆီဂျင်,,မြို့မ အောက်ဆီဂျင်,,ကွမ်းခြံကုန်းမြို့နယ်,09777170756,,,,,ကွမ်းခြံကုန်း,Kungyangon ,ရန်ကုန်တိုင်းဒေသကြီး,Yangon,"16.4394,96.0119",,stopped,Wrong Info/ Stop Service,,,,,,,,https://www.facebook.com/myanmarbizlaw/posts/3642300949204850
180,အောက်ဆီဂျင်,,နာရေး ကူညီမှု အသင်း,,အမှတ် (၆/၇၉၈)၊ မြို့မ (၄)ရပ်ကွက်၊ ဒလမြို့နယ်,09420181187,,,,,ဒလ,Dala,ရန်ကုန်တိုင်းဒေသကြီး,Yangon,"16.75855,96.143",,,Same as Original,အောက်ဆီဂျင်ဖြည့်လို့ရ,,,,,,,https://www.facebook.com/myanmarbizlaw/posts/3642300949204850
181,အောက်ဆီဂျင်,,ကရုဏာ အောက်ဆီဂျင် အဖွဲ့,,ရွှေလက်ခုပ်ဘုန်းကြီးကျောင်း၊ အုန်းပင်စု ရပ်ကွက်၊ တွံတေးမြို့နယ်,0943024027,,,,,တွံတေး,Twantay ,ရန်ကုန်တိုင်းဒေသကြီး,Yangon,"16.70734,95.93047",,,Same as Original,အောက်ဆီဂျင်ဖြည့်လို့ရ,,,,,,,https://www.facebook.com/myanmarbizlaw/posts/3642300949204850
182,အောက်ဆီဂျင်,,စိတ္တသုခ ကုသိုလ်ပြုအသင်း,,ရွှေဆံတော် ရပ်ကွက်၊ ရွှေဆံတော်ဘုရားအနီး၊ တွံတေးမြို့နယ်,09799285107,095396481,,,,တွံတေး,Twantay ,ရန်ကုန်တိုင်းဒေသကြီး,Yangon,"16.70734,95.93047",,,Same as Original,အောက်ဆီဂျင်ဖြည့်လို့ရ,,,,,,,https://www.facebook.com/myanmarbizlaw/posts/3642300949204850
183,အောက်ဆီဂျင်,,ဓမ္မကုသလ ပရဟိတ လူငယ်များအဖွဲ့,,ဗိုလ်ချုပ်နေဝင်းလမ်း၊ မြို့ဟောင်းအလယ်ရပ်ကွက်၊ သန်လျင်မြို့နယ်,09799434781,09776110450,,,,သန်လျင်,Thanlyin ,ရန်ကုန်တိုင်းဒေသကြီး,Yangon,"16.76378,96.25184",,,Same as Original,အောက်ဆီဂျင်ဖြည့်လို့ရ,,,,,,,https://www.facebook.com/myanmarbizlaw/posts/3642300949204850
184,အောက်ဆီဂျင်,,အမှတ်( ၁၀ ) ပရဟိတ လူငယ်များအဖွဲ့,,အမှတ် (၁၀) သစ်စက်၊ သန်လျင်မြို့နယ်,09420139274,09448040753,,,,သန်လျင်,Thanlyin ,ရန်ကုန်တိုင်းဒေသကြီး,Yangon,"16.76378,96.25184",,,Can't Connect,,,,,,,,https://www.facebook.com/myanmarbizlaw/posts/3642300949204850
185,အောက်ဆီဂျင်,,အသောကကုသိုလ်ဖြစ်ဆေးခန်း,,အသောကရာမပရိယတ္တိစာသင်တိုက်၊ ကျောက်တန်းမြို့နယ်,0973006767,0943039755,095090336,,,ကျောက်တန်း,Kyauktan ,ရန်ကုန်တိုင်းဒေသကြီး,Yangon,"16.63393,96.32351",,,"Wrong Info, No Service",,,,,,,,https://www.facebook.com/myanmarbizlaw/posts/3642300949204850
186,အောက်ဆီဂျင်,,မေတ္တာရောင်ခြည် အောက်ဆီဂျင်အဖွဲ့,,အောင်ဇေယျလမ်း၊ ( ၄ ) ရပ်ကွက်၊ သုံးခွမြို့နယ်,0942102777,05640607,,,,သုံးခွ,Thongwa ,ရန်ကုန်တိုင်းဒေသကြီး,Yangon,"16.7586,96.52309",,,Need Confirmation,,,,,,,,https://www.facebook.com/myanmarbizlaw/posts/3642300949204850
187,အောက်ဆီဂျင်,,အဖြူရောင်သူငယ်ချင်းများ အောက်ဆီဂျင်အလှူတော် အဖွဲ့,,ဘုရားလမ်း ၊ ခရမ်းမြို့,094920108,,,,,ခရမ်း,Kayan ,ရန်ကုန်တိုင်းဒေသကြီး,Yangon,"16.90544,96.5605",,,Wrong Info,,,,,,,,https://www.facebook.com/myanmarbizlaw/posts/3642300949204850
188,အောက်ဆီဂျင်,,သွေးနှင့် အောက်ဆီဂျင် ပရဟိတအဖွဲ့,,အမှတ် (၇) ရပ်ကွက် ၊ ခရမ်းမြို့,09421051883,,,,,ခရမ်း,Kayan ,ရန်ကုန်တိုင်းဒေသကြီး,Yangon,"16.90544,96.5605",,stopped,Stop service,,,,,,,,https://www.facebook.com/myanmarbizlaw/posts/3642300949204850
189,အောက်ဆီဂျင်,,သဒ္ဒါလျှံ ပရဟိတအသင်း,,အမှတ် (၆) ရပ်ကွက် ၊ ခရမ်းမြို့,09799381179,09777212773,09799378408,09796646258,,ခရမ်း,Kayan ,ရန်ကုန်တိုင်းဒေသကြီး,Yangon,"16.90544,96.5605",,stopped,Stop Service,,,,,,,,https://www.facebook.com/myanmarbizlaw/posts/3642300949204850
190,အောက်ဆီဂျင်,,ကိုကျော်ဇေယျာ,,ရက ၁၂ တရုတ်ခိုလောင်းလမ်း (သံလွင်လမ်း)၊ ဘော်လုံးကွင်း တိုက်တန်း အဆုံး ဒေါင့်နား,09797124636,095260868,09964371373,,,လားရှိုး,Lashio ,ရှမ်းပြည်နယ် (မြောက်),Shan (North),"22.95277,97.74747",,,လဝကကုန်းဆင်း အောင်ချမ်းသာရပ်ကွက်(၁) လားရှိုးမြို့နယ်,အောက်ဆီဂျင်ဖြည့်လို့ရ,ညမထွက်ရအချိန်ကူညီပေး,၂၄ နာရီ,ပိတ်ရက်မရှိ,,,,https://www.facebook.com/koko.chit.393/posts/1645649638956984
191,အောက်ဆီဂျင်,,စွမ်းလူအောင် O2 ဖြည့်ဝန်ဆောင်မှု,,မန်ဆူဘုရား၊ အခန်း (၄)၊ သိန္ဒီလမ်း၊ ရပ်ကွက် (၈),0947302091,095263488,09446446933,,,လားရှိုး,Lashio ,ရှမ်းပြည်နယ် (မြောက်),Shan (North),"22.95277,97.74747",,,Same as Original,"အောက်ဆီဂျင်အိုးရောင်း,အောက်ဆီဂျင်အပိုပစ္စည်းရရှိနိုင်,အောက်ဆီဂျင်ဖြည့်လို့ရ",,မနက်၈-ည၆,ပိတ်ရက်မရှိ,,22.95277,97.74747,https://www.facebook.com/koko.chit.393/posts/1645649638956984
192,Call center,Hlaing Call Center,Hlaing Call Center,,,095127449,09965412691,09453112984,,,-,,,,,နေ့စဥ် မနက် ၈နာရီမှာ ည၈နာရီအထိ,,"Can't connect, busy all phone",,,မနက်၈-ည၈,,,22.95506678,97.76303485,
193,Call center,Charity C-19,Charity C-19,,https://www.facebook.com/CharityC19CallCenter,09779110001,09779110002,09779110003,09779110004,9779110006,-,,,,,နေ့စဥ် မနက် ၈နာရီမှာ ည၈နာရီအထိ,,"Can't connect, busy all phone",,,မနက်၈-ည၈,,,,,
194,ဆရာဝန် (ဖုန်းဝန်ဆောင်မှု),EZ Care,EZ Care,,https://www.facebook.com/EZ-Care-101710902113175,,,,,,,,,,,,,Directly go to facebook page,,,,,,,,
195,ကိုဗစ်စစ်ရန်,ရန်ကုန်ဆေးရုံကြီး,ရန်ကုန်ဆေးရုံကြီး,,,01256112,,,,,လသာ,Latha,ရန်ကုန်တိုင်းဒေသကြီး,Yangon,"16.77712,96.150525",,,"Pyi Thayar Road, Thingankyun township, Yangon",,,,,,16.779356,96.149003,
196,ကိုဗစ်စစ်ရန်,သင်္ဃန်းကျွန်းစံပြဆေးရုံကြီး,သင်္ဃန်းကျွန်းစံပြဆေးရုံကြီး,,,,,,,,သင်္ဃန်းကျွန်း,Thingangyun,ရန်ကုန်တိုင်းဒေသကြီး,Yangon,"16.831011,96.19323",,,"Corner of 54th street and Merchant road, Botahtaung townsip, Yangon",,,,,,16.834831,96.190587,
197,ကိုဗစ်စစ်ရန်,ရန်ကုန်အရှေ့ပိုင်းဆေးရုံကြီး,ရန်ကုန်အရှေ့ပိုင်းဆေးရုံကြီး,,,,,,,,ဗိုလ်တထောင်,Botahtaung,ရန်ကုန်တိုင်းဒေသကြီး,Yangon,"16.771967,96.169709",,,Need Confirmation,,,,,,16.771884,96.174751,
198,ကိုဗစ်စစ်ရန်,တောင်ဥက္ကလာဆေးရုံကြီး,တောင်ဥက္ကလာဆေးရုံကြီး,,,,,,,,တောင်ဥက္ကလာပ,South Okkalapa,ရန်ကုန်တိုင်းဒေသကြီး,Yangon,"16.846249,96.179859",,,"Near Sule Pagoda, Sule road, Kyauktada township, Yangon",,,,,,,,
199,ကိုဗစ်စစ်ရန်,Tourist Burma (ဆူးလေဘုရားအနီး),Tourist Burma (ဆူးလေဘုရားအနီး),,,,,,,,ကျောက်တံတား,Kyauktada,ရန်ကုန်တိုင်းဒေသကြီး,Yangon,"16.774263,96.161642",Not functioning,,"Corner of Wardan road and Bogyote road, Lanmadaw township, Yangon",,,,,,16.773916,96.158412,
200,ကိုဗစ်စစ်ရန်,ဗဟိုရ်စည်ဆေးရုံ,ဗဟိုရ်စည်ဆေးရုံ,,ဘီ(၃၁/၃၆) ဗဟိုစည်အိမ်ရာ၊ ဝါးတန်းလမ်း၊ လမ်းမတော်,012300631,,,,,လမ်းမတော်,Lanmadaw,ရန်ကုန်တိုင်းဒေသကြီး,Yangon,"16.779913,96.142335","Not functioning, RDT ",,"Pan Hlaing ave, Hlaing Tharyar township Yangon",,,,,,16.779608,96.139879,
201,ကိုဗစ်စစ်ရန်,ပန်းလှိုင်ဆေးရုံ,ပန်းလှိုင်ဆေးရုံ,,ပန်းလှိုင်ဂေါက်ကွင်းအိမ်ရာ၊ စက်မှုဇုံ(၁) လှိုင်သာယာ,013684323,,,,,လှိုင်သာယာ,Hlaingtharya ,ရန်ကုန်တိုင်းဒေသကြီး,Yangon,"16.85402,96.06893","Not functioning, RDT, RT, PCR",,"No(144), Min Gyi road, Insein township, Yangon",,,,,,16.840689,96.089395,
202,ကိုဗစ်စစ်ရန်,ကွယ်ကဘောဆေးရုံ,ကွယ်ကဘောဆေးရုံ,,,,,,,,အင်းစိန်,Insein,ရန်ကုန်တိုင်းဒေသကြီး,Yangon,"16.901771,96.095959",Not functioning,,Need Confirmation,,,,,,16.894477,96.105186,
203,ကိုဗစ်စစ်ရန်,Dagon Medicare Hospital,Dagon Medicare Hospital,"No. (2A+2B) , Sayar San Road, 27th Quarter, North Dagon Township, Yangon",၂က+ခ၊ ဆရာစံလမ်း၊ ၂၇ ရပ်ကွက်၊ မြောက်ဒဂုံ၊ ရန်ကုန်,09985500099,,,,,ဒဂုံမြို့သစ်(မြောက်ပိုင်း),Dagon Myothit (North) ,ရန်ကုန်တိုင်းဒေသကြီး,Yangon,"16.87774,96.19079","Not functioning, RDT, RT, PCR",,"Ground floor of Victoria Tower, Shwegondaing, Bahan township, Yangon",,,,,,16.823761,96.164413,https://www.facebook.com/dmhygn
204,ကိုဗစ်စစ်ရန်,SML lab,SML lab,,အမှတ် (၀၀၃/၀၀၄) ဒဂုံတာဝါ၊ ကမ္ဘာအေးဘုရားလမ်း၊ ရွှေဂုံတိုင်လမ်းဆုံ၊ ဗဟန်းမြို့နယ်,01544464,09780162446,,,,ဗဟန်း,Bahan,ရန်ကုန်တိုင်းဒေသကြီး,Yangon,"16.815427,96.156112","Not functioning, RT, PCR",,Need Confirmation,,,,,,16.805897,96.155115,
205,ကိုဗစ်စစ်ရန်,လူထု ဓါတ်ခွဲခန်း,လူထု ဓါတ်ခွဲခန်း,,,012300247,,,,,ဗိုလ်တထောင်,Botahtaung,ရန်ကုန်တိုင်းဒေသကြီး,Yangon,"16.771967,96.169709",Not functioning,,"No(171), Anawrahta road, 15th street corner, Lanmadaw township, Yangon",,,,,,,,
206,ကိုဗစ်စစ်ရန်,အေး ဓါတ်ခွဲခန်း,အေး ဓါတ်ခွဲခန်း,,အမှတ် (၁၇၁) အနော်ရထာလမ်းနှင့် ၁၅ လမ်းထောင့်၊ လမ်းမတော်မြို့နယ်,09407143983,09407143082,,,,လမ်းမတော်,Lanmadaw,ရန်ကုန်တိုင်းဒေသကြီး,Yangon,"16.779913,96.142335","Not functioning, RT, PCR",,Same as Original,,,မနက်၈-ည၆,ပိတ်ရက်မရှိ,,16.777367,96.146442,https://www.facebook.com/ayelaboratorycenter/
207,အောက်ဆီဂျင်,အောက်ဆီဂျင်ပရဟိတ,အောက်ဆီဂျင်ပရဟိတ,,မင်းလမ်း၊ ရွှေသီဟ,,,,,,ဒိုက်ဦး,Daik-U ,ပဲခူးတိုင်းဒေသကြီး (အရှေ့),Bago (East),"17.78967,96.66969",,,Can't Identify,,,,,,,,
208,အောက်ဆီဂျင်,အောက်ဆီီဂျင်,အောက်ဆီီဂျင်,,အောင်ချမ်းသာလမ်း၊ ရွှေစည်းစိမ်လက်ဖက်ရည်ဆိုင်ဘေး,,,,,,ဒိုက်ဦး,Daik-U ,ပဲခူးတိုင်းဒေသကြီး (အရှေ့),Bago (East),"17.78967,96.66969",,,Can't Identify,,,,,,,,
209,အောက်ဆီဂျင်,အောက်စီဂျင်,အောက်စီဂျင်,,"အကွက် ၃၊ ဒေါနဘွား၊, အောင်မြေသာစံမြို့နယ်, မန္တလေးတိုင်းဒေသကြီး",09346027102,09402627686,024036004,,,အောင်မြေသာဇံ,Aungmyaythazan ,မန္တလေးတိုင်းဒေသကြီး,Mandalay,"21.993206,96.096861",,,"အမှတ် ၁၀/အကွက်-၃၊ (၁၀)လမ်း၊ စက်မှုသင်တန်းကျောင်း အနီး၊ ဒေါနဘွား၊ အောင်မြေသာစံမြို့နယ်, မန္တလေးတိုင်းဒေသကြီး",,,,,09-346027102,,,http://www.mandalaydirectory.com/listing/oxygen-lm020170027.html
210,အောက်ဆီဂျင်,MEC,MEC,,"အမှတ် ၁၀/အကွက်-၃၊ (၁၀)လမ်း၊ စက်မှုသင်တန်းကျောင်း အနီး၊ ဒေါနဘွား၊ အောင်မြေသာစံမြို့နယ်, မန္တလေးတိုင်းဒေသကြီး",09402627686,09402627686,024036004,095020639,09797182457,အောင်မြေသာဇံ,Aungmyaythazan ,မန္တလေးတိုင်းဒေသကြီး,Mandalay,"21.993206,96.096861",,,"အမှတ် ၁၀/အကွက်-၃၊ (၁၀)လမ်း၊ စက်မှုသင်တန်းကျောင်း အနီး၊ ဒေါနဘွား၊ အောင်မြေသာစံမြို့နယ်, မန္တလေးတိုင်းဒေသကြီး",,,,,09-346027102,,,http://www.mandalaydirectory.com/listing/mec-u00427062-52837.html
211,အောက်ဆီဂျင်,Sein Soun Nyo,စိန်စွန်ညို,,"အမှတ် အိပ်ချ်-၂၁၁/၆၊ (၁၃၈)လမ်း (ဧဝရတ်လမ်း)၊ ၅၃လမ်းနှင့် ၅၄လမ်းကြား၊ စက်မှုဇုန်(၁)၊ ဈ-ရပ်ကွက်၊, ပြည်ကြီးတံခွန်မြို့နယ်, မန္တလေးတိုင်းဒေသကြီး",092003188,092025788,092038255,092020255,,ပြည်ကြီးတံခွန်,Pyigyitagon ,မန္တလေးတိုင်းဒေသကြီး,Mandalay,"21.901964,96.104181",,,Same as Original,,,မနက်၈-ည၆,ပိတ်ရက်မရှိ,09-2038255,,,http://www.mandalaydirectory.com/listing/sein-soun-nyo-u200071.html
212,အောက်ဆီဂျင်,Man Shin,မန်းရှင် -အရောင်း/အငှား (အောင်မြေသာဇံ),,"အမှတ် ၂၂၃၊ ၈၂လမ်း၊ (၂၄)လမ်းနှင့် (၂၅)လမ်းကြား၊ ပြည်ကြီးကျက်သရေအရှေ့၊, အောင်မြေသာစံမြို့နယ်, မန္တလေးတိုင်းဒေသကြီး",092000290,09792000290,024023197,,,အောင်မြေသာဇံ,Aungmyaythazan ,မန္တလေးတိုင်းဒေသကြီး,Mandalay,"21.993206,96.096861",,,Need Confirmation,,,,,,,,http://www.mandalaydirectory.com/listing/man-shin-u133306.html
213,အောက်ဆီဂျင်,Man Shin,မန်းရှင်အောက်စီဂျင်စက်ရုံ (ပြည်ကြီးတံခွန်),,"ရန်ကုန်-မန္တလေးလမ်း၊ စက်မှုဇုန်(၁)၊ ဈ-ရပ်ကွက်၊, ပြည်ကြီးတံခွန်မြို့နယ်, မန္တလေးတိုင်းဒေသကြီး",092000290,09952000290,09799046325,,,ပြည်ကြီးတံခွန်,Pyigyitagon ,မန္တလေးတိုင်းဒေသကြီး,Mandalay,"21.901964,96.104181",,,Need Confirmation,,,,,,,,http://www.mandalaydirectory.com/listing/man-shin-u200710-24035.html
214,အောက်ဆီဂျင်,Hline Htet,လှိုင်းထက်,,"(၂၁)လမ်း၊ ၈ရလမ်း ထောင့်၊ အောင်မြေသာစံ၊, အောင်မြေသာစံမြို့နယ်, မန္တလေးတိုင်းဒေသကြီး",09798944437,09400468731,,,,အောင်မြေသာဇံ,Aungmyaythazan ,မန္တလေးတိုင်းဒေသကြီး,Mandalay,"21.993206,96.096861",,,*ကျန်းမာရေးကြောင့် ယာယီပိတ်ထား,အောက်ဆီဂျင်အိုးရောင်း,,,,,,,http://www.mandalaydirectory.com/listing/hline-htet-u135097.html
215,အောက်ဆီဂျင်,Arkar Moe,အာကာမိုး အောက်ဆီဂျင်စက်ရုံ,,"အမှတ် အကွက်-၂၁၃၊ မြို့ပတ်လမ်း၊ အောင်ချမ်းသာရွာ၊, ပုသိမ်ကြီးမြို့နယ်, မန္တလေးတိုင်းဒေသကြီး",0947130555,095194108,,,,ပုသိမ်ကြီး,Patheingyi ,မန္တလေးတိုင်းဒေသကြီး,Mandalay,"22.0039939404,96.1646506554",,,Need Confirmation,,,,,,,,http://www.mandalaydirectory.com/listing/arkar-moe-u140094.html
216,မြို့နယ်ကျန်းမာရေးဦးစီးဌာနမှူး,Dr. ဇင်မင်းမင်းစိုး,Dr. ဇင်မင်းမင်းစိုး,မြို့နယ်ကျန်းမာရေးဦးစီးဌာန,အမှတ်(၁၅၇)၊ (၄၆)လမ်း၊ ဗိုလ်တထောင်မြို့နယ်,09253536515,,,,,ဗိုလ်တထောင်,Botahtaung,ရန်ကုန်တိုင်းဒေသကြီး,Yangon,"16.771967,96.169709",,,Need Confirmation,,,,ရုံးဖွင့်ရက်,,,,https://www.facebook.com/drni.online2020/posts/300159265173394
217,မြို့နယ်ကျန်းမာရေးဦးစီးဌာနမှူး,Dr.တင်မူမြင့်(ကုသ),Dr.တင်မူမြင့်(ကုသ),မြို့နယ်ကျန်းမာရေးဦးစီးဌာန,အနော်ရထာလမ်းနှင့် ရာဇဓိရာဇ်လမ်းထောင့်၊ (၉)ရပ်ကွက်၊ဒဂုံမြို့သစ်(မြောက်ပိုင်း)မြို့နယ်,095069264,09448046388,,,,ဒဂုံမြို့သစ်(မြောက်ပိုင်း),Dagon Myothit (North) ,ရန်ကုန်တိုင်းဒေသကြီး,Yangon,"16.87774,96.19079",,,"၇/၈ လမ်းဆုံအနီး၊,အနော်ရထာလမ်းနှင့် ရာဇဓိရာဇ်လမ်းထောင့်၊ (၉)ရပ်ကွက်, ဒဂုံမြို့သစ်မြောက်ပိုင်း မြို့နယ်, ရန်ကုန်",,,,ရုံးဖွင့်ရက်,,16.891782,96.199035,https://www.facebook.com/drni.online2020/posts/300159265173394
218,မြို့နယ်ကျန်းမာရေးဦးစီးဌာနမှူး,Dr.လဲ့လဲ့ဝင်း,Dr.လဲ့လဲ့ဝင်း,မြို့နယ်ကျန်းမာရေးဦးစီးဌာန,(၇)ဒေသန္တရကျန်းမာရေးဌာန၊ တိမ်ကြားမင်းခေါင်းလမ်း(၇)ရပ်ကွက်ဒဂုံမြို့သစ်(အရှေ့ပိုင်း)မြို့နယ်,09783525450,09420713702,,,,ဒဂုံမြို့သစ် (အရှေ့ပိုင်း),Dagon Myothit (East),ရန်ကုန်တိုင်းဒေသကြီး,Yangon,"16.912805,96.213226",,,Need Confirmation,,,,ရုံးဖွင့်ရက်,,,,https://www.facebook.com/drni.online2020/posts/300159265173394
219,မြို့နယ်ကျန်းမာရေးဦးစီးဌာနမှူး,Dr.တင်တင်ဆွေ(ပက),Dr.တင်တင်ဆွေ(ပက),မြို့နယ်ကျန်းမာရေးဦးစီးဌာန,ပုလဲရတနာလမ်း၊ (၂၆)ရပ်ကွက်၊ ဒဂုံမြို့သစ်(တောင်ပိုင်း)မြို့နယ်,095061713,,,,,ဒဂုံမြို့သစ်(တောင်ပိုင်း),Dagon Myothit (South) ,ရန်ကုန်တိုင်းဒေသကြီး,Yangon,"16.84016,96.22582",,,"56 Ward, South Dagon Myothit Tsp, ရန်ကုန်",,,,ရုံးဖွင့်ရက်,,16.860946,96.248605,https://www.facebook.com/drni.online2020/posts/300159265173394
220,မြို့နယ်ကျန်းမာရေးဦးစီးဌာနမှူး,Dr.မြတ်သူဝင်း(ကုသ),Dr.မြတ်သူဝင်း(ကုသ),မြို့နယ်ကျန်းမာရေးဦးစီးဌာန,ပုလဲရတနာလမ်း၊ (၂၆)ရပ်ကွက်၊ ဒဂုံမြို့သစ်(တောင်ပိုင်း)မြို့နယ်,09443168605,,,,,ဒဂုံမြို့သစ်(တောင်ပိုင်း),Dagon Myothit (South) ,ရန်ကုန်တိုင်းဒေသကြီး,Yangon,"16.84016,96.22582",,,"57 Ward, South Dagon Myothit Tsp, ရန်ကုန်",,,,ရုံးဖွင့်ရက်,,16.860946,96.248605,https://www.facebook.com/drni.online2020/posts/300159265173394
221,မြို့နယ်ကျန်းမာရေးဦးစီးဌာနမှူး,Dr.အေးမူယာကျော် (ကုသ),Dr.အေးမူယာကျော် (ကုသ),မြို့နယ်ကျန်းမာရေးဦးစီးဌာန,ကနောင်မင်းသားကြီးလမ်းနှင့် ကျန်စစ်သားလမ်းထောင့်(၈၇ )ရပ်ကွက်၊ဒဂုံမြို့သစ်(ဆိပ်ကမ်း)မြို့နယ်,092215215,09421020401,,,,ဒဂုံမြို့သစ် (ဆိပ်ကမ်း),Dagon Myothit (Seikkan),ရန်ကုန်တိုင်းဒေသကြီး,Yangon,"16.840488,96.272564",,,Same as Original,,,,ရုံးဖွင့်ရက်,,16.858504,96.280841,https://www.facebook.com/drni.online2020/posts/300159265173394
222,မြို့နယ်ကျန်းမာရေးဦးစီးဌာနမှူး,Dr.ယုနန္ဒာအောင်,Dr.ယုနန္ဒာအောင်,မြို့နယ်ကျန်းမာရေးဦးစီးဌာန,အမှတ်(၂၃)၊ ယမုံနာလမ်းမကြီး၊ ပုသိမ်မြေရပ်ကွက်၊ ဒေါပုံမြို့နယ်,095153136,09755011132,09777511585,,,ဒေါပုံ,Dawbon,ရန်ကုန်တိုင်းဒေသကြီး,Yangon,"16.781917,96.18435",,,Need Confirmation,,,,ရုံးဖွင့်ရက်,,16.782889,96.182583,https://www.facebook.com/drni.online2020/posts/300159265173394
223,မြို့နယ်ကျန်းမာရေးဦးစီးဌာနမှူး,Dr.ဥမ္မာစိန်,Dr.ဥမ္မာစိန်,မြို့နယ်ကျန်းမာရေးဦးစီးဌာန,ခေမာသီလမ်း၊ ရုံးသစ်မှတ်တိုင်၊ မြောက်ဥက္ကလာပမြို့နယ်,095158110,09796345675,,,,မြောက်ဥက္ကလာပ,North Okkalapa,ရန်ကုန်တိုင်းဒေသကြီး,Yangon,"16.918775,96.163028",,,Same as Original,,,,ရုံးဖွင့်ရက်,,16.896143,96.155983,https://www.facebook.com/drni.online2020/posts/300159265173394
224,မြို့နယ်ကျန်းမာရေးဦးစီးဌာနမှူး,Dr.ဇင်နွယ်ဦး(ခေတ္တ),Dr.ဇင်နွယ်ဦး(ခေတ္တ),မြို့နယ်ကျန်းမာရေးဦးစီးဌာန,အမှတ်(၅၁/၅၃)၊ ဗိုလ်ချုပ်အောင်ဆန်းလမ်း၊ (၁၀)ရပ်ကွက်ပုဇွန်တောင်မြို့နယ်၊,09450013946,09421126317,,,,ပုဇွန်တောင်,Pazundaung,ရန်ကုန်တိုင်းဒေသကြီး,Yangon,"16.779648,96.174392",,,Same as Original,,,,ရုံးဖွင့်ရက်,,16.778541,96.172436,https://www.facebook.com/drni.online2020/posts/300159265173394
225,မြို့နယ်ကျန်းမာရေးဦးစီးဌာနမှူး,Dr.အေးအေးမိုး,Dr.အေးအေးမိုး,မြို့နယ်ကျန်းမာရေးဦးစီးဌာန,အင်းဝလမ်း၊ (၆)ရပ်ကွက်၊ တောင်ဥက္ကလာပမြို့နယ်,09450542456,09448023244,,,,တောင်ဥက္ကလာပ,South Okkalapa,ရန်ကုန်တိုင်းဒေသကြီး,Yangon,"16.846249,96.179859",,,Need Confirmation,,,,ရုံးဖွင့်ရက်,,16.847895,96.175111,https://www.facebook.com/drni.online2020/posts/300159265173394
226,မြို့နယ်ကျန်းမာရေးဦးစီးဌာနမှူး,Dr.နှင်းလဲ့ရည်(ခေတ္တ),Dr.နှင်းလဲ့ရည်(ခေတ္တ),မြို့နယ်ကျန်းမာရေးဦးစီးဌာန,အမှတ်(၃၈၈ )၊ ဗညားဒလလမ်း၊ ကျောက်မြောင်း(အထက်)ရပ်ကွက်၊တာမွေမြို့နယ်,09970355166,09420129197,,,,တာမွေ,Tamwe,ရန်ကုန်တိုင်းဒေသကြီး,Yangon,"16.810182,96.17646",,,Need Confirmation,,,,ရုံးဖွင့်ရက်,,16.80244,96.175184,https://www.facebook.com/drni.online2020/posts/300159265173394
227,မြို့နယ်ကျန်းမာရေးဦးစီးဌာနမှူး,Dr.ဥမ္မာမြင့်,Dr.ဥမ္မာမြင့်,မြို့နယ်ကျန်းမာရေးဦးစီးဌာန,အမှတ်(၃၂၃၄)၊ ပညားဒလလမ်း၊ မင်္ဂလာတောင်ညွန့်မြို့နယ်,095048823,0932315767,,,,မင်္ဂလာတောင်ညွန့်,Mingalartaungnyunt,ရန်ကုန်တိုင်းဒေသကြီး,Yangon,"16.788908,96.167859",,,Same as Original,,,,ရုံးဖွင့်ရက်,,16.789559,96.168877,https://www.facebook.com/drni.online2020/posts/300159265173394
228,မြို့နယ်ကျန်းမာရေးဦးစီးဌာနမှူး,Dr. သိန်းထွန်း,Dr. သိန်းထွန်း,မြို့နယ်ကျန်းမာရေးဦးစီးဌာန,မြင်တော်သာလမ်း၊ ထူပါရုံ(၁)ရပ်ကွက်၊ သာကေတမြို့နယ်,0949242314,09421059745,,,,သာကေတ,Thaketa,ရန်ကုန်တိုင်းဒေသကြီး,Yangon,"16.793009,96.202959",,,Same as Original,,,,ရုံးဖွင့်ရက်,,16.800558,96.206408,https://www.facebook.com/drni.online2020/posts/300159265173394
229,မြို့နယ်ကျန်းမာရေးဦးစီးဌာနမှူး,Dr. စောအောင်ရွှေဖြူ,Dr. စောအောင်ရွှေဖြူ,မြို့နယ်ကျန်းမာရေးဦးစီးဌာန,လေးထောင့်ကန်လမ်းမကြီး၊ ဗိုလ်ကံညွန့်ရပ်ကွက်၊သင်္ဃန်းကျွန်းမြို့နယ်,09428172000,09448041199,,,,သင်္ဃန်းကျွန်း,Thingangyun,ရန်ကုန်တိုင်းဒေသကြီး,Yangon,"16.831011,96.19323",,,Same as Original,,,,ရုံးဖွင့်ရက်,,16.829365,96.190167,https://www.facebook.com/drni.online2020/posts/300159265173394
230,မြို့နယ်ကျန်းမာရေးဦးစီးဌာနမှူး,Dr. သီသီလတ်,Dr. သီသီလတ်,မြို့နယ်ကျန်းမာရေးဦးစီးဌာန,တိုက်(၂၀၁၇ )၊ အခန်း(၁ မှ ၆ ထိ)၊ ရန်ရှင်းလမ်း၊ (၁)ရပ်ကွက်၊ ရန်ကင်းမြို့နယ်,095124739,09421141861,09782951273,,,ရန်ကင်း,Yankin,ရန်ကုန်တိုင်းဒေသကြီး,Yangon,"16.83601,96.162395",,,Same as Original,,,,ရုံးဖွင့်ရက်,,16.829565,96.161747,https://www.facebook.com/drni.online2020/posts/300159265173394
231,မြို့နယ်ကျန်းမာရေးဦးစီးဌာနမှူး,Dr. ကြူကြူသင်း,Dr. ကြူကြူသင်း,မြို့နယ်ကျန်းမာရေးဦးစီးဌာန,ရုံးရှေ့မှတ်တိုင်အနီး၊ အောင်ဇေယျတံတားအဆင်း၊ ကျန်စစ်သာလမ်းနှင့် ညောင်တုန်းလမ်းထောင့်၊ လှိုင်သာယာမြို့နယ်,09403477576,09250138937,,,,လှိုင်သာယာ,Hlaingtharya ,ရန်ကုန်တိုင်းဒေသကြီး,Yangon,"16.85402,96.06893",,,Same as Original,,,,ရုံးဖွင့်ရက်,,16.876496,96.062646,https://www.facebook.com/drni.online2020/posts/300159265173394
232,မြို့နယ်ကျန်းမာရေးဦးစီးဌာနမှူး,Dr. ရန်နိုင်ဆွေ (ကုသ),Dr. ရန်နိုင်ဆွေ (ကုသ),မြို့နယ်ကျန်းမာရေးဦးစီးဌာန,အရှေ့မင်းလမ်း၊ အောင်မင်္ဂလာရပ်ကွက်၊ လှည်ကူးမြို့နယ်,09422215552,09420017300,,,,လှည်းကူး,Hlegu ,ရန်ကုန်တိုင်းဒေသကြီး,Yangon,"17.09875,96.22745",,,Same as Original,"အောက်ဆီဂျင်အပိုပစ္စည်းရရှိနိုင်,လူနာတင်ယဥ်,နာရေးကူညီမှု",,၂၄ နာရီညမထွက်ရအချိန်မှအပ,ပိတ်ရက်မရှိ,,17.09968,96.225473,https://www.facebook.com/drni.online2020/posts/300159265173394
233,မြို့နယ်ကျန်းမာရေးဦးစီးဌာနမှူး,Dr. စောမြထွန်း(ကုသ),Dr. စောမြထွန်း(ကုသ),မြို့နယ်ကျန်းမာရေးဦးစီးဌာန,စုပေါင်းရုံးလမ်း၊ (၁)ရပ်ကွက်၊ မှော်ဘီမြို့နယ်,09250544188,0943153769,,,,မှော်ဘီ,Hmawbi ,ရန်ကုန်တိုင်းဒေသကြီး,Yangon,"17.09987,96.0418",,,Same as Original,"အောက်ဆီဂျင်အပိုပစ္စည်းရရှိနိုင်,လူနာတင်ယဥ်,နာရေးကူညီမှု",,၂၄ နာရီ,ပိတ်ရက်မရှိ,,17.10935,96.020034,https://www.facebook.com/drni.online2020/posts/300159265173394
234,မြို့နယ်ကျန်းမာရေးဦးစီးဌာနမှူး,Dr. သန့်ဇင်,Dr. သန့်ဇင်,မြို့နယ်ကျန်းမာရေးဦးစီးဌာန,(၁)ရပ်ကွက်၊ ဆရာစံလမ်း၊ ထန်းတပင်မြို့နယ်,09450041930,09795202605,,,,ထန်းတပင်,Htantabin ,ရန်ကုန်တိုင်းဒေသကြီး,Yangon,"17.0174,95.9827",,,Same as Original,"အောက်ဆီဂျင်အပိုပစ္စည်းရရှိနိုင်,လူနာတင်ယဥ်",ညမထွက်ရအချိန်ကူညီပေး,၂၄ နာရီညမထွက်ရအချိန်မှအပ,ပိတ်ရက်မရှိ,,,,https://www.facebook.com/drni.online2020/posts/300159265173394
235,မြို့နယ်ကျန်းမာရေးဦးစီးဌာနမှူး,Dr. နော်သန္တာဆွေ,Dr. နော်သန္တာဆွေ,မြို့နယ်ကျန်းမာရေးဦးစီးဌာန,အင်းစိန်ပန်းခြံရှေ့၊ လမ်းသစ်လမ်း၊ နံ့သာကုန်းရပ်ကွက်၊ အင်းစိန်မြို့နယ်,0943189948,0931589348,,,,အင်းစိန်,Insein,ရန်ကုန်တိုင်းဒေသကြီး,Yangon,"16.901771,96.095959",,,Same as Original,နာရေးကူညီမှု,,မနက်၈-ည၆,ရုံးဖွင့်ရက်,,16.888785,96.107839,https://www.facebook.com/drni.online2020/posts/300159265173394
236,မြို့နယ်ကျန်းမာရေးဦးစီးဌာနမှူး,Dr. ဝင်းဝင်းမာ,Dr. ဝင်းဝင်းမာ,မြို့နယ်ကျန်းမာရေးဦးစီးဌာန,(၁၄)လမ်း၊ ဈေးရပ်ကွက်၊ မင်္ဂလာဒုံမြို့နယ်,095068607,09961179360,,,,မင်္ဂလာဒုံ,Mingaladon,ရန်ကုန်တိုင်းဒေသကြီး,Yangon,"16.94914,96.12795",,,Need Confirmation,,,,ရုံးဖွင့်ရက်,,,,https://www.facebook.com/drni.online2020/posts/300159265173394
237,မြို့နယ်ကျန်းမာရေးဦးစီးဌာနမှူး,Dr. မြတ်မြတ်နှင်း,Dr. မြတ်မြတ်နှင်း,မြို့နယ်ကျန်းမာရေးဦးစီးဌာန,ဘုရင့်နောင်လမ်းမ၊ အမှတ်(၇)ရပ်ကွက်၊ ရွှေပြည်သာမြို့နယ်,09251004744,09421026016,,,,ရွှေပြည်သာ,Shwepyithar ,ရန်ကုန်တိုင်းဒေသကြီး,Yangon,"16.95504,96.08329",,,Same as Original,"အောက်ဆီဂျင်အပိုပစ္စည်းရရှိနိုင်,လူနာတင်ယဥ်,နာရေးကူညီမှု",,၂၄ နာရီညမထွက်ရအချိန်မှအပ,ပိတ်ရက်မရှိ,,,,https://www.facebook.com/drni.online2020/posts/300159265173394
238,မြို့နယ်ကျန်းမာရေးဦးစီးဌာနမှူး,Dr. နေမင်းမျိုးထွန်း,Dr. နေမင်းမျိုးထွန်း,မြို့နယ်ကျန်းမာရေးဦးစီးဌာန,ဆေးရုံလမ်း၊ ဘောဓိကုန်းရပ်ကွက်၊ တိုက်ကြီးမြို့နယ်,09451244156,09420068513,,,,တိုက်ကြီး,Taikkyi ,ရန်ကုန်တိုင်းဒေသကြီး,Yangon,"17.31263,95.96344",,,Same as Original,"အောက်ဆီဂျင်အပိုပစ္စည်းရရှိနိုင်,လူနာတင်ယဥ်",,၂၄ နာရီညမထွက်ရအချိန်မှအပ,ပိတ်ရက်မရှိ,,,,https://www.facebook.com/drni.online2020/posts/300159265173394
239,မြို့နယ်ကျန်းမာရေးဦးစီးဌာနမှူး,Dr. ထွန်းဝင်း(ကုသ),Dr. ထွန်းဝင်း(ကုသ),မြို့နယ်ကျန်းမာရေးဦးစီးဌာန,ဒလတွံတေးကားလမ်းမ၊ အောင်မင်္ဂလာရပ်ကွက်၊ ဒလမြို့နယ်,095182675,09761665300,,,,ဒလ,Dala,ရန်ကုန်တိုင်းဒေသကြီး,Yangon,"16.75855,96.143",,,Need Confirmation,,,,ရုံးဖွင့်ရက်,,,,https://www.facebook.com/drni.online2020/posts/300159265173394
240,မြို့နယ်ကျန်းမာရေးဦးစီးဌာနမှူး,Dr. သန်းဌေး (ကုသ),Dr. သန်းဌေး (ကုသ),မြို့နယ်ကျန်းမာရေးဦးစီးဌာန,ဆေးရုံလမ်း၊ မြို့သစ်ရပ်ကွက်၊ ကော့မှူးမြို့န,095152569,09799405443,,,,ကော့မှူး,Kawhmu ,ရန်ကုန်တိုင်းဒေသကြီး,Yangon,"16.54616,96.06195",,,Same as Original,"အောက်ဆီဂျင်အပိုပစ္စည်းရရှိနိုင်,လူနာတင်ယဥ်,နာရေးကူညီမှု",ညမထွက်ရအချိန်ကူညီပေး,၂၄ နာရီ,ပိတ်ရက်မရှိ,,,,https://www.facebook.com/drni.online2020/posts/300159265173394
241,မြို့နယ်ကျန်းမာရေးဦးစီးဌာနမှူး,Dr. သီတာတင်ဝင်း(ကုသ),Dr. သီတာတင်ဝင်း(ကုသ),မြို့နယ်ကျန်းမာရေးဦးစီးဌာန,ဗဟိုလမ်း၊ ခနောင်တို့အရှေ့ရပ်ကွက်၊ ဆိပ်ကြီးခနောင်တိုမြို့နယ်,09665602669,09401531015,09250083099,,,ဆိပ်ကြီး/ခနောင်တို,Seikgyikanaungto,ရန်ကုန်တိုင်းဒေသကြီး,Yangon,"16.75779,96.116367",,,Same as Original,"အောက်ဆီဂျင်အပိုပစ္စည်းရရှိနိုင်,လူနာတင်ယဥ်,နာရေးကူညီမှု",,၂၄ နာရီညမထွက်ရအချိန်မှအပ,ပိတ်ရက်မရှိ,,,,https://www.facebook.com/drni.online2020/posts/300159265173394
242,မြို့နယ်ကျန်းမာရေးဦးစီးဌာနမှူး,Dr. ခင်မောင်ရင်(ကုသ),Dr. ခင်မောင်ရင်(ကုသ),မြို့နယ်ကျန်းမာရေးဦးစီးဌာန,ဘုရားလမ်း၊ (၂)ရပ်ကွက်၊ ခရမ်းမြို့နယ်,095390188,09250084538,,,,ခရမ်း,Kayan ,ရန်ကုန်တိုင်းဒေသကြီး,Yangon,"16.90544,96.5605",,,Same as Original,"အောက်ဆီဂျင်အပိုပစ္စည်းရရှိနိုင်,နာရေးကူညီမှု",ညမထွက်ရအချိန်ကူညီပေး,၂၄ နာရီ,ပိတ်ရက်မရှိ,,,,https://www.facebook.com/drni.online2020/posts/300159265173394
243,မြို့နယ်ကျန်းမာရေးဦးစီးဌာနမှူး,Dr. မြတ်သူ,Dr. မြတ်သူ,မြို့နယ်ကျန်းမာရေးဦးစီးဌာန,ဗဟိုလမ်း၊ ခနောင်တိုအရှေ့ရပ်ကွက်၊ ကွမ်းခြံကုန်းမြို့နယ်,095360470,09799833922,,,,ကွမ်းခြံကုန်း,Kungyangon ,ရန်ကုန်တိုင်းဒေသကြီး,Yangon,"16.4394,96.0119",,,ဗိုလ်ချုပ်လမ်း ၊ မြင်းစိုင်းရပ်ကွက် ၊ ကွမ်းခြံကုန်းမြို့နယ်,"အောက်ဆီဂျင်အပိုပစ္စည်းရရှိနိုင်,လူနာတင်ယဥ်,နာရေးကူညီမှု",ညမထွက်ရအချိန်ကူညီပေး,၂၄ နာရီညမထွက်ရအချိန်မှအပ,ပိတ်ရက်မရှိ,09-795000226,,,https://www.facebook.com/drni.online2020/posts/300159265173394
244,မြို့နယ်ကျန်းမာရေးဦးစီးဌာနမှူး,Dr. မို့မို့ခိုင်,Dr. မို့မို့ခိုင်,မြို့နယ်ကျန်းမာရေးဦးစီးဌာန,အလယ်ပိုင်းရပ်ကွက်၊ ကျောက်တန်းမြို့နယ်,09796269445,09799433400,,,,ကျောက်တန်း,Kyauktan ,ရန်ကုန်တိုင်းဒေသကြီး,Yangon,"16.63393,96.32351",,,Same as Original,"အောက်ဆီဂျင်အပိုပစ္စည်းရရှိနိုင်,လူနာတင်ယဥ်,နာရေးကူညီမှု",ညမထွက်ရအချိန်ကူညီပေး,၂၄ နာရီ,ပိတ်ရက်မရှိ,,,,https://www.facebook.com/drni.online2020/posts/300159265173394
245,မြို့နယ်ကျန်းမာရေးဦးစီးဌာနမှူး,Dr.ဇော်ဝင်းသန်း(ကုသ),Dr.ဇော်ဝင်းသန်း(ကုသ),မြို့နယ်ကျန်းမာရေးဦးစီးဌာန,မင်းရဲကျော်စွာလမ်း၊ (၁၁)ရပ်ကွက်၊ သုံးခွမြို့နယ်,09771231178,0949451652,09799370483,,,သုံးခွ,Thongwa ,ရန်ကုန်တိုင်းဒေသကြီး,Yangon,"16.7586,96.52309",,,Same as Original,"အောက်ဆီဂျင်အပိုပစ္စည်းရရှိနိုင်,လူနာတင်ယဥ်",,၂၄ နာရီညမထွက်ရအချိန်မှအပ,,09-971995867,,,https://www.facebook.com/drni.online2020/posts/300159265173394
246,မြို့နယ်ကျန်းမာရေးဦးစီးဌာနမှူး,Dr. မျိုးဇော်လှ(ကုသ),Dr. မျိုးဇော်လှ(ကုသ),မြို့နယ်ကျန်းမာရေးဦးစီးဌာန,ရွှေဆံတော်ဘုရာလမ်း၊ (၁)လမ်း၊ တွံတေးမြို့နယ်,095079656,09799279601,,,,တွံတေး,Twantay ,ရန်ကုန်တိုင်းဒေသကြီး,Yangon,"16.70734,95.93047",,,Need Confirmation,,,,ရုံးဖွင့်ရက်,,,,https://www.facebook.com/drni.online2020/posts/300159265173394
247,မြို့နယ်ကျန်းမာရေးဦးစီးဌာနမှူး,Dr. မြကြေးမုံ,Dr. မြကြေးမုံ,မြို့နယ်ကျန်းမာရေးဦးစီးဌာန,ဗိုလ်ချုပ်နေဝင်းလမ်း၊ ပဲခူးစုရပ်ကွက်၊ ဆေးရုံဝင်း၊ သန်လျင်မြို့နယ်,09452293526,09793565482,09751558579,,,သန်လျင်,Thanlyin ,ရန်ကုန်တိုင်းဒေသကြီး,Yangon,"16.76378,96.25184",,,Same as Original,နာရေးကူညီမှု,,မနက်၈-ည၆,ရုံးဖွင့်ရက်,,,,https://www.facebook.com/drni.online2020/posts/300159265173394
248,မြို့နယ်ကျန်းမာရေးဦးစီးဌာနမှူး,Dr. ရဲပိုင်(ခေတ္တ),Dr. ရဲပိုင်(ခေတ္တ),မြို့နယ်ကျန်းမာရေးဦးစီးဌာန,အမှတ်(၄၇)၊ သစ်တော်လမ်းနှင့် ဝေဘာဂီလမ်းမ၊ စောရန်ပိုင်ရပ်ကွက်၊ အလုံမြို့နယ်,095194503,0943134696,,,,အလုံ,Ahlone,ရန်ကုန်တိုင်းဒေသကြီး,Yangon,"16.782398,96.127863",,,Same as Original,,,,ရုံးဖွင့်ရက်,,,,https://www.facebook.com/drni.online2020/posts/300159265173394
249,မြို့နယ်ကျန်းမာရေးဦးစီးဌာနမှူး,Dr. နီနီသော်,Dr. နီနီသော်,မြို့နယ်ကျန်းမာရေးဦးစီးဌာန,အမှတ်(၃၂)၊ ဗိုလ်ချုပ်ပြတိုက်လမ်း၊ ဗိုလ်ချုပ်(၃)ရပ်ကွက်၊ ဗဟန်းမြို့နယ်,09960144200,0973005816,09799869810,,,ဗဟန်း,Bahan,ရန်ကုန်တိုင်းဒေသကြီး,Yangon,"16.815427,96.156112",,,Same as Original,နာရေးကူညီမှု,,မနက်၈-ည၆,ရုံးဖွင့်ရက်,,,,https://www.facebook.com/drni.online2020/posts/300159265173394
250,မြို့နယ်ကျန်းမာရေးဦးစီးဌာနမှူး,Dr. ရွှေပြည်,Dr. ရွှေပြည်,မြို့နယ်ကျန်းမာရေးဦးစီးဌာန,အမှတ်(၃၈၄၀)၊ ပန်တျာလမ်း၊ ဘုရားကြီးရပ်ကွက်၊ ဒဂုံမြို့နယ်,09450027777,09254042331,,,,ဒဂုံ,Dagon,ရန်ကုန်တိုင်းဒေသကြီး,Yangon,"16.794952,96.1469",,,Need Confirmation,,,,ရုံးဖွင့်ရက်,,,,https://www.facebook.com/drni.online2020/posts/300159265173394
251,မြို့နယ်ကျန်းမာရေးဦးစီးဌာနမှူး,Dr. ဝေဆင့်ကျော်,Dr. ဝေဆင့်ကျော်,မြို့နယ်ကျန်းမာရေးဦးစီးဌာန,အမှတ်(၄၂)၊ သီရိလမ်းမကြီး၊ (၂)ရပ်ကွက်၊ လှိုင်မြို့နယ်,095054656,,,,,လှိုင်,Hlaing,ရန်ကုန်တိုင်းဒေသကြီး,Yangon,"16.847934,96.125227",,,Need Confirmation,,,,ရုံးဖွင့်ရက်,,,,https://www.facebook.com/drni.online2020/posts/300159265173394
252,မြို့နယ်ကျန်းမာရေးဦးစီးဌာနမှူး,Dr. သင်းသင်းနိုင်,Dr. သင်းသင်းနိုင်,မြို့နယ်ကျန်းမာရေးဦးစီးဌာန,အမှတ်(၉၂/၉၄)၊ လှည်းတန်းလမ်းမ၊ (၃)ရပ်ကွက်၊ ကမာရွတ်မြို့နယ်,09799909345,0973012741,,,,ကမာရွတ်,Kamaryut,ရန်ကုန်တိုင်းဒေသကြီး,Yangon,"16.827684,96.132439",,,Need Confirmation,,,,ရုံးဖွင့်ရက်,,,,https://www.facebook.com/drni.online2020/posts/300159265173394
253,မြို့နယ်ကျန်းမာရေးဦးစီးဌာနမှူး,Dr. ခင်မောင်လွင်,Dr. ခင်မောင်လွင်,မြို့နယ်ကျန်းမာရေးဦးစီးဌာန,အမှတ်(၄၈)၊ ကျောင်းကြီးလမ်း၊ ဈေးကြီးအရှေ့ရပ်ကွက်၊ ကြည့်မြင်တိုင်,09250290665,09794797450,,,,ကြည့်မြင်တိုင်,Kyeemyindaing,ရန်ကုန်တိုင်းဒေသကြီး,Yangon,"16.814573,96.121879",,,Same as Original,,,မနက်၈-ည၆,ရုံးဖွင့်ရက်,,,,https://www.facebook.com/drni.online2020/posts/300159265173394
254,မြို့နယ်ကျန်းမာရေးဦးစီးဌာနမှူး,Dr. စိုးလင်းထူး(ခေတ္တ),Dr. စိုးလင်းထူး(ခေတ္တ),မြို့နယ်ကျန်းမာရေးဦးစီးဌာန,အမှတ်(၂၀၂/၂၀၁၈)၊ ဗဟာဗန္ဓုလလမ်း (အလယ်ဘလောက်)၊ (၂)ရပ်ကွက်၊ကျောက်တံတားမြို့နယ်,09799863452,,,,,ကျောက်တံတား,Kyauktada,ရန်ကုန်တိုင်းဒေသကြီး,Yangon,"16.774263,96.161642",,,Need Confirmation,,,,ရုံးဖွင့်ရက်,,,,https://www.facebook.com/drni.online2020/posts/300159265173394
255,မြို့နယ်ကျန်းမာရေးဦးစီးဌာနမှူး,Dr. အောင်ကိုကို(ခေတ္တ),Dr. အောင်ကိုကို(ခေတ္တ),မြို့နယ်ကျန်းမာရေးဦးစီးဌာန,အမှတ်(၂၆၅)၊ မော်တင်လမ်း၊ လမ်းမတော်မြို့နယ်,09750398499,09795408254,,,,လမ်းမတော်,Lanmadaw,ရန်ကုန်တိုင်းဒေသကြီး,Yangon,"16.779913,96.142335",,stopped,Wrong Info/ Stop Service,,,,ရုံးဖွင့်ရက်,,,,https://www.facebook.com/drni.online2020/posts/300159265173394
256,မြို့နယ်ကျန်းမာရေးဦးစီးဌာနမှူး,Dr. မျိုးကိုကို(ခေတ္တ),Dr. မျိုးကိုကို(ခေတ္တ),မြို့နယ်ကျန်းမာရေးဦးစီးဌာန,အမှတ်(၁၁၂)၊ စဉ့်အိုးတန်းလမ်း၊ (၄)ရပ်ကွက်၊ လသာမြို့နယ်,09423685557,095393207,,,,လသာ,Latha,ရန်ကုန်တိုင်းဒေသကြီး,Yangon,"16.77712,96.150525",,,Need Confirmation,,,,ရုံးဖွင့်ရက်,,,,https://www.facebook.com/drni.online2020/posts/300159265173394
257,မြို့နယ်ကျန်းမာရေးဦးစီးဌာနမှူး,Dr. အေးအေးမျိုး,Dr. အေးအေးမျိုး,မြို့နယ်ကျန်းမာရေးဦးစီးဌာန,အမှတ်(၅၄)၊ ကျိုက်ဝိုင်းဘုရားအနီး၊ မရမ်းကုန်းမြို့နယ်,095089907,09448011557,0973016437,,,မရမ်းကုန်း,Mayangone,ရန်ကုန်တိုင်းဒေသကြီး,Yangon,"16.86619,96.142611",,,Need Confirmation,,,,ရုံးဖွင့်ရက်,,,,https://www.facebook.com/drni.online2020/posts/300159265173394
258,မြို့နယ်ကျန်းမာရေးဦးစီးဌာနမှူး,Dr. စောဟိန်းကိုကိုစိုး,Dr. စောဟိန်းကိုကိုစိုး,မြို့နယ်ကျန်းမာရေးဦးစီးဌာန,အမှတ်(၁၂၈/၁၃၀)၊ ကုန်ဈေးတန်းအောက်လမ်း၊ ပန်းဘဲတန်းမြို့နယ်,09456360624,09450247811,,,,ပန်းဘဲတန်း,Pabedan,ရန်ကုန်တိုင်းဒေသကြီး,Yangon,"16.776983,96.15601",,,Need Confirmation,,,,ရုံးဖွင့်ရက်,,,,https://www.facebook.com/drni.online2020/posts/300159265173394
259,မြို့နယ်ကျန်းမာရေးဦးစီးဌာနမှူး,Dr. မိမိခိုင်,Dr. မိမိခိုင်,မြို့နယ်ကျန်းမာရေးဦးစီးဌာန,အမှတ်(၁၅၂)၊ ဗားဂရာလမ်း၊ စမ်းချောင်းမြို့နယ်,095394569,09786858035,,,,စမ်းချောင်း,Sanchaung,ရန်ကုန်တိုင်းဒေသကြီး,Yangon,"16.803809,96.137291",,,Need Confirmation,,,,ရုံးဖွင့်ရက်,,,,https://www.facebook.com/drni.online2020/posts/300159265173394
260,အောက်ဆီဂျင်စက်ရုံ,Thein Htike San,သိန်းထိုက်စံ,"218, Yangon-Mandalay Rd, Infront of Thapyay Hla Monastery
Pyinmana Township, Naypyitaw, Myanmar.",၂၁၈၊ ရန်ကုန်-မန္တလေးလမ်း၊ သပြေလှဘုန်းကြီးကျောင်းရှေ့၊ ပျဥ်းမနား၊ နေပြည်တော်,06722694,,,,,ပျဉ်းမနား,Pyinmana ,နေပြည်တော်,Nay Pyi Taw,"19.7361,96.20895",,,Same as Original,အောက်ဆီဂျင်ဖြည့်လို့ရ,,မနက်၈-ည၆,,,,,https://www.myanmarsuperpages.com/agent-detail.php?busId=281175
261,အောက်ဆီဂျင်စက်ရုံ,Academy (1),အကယ်ဒမီ,"648/A,Lower Main Rd,Maung Ngan Ward
Mawlamyaing Township, Regional, Myanmar.",၆၄၈/က၊ အောက်လမ်းမကြီး၊ မောင်ငံရပ်၊ မော်လမြိုင်,098701862,098702875,,,,မော်လမြိုင်,Mawlamyine ,မွန်ပြည်နယ်,Mon,"16.48459,97.62593",,stopped,Stop Service,,,,No,,,,https://www.myanmarsuperpages.com/agent-detail.php?busId=347812
262,အောက်ဆီဂျင်စက်ရုံ,Aung,အောင်,"401 Kyan Sitthar St Hlaing Thayar Township, Yangon, Myanmar.",၄၀၁၊ ကျန်စစ်သားလမ်း၊ လှိုင်သာယာ၊ ရန်ကုန်,0973007871,0931305238,,,,လှိုင်သာယာ,Hlaingtharya ,ရန်ကုန်တိုင်းဒေသကြီး,Yangon,"16.85402,96.06893",,,Need Confirmation,,,,,,,,https://www.myanmarsuperpages.com/agent-detail.php?busId=288471
263,အောက်ဆီဂျင်စက်ရုံ,Aung Si,အောင်စည်,"No.12,Chaung Twin St,Arr Kar Shophouse,Ward (3)
Phyar Pone Township, Regional, Myanmar.",၁၂၊ ချောင်းတွင်းလမ်း၊ ၃ ရပ်ကွက်၊ ဖျာပုံ၊ ဧရာဝတီ,04541019,0949727099,,,,ဖျာပုံ,Pyapon ,ဧရာဝတီတိုင်းဒေသကြီး,Ayeyarwady,"16.2916097042,95.6801933256",,,Need Confirmation,,,,,,,,https://www.myanmarsuperpages.com/agent-detail.php?busId=348462
264,အောက်ဆီဂျင်စက်ရုံ,Ayar San,ဧရာစံ,"442 , Corner of, Industrial Zone (1) St, Yangon St, Dagon Myothit (South) Township, Yangon, Myanmar.",၄၄၂၊ စက်မှုဇုန် ၁ နှင့် ရန်ကုန်လမ်းထောင့်၊ တောင်ဒဂုံ၊ ရန်ကုန်,01595146,095416282,,,,ဒဂုံမြို့သစ်(တောင်ပိုင်း),Dagon Myothit (South) ,ရန်ကုန်တိုင်းဒေသကြီး,Yangon,"16.84016,96.22582",,,Need Confirmation,,,,,,,,https://www.myanmarsuperpages.com/agent-detail.php?busId=299829
265,အောက်ဆီဂျင်စက်ရုံ,"Best Naing Oxygen Plant Co.,Ltd","Best Naing Oxygen Plant Co.,Ltd","2864 Set Hmu Pat St Industrial Zone (2)
Dagon Myothit (South) Township, Yangon, Myanmar.",၂၈၆၄၊ စက်မှုပါတ်လမ်း၊ စက်မှုဇုန် ၂၊ တောင်ဒဂုံ၊ ရန်ကုန်,01591166,095099875,,,,ဒဂုံမြို့သစ်(တောင်ပိုင်း),Dagon Myothit (South) ,ရန်ကုန်တိုင်းဒေသကြီး,Yangon,"16.84016,96.22582",,,Need Confirmation,,,,,,,,https://www.myanmarsuperpages.com/agent-detail.php?busId=288134
266,အောက်ဆီဂျင်စက်ရုံ,Fisheries And Marine Products 2000 Ltd.,Fisheries And Marine Products 2000 Ltd.,"450/454 Kyan Sitthar St Shwe Lin Pan Industrial Zone
Hlaing Thayar Township, Yangon, Myanmar.",၄၅၀/၄၅၄၊ ကျန်စစ်သားလမ်း၊ ရွှေလင်ပန်းစက်မှုဇုန်၊ လှိုင်သာယာ၊ ရန်ကုန်,013617251,013617250,,,,လှိုင်သာယာ,Hlaingtharya ,ရန်ကုန်တိုင်းဒေသကြီး,Yangon,"16.85402,96.06893",,,Need Confirmation,,,,,,,,https://www.myanmarsuperpages.com/agent-detail.php?busId=323059
267,အောက်ဆီဂျင်စက်ရုံ,Fisheries And Marine Products 2000 Ltd.,Fisheries And Marine Products 2000 Ltd.,"7/B, No.35, Yadanarbon St Kyeemyindaing Township, Yangon, Myanmar.",၇/ခ၊ ၃၅၊ ရတနာပုံလမ်း၊ ကြည့်မြင်တိုင်၊ ရန်ကုန်,095093592,,,,,ကြည့်မြင်တိုင်,Kyeemyindaing,ရန်ကုန်တိုင်းဒေသကြီး,Yangon,"16.814573,96.121879",,,Need Confirmation,,,,,,,,https://www.myanmarsuperpages.com/agent-detail.php?busId=323060
268,အောက်ဆီဂျင်စက်ရုံ,"Joy House Group Co.,Ltd","Joy House Group Co.,Ltd","636 Bayint Naung St, Ywar Ma (West) Ward, Insein Township, Yangon, Myanmar.",၆၃၆၊ ဘုရင့်နောင်လမ်း၊ ရွာမ အနောက် ရပ်ကွက်၊ အင်းစိန်၊ ရန်ကုန်,095149014,09799790090,0973072828,01642197,,အင်းစိန်,Insein,ရန်ကုန်တိုင်းဒေသကြီး,Yangon,"16.901771,96.095959",,stopped,Stop Service,,,,,,,,https://www.myanmarsuperpages.com/agent-detail.php?busId=317069
269,အောက်ဆီဂျင်စက်ရုံ,June Group (အောက်ဆီဂျင်စက်ရုံ ၂),June Group (အောက်ဆီဂျင်စက်ရုံ ၂),,ရွှေသမားရပ်ကွက်၊ ရွာထောင်၊ စစ်ကိုင်း,07222009,,,,,စစ်ကိုင်း,Sagaing ,စစ်ကိုင်းတိုင်းဒေသကြီး,Sagaing,"21.88008,95.96231",,,Need Confirmation,,,,,,21.87947051,95.98094498,https://www.myanmarsuperpages.com/agent-detail.php?busId=341817
270,အောက်ဆီဂျင်စက်ရုံ,June Group (ဆိုင် ၂),June Group (ဆိုင် ၂),,၄၃၇၊ ယမုံနာလမ်း၊ ဇေယျာသီရိရပ်ကွက်၊ ဒေါပုံ၊ ရန်ကုန်,019190230,,,,,ဒေါပုံ,Dawbon,ရန်ကုန်တိုင်းဒေသကြီး,Yangon,"16.781917,96.18435",,,Need Confirmation,,,,,,,,https://www.myanmarsuperpages.com/agent-detail.php?busId=288679
271,အောက်ဆီဂျင်စက်ရုံ,June Group (ဆိုင် ၃),June Group (ဆိုင် ၃),,ပုဇွန်တောင် စက်မှုလမ်း၊ စက်မှုဇုန် ၃၊ တောင်ဒဂုံ၊ ရန်ကုန်,018100287,,,,,ဒဂုံမြို့သစ်(တောင်ပိုင်း),Dagon Myothit (South) ,ရန်ကုန်တိုင်းဒေသကြီး,Yangon,"16.84016,96.22582",,,Need Confirmation,,,,,,,,https://www.myanmarsuperpages.com/agent-detail.php?busId=288681
272,အောက်ဆီဂျင်စက်ရုံ,June Group (ဆိုင် ၄),June Group (ဆိုင် ၄),,၂၅၂၊ အင်းစိန်လမ်းနှင့် ပါရမီလမ်းထောင့်၊ ၁၆ ရပ်ကွက်၊ လှိုင်၊ ရန်ကုန်,098619957,,,,,လှိုင်,Hlaing,ရန်ကုန်တိုင်းဒေသကြီး,Yangon,"16.847934,96.125227",,,Same as Original,,,မနက်၈-ည၆,ပိတ်ရက်မရှိ,,,,https://www.myanmarsuperpages.com/agent-detail.php?busId=294841
273,အောက်ဆီဂျင်စက်ရုံ,June Group (ဆိုင် ၁),June Group (ဆိုင် ၁),,၁၉၂၊ အင်းစိန်လမ်းမ၊ ၁၃ ရပ်ကွက်၊ လှိုင်၊ ရန်ကုန်,01704773,012305082,,,,လှိုင်,Hlaing,ရန်ကုန်တိုင်းဒေသကြီး,Yangon,"16.847934,96.125227",,,Same as Original,,,မနက်၈-ည၆,ပိတ်ရက်မရှိ,,,,https://www.myanmarsuperpages.com/agent-detail.php?busId=315931
274,အောက်ဆီဂျင်စက်ရုံ,June Group (အောက်ဆီဂျင်စက်ရုံ ၁),June Group (အောက်ဆီဂျင်စက်ရုံ ၁),,၇၃၊ မြနန္ဒာလမ်း၊ ဒဂုံဆိပ်ကိမ်း သင်္ဘောကျင်း၊ ဒဂုံမြို့သစ် (ဆိပ်ကမ်း)၊ ရန်ကုန်,0949214625,,,,,ဒဂုံမြို့သစ် (ဆိပ်ကမ်း),Dagon Myothit (Seikkan),ရန်ကုန်တိုင်းဒေသကြီး,Yangon,"16.840488,96.272564",,,Need Confirmation,,,,,,,,https://www.myanmarsuperpages.com/agent-detail.php?busId=294845
275,အောက်ဆီဂျင်စက်ရုံ,June Group (အောက်ဆီဂျင်စက်ရုံ ၃),June Group (အောက်ဆီဂျင်စက်ရုံ ၃),,စက်ရုံ ၃၊ ဆင်မလိုက် သင်္ဘောကျင်း၊ ကမာရွတ်၊ ရန်ကုန်,0973136897,,,,,ကမာရွတ်,Kamaryut,ရန်ကုန်တိုင်းဒေသကြီး,Yangon,"16.827684,96.132439",,,Need Confirmation,,,,,,,,https://www.myanmarsuperpages.com/agent-detail.php?busId=294848
276,အောက်ဆီဂျင်စက်ရုံ,K.K Naing,K.K Naing,"236/B, Rm-14, Corner of, Botahtaung Zay St(A Din St), Anawrahtar Rd, Pazundaung Township, Yangon, Myanmar.",၂၃၆/ခ၊ အခန်း ၁၄၊ ဗိုလ်တစ်ထောင်စျေးလမ်း နှင့် အနော်ရထာလမ်းထောင့်၊ ပုဇွန်တောင်၊ ရန်ကုန်,01397255,0932073187,095048718,09421115487,,ပုဇွန်တောင်,Pazundaung,ရန်ကုန်တိုင်းဒေသကြီး,Yangon,"16.779648,96.174392",,,Need Confirmation,,,,,,,,https://www.myanmarsuperpages.com/agent-detail.php?busId=292164
277,အောက်ဆီဂျင်စက်ရုံ,K.K Naing,K.K နိုင် - အရောင်း/အငှား,"16/17/18 Yamonar St Yan Pyay Ward
Thakata Township, Yangon, Myanmar.",အမှတ်(၁၇/၁၈)၊ ယမုံနာလမ်းမကြီး၊ ရန်ပြေ၊ သာကေတမြို့နယ်,0973043096,09421115487,09965048718,09785048718,,သာကေတ,Thaketa,ရန်ကုန်တိုင်းဒေသကြီး,Yangon,"16.793009,96.202959",,,Need Confirmation,,,,,,,,https://www.myanmarsuperpages.com/agent-detail.php?busId=321241
278,အောက်ဆီဂျင်စက်ရုံ,Ko Lin Khaing,ကိုလင်းခိုင်,"1/16 Yangon-Mandalay Rd, Kan Oo Ward, Pyinmana Township, Naypyitaw, Myanmar.",၁/၁၆၊ ရန်ကုန်-မန္တလေးလမ်း၊ ကန်ဦးရပ်ကွက်၊ ပျဥ်းမနား၊ နေပြည်တော်,06722653,,,,,ပျဉ်းမနား,Pyinmana ,နေပြည်တော်,Nay Pyi Taw,"19.7361,96.20895",,,Need Confirmation,,,,,,,,https://www.myanmarsuperpages.com/agent-detail.php?busId=282243
279,အောက်ဆီဂျင်စက်ရုံ,Mann Shin,မာန်ရှင်း,", Yangon-Mandalay Main St, Between, Set Hmu Zone (1), Set Hmu Zone (2), Pyi Gyi Tagon Township, Mandalay, Myanmar.",ရန်ကုန်-မန္တလေးလမ်း၊ စက်မှုဇုန် ၁ နှင့် ဇုန် ၂ ကြား၊ ပြည်ကြီးတံခွန်၊ မန္တလေး,09792000290,092000290,,,,ပြည်ကြီးတံခွန်,Pyigyitagon ,မန္တလေးတိုင်းဒေသကြီး,Mandalay,"21.901964,96.104181",,stopped,Wrong Info/ Stop Service,,,,,,,,https://www.myanmarsuperpages.com/agent-detail.php?busId=333513
280,အောက်ဆီဂျင်စက်ရုံ,Meik Swe Tin Aung Lwin,မိတ်ဆွေ တင်အောင်လွင်,"Corner of, Kyauk Pahtoe St, Zaung Tu St, Ward (64), Industrial Zone (3)
Dagon Myothit (South) Township, Yangon, Myanmar.",ဇောင်းတူလမ်းနှင့် ကျောက်ပုထိုးလမ်းထောင့်၊ ၆၄ ရပ်ကွက်၊ စက်မှုဇုန် ၃၊ တောင်ဒဂုံ၊ ရန်ကုန်,01591687,01590711,0973104756,095008390,,ဒဂုံမြို့သစ်(တောင်ပိုင်း),Dagon Myothit (South) ,ရန်ကုန်တိုင်းဒေသကြီး,Yangon,"16.84016,96.22582",,,Need Confirmation,,,,,,,,https://www.myanmarsuperpages.com/agent-detail.php?busId=294918
281,အောက်ဆီဂျင်စက်ရုံ,MIDT,MIDT,"No.17-B,Hledan 6th St.
Kamaryut Township, Yangon, Myanmar.",၁၇ခ၊ လှည်းတန်း ၆ လမ်း၊ ကမာရွတ်၊ ရန်ကုန်,095069391,097377810,,,,ကမာရွတ်,Kamaryut,ရန်ကုန်တိုင်းဒေသကြီး,Yangon,"16.827684,96.132439",,,Need Confirmation,,,,,,,,https://www.myanmarsuperpages.com/agent-detail.php?busId=359568
282,အောက်ဆီဂျင်စက်ရုံ,"Minn Dama Air Separation Co.,Ltd","Minn Dama Air Separation Co.,Ltd","145/A2 Thiri Mingalar St, Ward (4), 8 Mile
Mayangone Township, Yangon, Myanmar.",၁၄၅/အေ၂၊ သီရိမင်္ဂလာလမ်း၊ ၄ရပ်ကွက်၊ ၈ မိုင်၊ မရမ်းကုန်း၊ ရန်ကုန်,09453336955,0943336988,,,,မရမ်းကုန်း,Mayangone,ရန်ကုန်တိုင်းဒေသကြီး,Yangon,"16.86619,96.142611",,,Need Confirmation,,,,,,,,https://www.myanmarsuperpages.com/agent-detail.php?busId=319852
283,အောက်ဆီဂျင်စက်ရုံ,Naing,နိုင်,"211 Sittwe St, Industrial Zone (1), Dagon Myothit (South) Township, Yangon, Myanmar.",၂၁၁၊ စစ်တွေလမ်း၊ စက်မှုဇုန် ၁၊ တောင်ဒဂုံ၊ ရန်ကုန်,01591166,0973196913,,,,ဒဂုံမြို့သစ်(တောင်ပိုင်း),Dagon Myothit (South) ,ရန်ကုန်တိုင်းဒေသကြီး,Yangon,"16.84016,96.22582",,,Need Confirmation,,,,,,,,https://www.myanmarsuperpages.com/agent-detail.php?busId=297821
284,အောက်ဆီဂျင်စက်ရုံ,Naing,နိုင်,"2864 Set Hmu Pat St Industrial Zone (2)
Dagon Myothit (South) Township, Yangon, Myanmar.",၂၈၆၄၊ စက်မှုပါတ်လမ်း၊ စက်မှုဇုန် ၂၊ တောင်ဒဂုံ၊ ရန်ကုန်,095099875,09420166518,,,,ဒဂုံမြို့သစ်(တောင်ပိုင်း),Dagon Myothit (South) ,ရန်ကုန်တိုင်းဒေသကြီး,Yangon,"16.84016,96.22582",,,Need Confirmation,,,,,,,,https://www.myanmarsuperpages.com/agent-detail.php?busId=297824
285,အောက်ဆီဂျင်စက်ရုံ,Naing Family,နိုင်မိသားစု,"N-26/27 Thiri Yadanar Retail & Wholesales Market, Aungmingalar Highway Compound
North Okkalapa Township, Yangon, Myanmar.",၂၆/၂၇၊ သီရိရတနာစျေး၊ အောင်မင်္ဂလာ အဝေးပြေး၊ မြောက်ဥက္ကလာပ၊ ရန်ကုန်,09965138815,,,,,မြောက်ဥက္ကလာပ,North Okkalapa,ရန်ကုန်တိုင်းဒေသကြီး,Yangon,"16.918775,96.163028",,,Need Confirmation,,,,,,"16.918775,96.163028",,https://www.myanmarsuperpages.com/agent-detail.php?busId=324109
286,အောက်ဆီဂျင်စက်ရုံ,Naing Family,နိုင်မိသားစု,"19-20 Pazundaung Set Hmu St Industrial Zone (3), Near Signboard
Dagon Myothit (South) Township, Yangon, Myanmar.",၁၉၊ ၂၀၊ ပုဇွန်တောင် စက်မှုလမ်း၊ စက်မှုဇုန် ၃၊ တောင်ဒဂုံ၊ ရန်ကုန်,01590726,018100502,018100503,,,ဒဂုံမြို့သစ်(တောင်ပိုင်း),Dagon Myothit (South) ,ရန်ကုန်တိုင်းဒေသကြီး,Yangon,"16.84016,96.22582",,,Need Confirmation,,,,,,,,https://www.myanmarsuperpages.com/agent-detail.php?busId=321683
287,အောက်ဆီဂျင်စက်ရုံ,Ngwe Kyal Tagon,ငွေကြယ်တံခွန်,"Corner of, Yangon-Mandalay Rd, Yarza Htarni Rd, Near Hninsi Pan Round About
Pyinmana Township, Naypyitaw, Myanmar.",ရန်ကုန်-မန္တလေးလမ်း နှင့် ရာဇဌာနီ လမ်းထောင့်၊ နှင်းဆီပန်းအဝိုင်းအနီး၊ ပျဥ်းမနား၊ နေပြည်တော်,0943175530,,,,,ပျဉ်းမနား,Pyinmana ,နေပြည်တော်,Nay Pyi Taw,"19.7361,96.20895",,,Same as Original,"အောက်ဆီဂျင်အိုးရောင်း,အောက်ဆီဂျင်အပိုပစ္စည်းရရှိနိုင်,အောက်ဆီဂျင်ဖြည့်လို့ရ",ညမထွက်ရအချိန်ကူညီပေး,မနက်၈-ည၆,ပိတ်ရက်မရှိ,9420226965,"19°45'49""N","96°12'33""E",https://www.myanmarsuperpages.com/agent-detail.php?busId=282327
288,အောက်ဆီဂျင်စက်ရုံ,"Shwe Pyi Nyunt Co., Ltd.",ရွှေပြည်ညွန့်,"5/Ka 6th St Industrial Zone
South Okkalapa Township, Yangon, Myanmar.",စက်မှုဇုန် (၆)လမ်း၊ တောင်ဉက္ကလာပ၊ (၈) ရပ်ကွက်၊ သံလမ်းကျော်၊ မုဒုံမောင်မောင်ရှေ့လမ်း,09254310939,,,,,တောင်ဥက္ကလာပ,South Okkalapa,ရန်ကုန်တိုင်းဒေသကြီး,Yangon,"16.846249,96.179859",,,Need Confirmation,အောက်ဆီဂျင်ဖြည့်လို့ရ,,,,,,,https://www.myanmarsuperpages.com/agent-detail.php?busId=286237
289,အောက်ဆီဂျင်စက်ရုံ,Shwe Pyi San,ရွှေပြည်စံ,"120/B Zaung Tu St Industrial Zone (3)
Dagon Myothit (South) Township, Yangon, Myanmar.",၁၂၀ခ၊ ဇောင်းတူလမ်း၊ စက်မှုဇုန် ၃၊ တောင်ဒဂုံ၊ ရန်ကုန်,0973122544,,,,,ဒဂုံမြို့သစ်(တောင်ပိုင်း),Dagon Myothit (South) ,ရန်ကုန်တိုင်းဒေသကြီး,Yangon,"16.84016,96.22582",,,Need Confirmation,,,,,,,,https://www.myanmarsuperpages.com/agent-detail.php?busId=303982
290,အောက်ဆီဂျင်စက်ရုံ,Taw Win (1),တော်ဝင်,"68 Loikaw St Industrial Zone (1)
Dagon Myothit (South) Township, Yangon, Myanmar.",၆၈၊ လွိုင်ကော်လမ်း၊ စက်မှုဇုန် ၁၊ တောင်ဒဂုံ၊ ရန်ကုန်,01595541,01591014,0973063404,0973063405,0973106968,ဒဂုံမြို့သစ်(တောင်ပိုင်း),Dagon Myothit (South) ,ရန်ကုန်တိုင်းဒေသကြီး,Yangon,"16.84016,96.22582",,,Need Confirmation,,,,,,,,https://www.myanmarsuperpages.com/agent-detail.php?busId=303975
291,အောက်ဆီဂျင်စက်ရုံ,Thein Phyu,သိန်းဖြူ,"Hanthar Yeikmon, 21/002 Bayint Naung St, , Kamaryut Township, Yangon, Myanmar.",ဟံသာရိပ်မွန်၊ ၂၁/၀၀၂၊ ဘုရင့်နောင်လမ်း၊ ကမာရွတ်၊ ရန်ကုန်,09421140742,09458833315,,,,ကမာရွတ်,Kamaryut,ရန်ကုန်တိုင်းဒေသကြီး,Yangon,"16.827684,96.132439",,,Need Confirmation,,,,,,,,https://www.myanmarsuperpages.com/agent-detail.php?busId=316082
292,အောက်ဆီဂျင်,Shwe Khayar,ရွှေခရား,,F(19-20)၊ ပုဇွန်တောင်စက်မှုဇုန်လမ်းမကြီး၊ စက်မှုဇုန်(၃)ဆိုင်းဘုတ်အနီး၊ တောင်ဒဂုံ,09783007004,09783007005,09783007006,09796296792,,ဒဂုံမြို့သစ်(တောင်ပိုင်း),Dagon Myothit (South) ,ရန်ကုန်တိုင်းဒေသကြီး,Yangon,"16.84016,96.22582",,,Need Confirmation,,,,,,,,
293,အောက်ဆီဂျင်,Ohn,အုန်း,,အမှတ် (ပ/၄၆)၊ ပြည်ထောင်စုလမ်းမကြီး၊ ၃၈​ ရပ်ကွက်၊ ကုန်ပဒေသာမှတ်တိုင်၊ မြောက်ဒဂုံ,09404531010,09796828246,09795620968,,,ဒဂုံမြို့သစ်(မြောက်ပိုင်း),Dagon Myothit (North) ,ရန်ကုန်တိုင်းဒေသကြီး,Yangon,"16.87774,96.19079",,,Need Confirmation,,,,,,,,
294,အောက်ဆီဂျင်,Kabar Kyaw,ကမ္ဘာကျော်,,သင်ကြားရေးဆေးရုံလမ်း၊ မကြီးကန်ကျေးရွာ၊ မကွေးမြို့,095342227,095342261,095340336,09796594700,,မကွေး,Magway ,မကွေးတိုင်းဒေသကြီး,Magway,"20.14027,94.92696",,,Same as Original,,,၂၄ နာရီ,ပိတ်ရက်မရှိ,,20.13645,94.99389,
295,ဆရာဝန် (ဖုန်းဝန်ဆောင်မှု),,Teleconsultation,,,09975599337,,,,,,,,,,,,Wrong Phone Number,,,,,,,,
296,အောက်ဆီဂျင်,,အောက်ဆီဂျင်အရောင်းဆိုင်,,Silver Moon Hotel ရှေ့၊ လှိုင်ရွာမကွေ့,095069391,0943112304,,,,လှိုင်,Hlaing,ရန်ကုန်တိုင်းဒေသကြီး,Yangon,"16.847934,96.125227",,,Need Confirmation,,,,,,,,
297,အောက်ဆီဂျင်စက်ရုံ,Make Sat,မိတ်ဆက်,,၁၅၅၊ ၁၅၆ နှင်းဆီလမ်း၊ စက်မှုဇုန် (၃)၊ ၆၄ ရပ်ကွက်၊ တောင်ဒဂုံ,09250345546,095008390,09254406910,09263737371,09254406914,ဒဂုံမြို့သစ်(တောင်ပိုင်း),Dagon Myothit (South) ,ရန်ကုန်တိုင်းဒေသကြီး,Yangon,"16.84016,96.22582",,,Need Confirmation,,,,,,,,
298,အောက်ဆီဂျင်,Joe Gas,ဂျိုးဂက်စ်,,၂၇၊ ၅၃လမ်း၊ ပုဇွန်တောင်အလယ်ဘလောက်,01295520,098636400,095056495,09795056495,0973275300,ပုဇွန်တောင်,Pazundaung,ရန်ကုန်တိုင်းဒေသကြီး,Yangon,"16.779648,96.174392",,,Need Confirmation,,,,,,16°50'32N,"96°13'28""E · 15.6 ft",
299,အောက်ဆီဂျင်,Joe Gas,ဂျိုးဂက်စ်,,အမှတ် ၂၀၀၊ ဆင်တဲလမ်း (ကညန လိုင်စင်ရုံးအနီး)၊ တောင်ဒဂုံ,01590822,01590804,09965056495,09425056495,,ဒဂုံမြို့သစ်(တောင်ပိုင်း),Dagon Myothit (South) ,ရန်ကုန်တိုင်းဒေသကြီး,Yangon,"16.84016,96.22582",,,Need Confirmation,,,,,,16.84016,96.22582,
300,အောက်ဆီဂျင်,MEP,အမ်အီးပီ,,မင်းဓမ္မလမ်း ကျောက်တော်ကြီးဘုရားဘေးချင်းကပ်၊ အင်းစိန်,09765519945,09765519946,,,,အင်းစိန်,Insein,ရန်ကုန်တိုင်းဒေသကြီး,Yangon,"16.901771,96.095959",,,Same as Original,"အောက်ဆီဂျင်အိုးရောင်း,အောက်ဆီဂျင်အပိုပစ္စည်းရရှိနိုင်",,မနက်၈-ည၆,ပိတ်ရက်မရှိ,,16.885781,96.122273,
301,အောက်ဆီဂျင်,Shwe Baho Hardware Store,ရွှေဗဟိုရ်ကုန်မာအရောင်းဆိုင်,,အဆောင် ၉၄၊ အခန်း ၂၀၊ ပုလဲလမ်းမကြီး၊ စော်ဘွားကြီးကုန်းပွဲရုံဝင်း၊ အင်းစိန်,095126621,09956822175,09796661444,,,အင်းစိန်,Insein,ရန်ကုန်တိုင်းဒေသကြီး,Yangon,"16.901771,96.095959",,,Same as Original,,,မနက်၈-ည၆,ပိတ်ရက်မရှိ,,16.832109,96.124701,
302,အောက်ဆီဂျင်,Mr.Air Oxygen,မစ္စတာ အဲ အောက်စီဂျင်,,အမှတ်(၈) ဗဟန်း(၁)လမ်း,09260993058,,,,,ဗဟန်း,Bahan,ရန်ကုန်တိုင်းဒေသကြီး,Yangon,"16.815427,96.156112",,,Need Confirmation,,,,,,16.797258,96.156325,
303,အောက်ဆီဂျင်,Aung Myanmar Kyaw,အောင်မြန်မာကျော်,,၄၀၁၊ ကျန်စစ်သားလမ်း၊ အောင်မြေသာယာဘုရားရှေ့ဆိုင်ခန်း၊ ၆ရပ်ကွက်၊ လှိုင်သာယာ,0931305298,09777333620,,,,လှိုင်သာယာ,Hlaingtharya ,ရန်ကုန်တိုင်းဒေသကြီး,Yangon,"16.85402,96.06893",,,Need Confirmation,,,,,,16.85483,96.061669,
304,အောက်ဆီဂျင်,,လင်းလက်ပရဟိတ,,,09262239600,09250509184,09449107770,,,ကျောက်တံတား,Kyauktada,ရန်ကုန်တိုင်းဒေသကြီး,Yangon,"16.774263,96.161642",,,Need Confirmation,,,,,,16.774778,96.173235,
305,အောက်ဆီဂျင်,,ရှင်သန်ရေးကူညီရေး,,,09777888466,,,,,,,,,,,,"63rd Street, Botahtaung Township",လူနာတင်ယဥ်,ညမထွက်ရအချိန်ကူညီပေး,၂၄ နာရီ,,,16.769668,96.179546,
306,အောက်ဆီဂျင်,,ရွှေရောင်သမိုင်းပရဟိတနှင့် အရေးပေါ် လူနာတင်ယာဉ်,,အမှတ်(၂) ရပ်ကွက်၊ မရမ်းကုန်းမြို့နယ်,09260013273,09420640020,,,,မရမ်းကုန်း,Mayangone,ရန်ကုန်တိုင်းဒေသကြီး,Yangon,"16.86619,96.142611",,,1/B မင်းဓမ္မလမ်း၊ အင်းစိန်,,,,,,16.833464,96.131459,
307,အောက်ဆီဂျင်,,ဗဟန်းလူမှုကူညီရေး,,,09444066206,,,,,ဗဟန်း,Bahan,ရန်ကုန်တိုင်းဒေသကြီး,Yangon,"16.815427,96.156112",,,Need Confirmation,,,,,,16.815427,96.156112,
308,အောက်ဆီဂျင်,,တောင်ဒဂုံပရဟိတ,,,09420085147,,,,,ဒဂုံမြို့သစ်(တောင်ပိုင်း),Dagon Myothit (South) ,ရန်ကုန်တိုင်းဒေသကြီး,Yangon,"16.84016,96.22582",,,အမှတ်(၈) ဗဟန်း(၁)လမ်း,,,,,,,,
309,အောက်ဆီဂျင်,,ရဲသူရိန်မီးသတ်ပရဟိတ,,,09263678713,,,,,,,,,,,,"No. 54, Baho Street, San Chaung","လူနာတင်ယဥ်,နာရေးကူညီမှု",,၂၄ နာရီ,ပိတ်ရက်မရှိ,,16.80016,96.131891,
310,အောက်ဆီဂျင်,,သုခကာရီပရဟိတ,,,09797944777,,,,,,,,,,,stopped,Wrong Info/ Stop Service,,,,,,,,
311,အောက်ဆီဂျင်,,တာမွေပရဟိတ,,,09260614464,,,,,တာမွေ,Tamwe,ရန်ကုန်တိုင်းဒေသကြီး,Yangon,"16.810182,96.17646",,,Need Confirmation,လူနာတင်ယဥ်,,,,,16.810182,96.17646,
312,အောက်ဆီဂျင်,,အားမာန်လူငယ်ပရဟိတ,,,09777710357,,,,,,,,,,,,Need Confirmation,,,,,,,,
313,အောက်ဆီဂျင်,,နှလုံးသားပရဟိတအသင်း,,,095035926,,,,,,,,,,,,Need Confirmation,လူနာတင်ယဥ်,,,,,,,
314,အောက်ဆီဂျင်,,ကြယ်ဖြူလူမှုကယ်ဆယ်ရေး,,,09421089129,,,,,,,,,,,,အမှတ်(၉) ရပ်ကွက်၊ကမ္ဘာေအးေစတီလမ်း၊မရမ်းကုန်းမြို့နယ်။ *ဂမုန်းပွင့်အနီး,လူနာတင်ယဥ်,,မနက်၈-ည၆,,9420080852,,,
315,အောက်ဆီဂျင်,,ရွှေဂုံတိုင်လူငယ်အဖွဲ့,,,09421023914,,,,,ဗဟန်း,Bahan,ရန်ကုန်တိုင်းဒေသကြီး,Yangon,"16.815427,96.156112",,,ရွှေဂုံရိပ်မွန် လူနာတင်ယာဉ် အသင်းဖြစ်ပြီး O2 မရနိုင်ပါ,လူနာတင်ယဥ်,,,,,16.8148741,96.1562464,
316,အောက်ဆီဂျင်,,အာယုဒါန အရေးပေါ်အောက်ဆီဂျင်လှူဒါန်းရေး,,,0949851121,,,,,ထားဝယ်,Dawei ,တနင်္သာရီတိုင်းဒေသကြီး,Tanintharyi,"14.07753,98.19636",,,,အောက်ဆီဂျင်ဖြည့်လို့ရ,,,,,,,
317,အောက်ဆီဂျင်,Phyu Sin Myittar,ဖြူစင်မေတ္တာ,,မဏ္ဏိုင်လမ်း၊ ဝါဆိုရပ်ကွက်၊ ဒေါပုံမြို့နယ်,09899989953,09899989954,,,,ဒေါပုံ,Dawbon,ရန်ကုန်တိုင်းဒေသကြီး,Yangon,"16.781917,96.18435",,,Need Confirmation,,,မနက်၈-ည၅,,,16.7809437,96.1825867,
318,အောက်ဆီဂျင်,Ko Babu,ကိုဘာဘူ,,(၅)​ရပ်ကွက်၊ လယ်ဝေးမြို့,09787006878,09754275090,,,,လယ်ဝေး,Lewe ,နေပြည်တော်,Nay Pyi Taw,"19.63467,96.11007",,,Need Confirmation,,,,,,,,
319,အောက်ဆီဂျင်,,ငွေကြယ်တံခွန်,,ရာဇဌာနီလမ်းနှင့် ရန်ကုန်-မန္တလေးလမ်းဟောင်း၊ နှင်းဆီပန်းဝိုင်းအနီး၊ သုခရတနာကွန်ကရစ်လုပ်ငန်း၊ ပျဥ်းမနားမြို့,09420226965,0943175530,,,,ပျဉ်းမနား,Pyinmana ,နေပြည်တော်,Nay Pyi Taw,"19.7361,96.20895",,,Same as Original,"အောက်ဆီဂျင်အိုးရောင်း,အောက်ဆီဂျင်အပိုပစ္စည်းရရှိနိုင်,အောက်ဆီဂျင်ဖြည့်လို့ရ",ညမထွက်ရအချိန်ကူညီပေး,မနက်၈-ည၆,ပိတ်ရက်မရှိ,9420226965,"19°45'49""N","96°12'33""E",
320,အောက်ဆီဂျင်,Ko Zaw Min Oo and friend,ကိုဇော်မင်းဦးနှင့်သူငယ်ချင်းများ,,ဝိုင်ရနံ့စားသောက်ဆိုင်၊ ဗိုလ်တောက်ထိန်လမ်း၊ ဇင်ဇင်မုန့်တိုက်အရှေ့ဘက်၊ ပျဥ်းမနားမြို့,0936654292,09420734588,,,,ပျဉ်းမနား,Pyinmana ,နေပြည်တော်,Nay Pyi Taw,"19.7361,96.20895",,,Same as Original,,,,ပိတ်ရက်မရှိ,,,,
321,အောက်ဆီဂျင်,,မျှဝေသောလက်များ,,မဟာဝိသုတာရာမတံခွန်တိုင်ကျောင်းတိုက်၊ ဗိုလ်ချုပ်လမ်းအနောက်ဖက်ထိပ်၊ ပျဥ်းမနားမြို့,09693055285,09263116087,0943121506,095104783,,ပျဉ်းမနား,Pyinmana ,နေပြည်တော်,Nay Pyi Taw,"19.7361,96.20895",,,Same as Original,အောက်ဆီဂျင်အပိုပစ္စည်းရရှိနိုင်,ညမထွက်ရအချိန်ကူညီပေး,,ပိတ်ရက်မရှိ,,,,
322,အောက်ဆီဂျင်,Man Shin,မန်းရှင်,,ဒက္ခိဏသီရီ၊ အသေးစားနှင့်အလတ်စားစက်မှုဇုံ။,09952000290,09799046325,,,,ဒက္ခိဏသီရိ,Det Khi Na Thi Ri ,နေပြည်တော်,Nay Pyi Taw,"19.7002617446,96.0904971774",,,JW038၊ မိုးသောက်ပန်းလမ်းနှင့် ရှူမဝလမ်းထောင့်၊ ဒက္ခိဏသီရိအသေးစားနှင့် အလတ်စားစက်မှုဇုန်၊ နေပြည်တော်,အောက်ဆီဂျင်ဖြည့်လို့ရ,ညမထွက်ရအချိန်ကူညီပေး,၂၄ နာရီ,ပိတ်ရက်မရှိ,,"19°44'16""N","96°10'14""""E",
323,အောက်ဆီဂျင်,Thein Htaik San,သိန်းထိုက်စံ,,၂၁၈၊ရန်ကုန်-မန်လေးလမ်း၊ သပြေလှဘုန်းကြီးကျောင်းရှေ့၊ ပျဥ်းမနားမြို့,06722694,,,,,ပျဉ်းမနား,Pyinmana ,နေပြည်တော်,Nay Pyi Taw,"19.7361,96.20895",,,Same as Original,အောက်ဆီဂျင်ဖြည့်လို့ရ,ညမထွက်ရအချိန်ကူညီပေး,,ပိတ်ရက်မရှိ,,,,
324,အောက်ဆီဂျင်,Ko Lin Khaing,ကိုလင်းခိုင်,,၁/၁၆၊ ရန်ကုန်-မန်းလေးလမ်း၊ကန်ဦးရပ်ကွက်၊ ပျဥ်းမနားမြို့,06722653,06722654,0977924066,0977924077,0977924088,ပျဉ်းမနား,Pyinmana ,နေပြည်တော်,Nay Pyi Taw,"19.7361,96.20895",,,Same as Original,,,,,,,,
325,အောက်ဆီဂျင်,,အောင်တော်မှု ၂လမ်း,,အောင်တော်မူ ၂လမ်း ဓမ္မာရုံ ဘေးအိမ်,,,,,,မော်လမြိုင်,Mawlamyine ,မွန်ပြည်နယ်,Mon,"16.48459,97.62593",,,Same as Original,အောက်ဆီဂျင်ဖြည့်လို့ရ,,,,,,,
326,အောက်ဆီဂျင်,Bo Kone,ဘိုကုန်း,,အောက်လမ်းမကြီး ဘိုကုန်း ဓမ္မာရုံ,09425275828,09454536226,,,,မော်လမြိုင်,Mawlamyine ,မွန်ပြည်နယ်,Mon,"16.48459,97.62593",,,"near Ngwe Moe hotel,Lower road ,Mawlamyaine",အောက်ဆီဂျင်ဖြည့်လို့ရ,,,ပိတ်ရက်မရှိ,,,,
327,အောက်ဆီဂျင်,,သံလွင် အောက်ဆီဂျင်စက်ရုံ ( ကျောက်တန်း ),,"အမှတ်(64), ကျောက်တန်းစက်ရုံစု, မော်လမြိုင်",9978000305,09797402222,09978000306,0989668688,,မော်လမြိုင်,Mawlamyine ,မွန်ပြည်နယ်,Mon,"16.48459,97.62593",,,Same as Original,,,၂၄ နာရီ,ပိတ်ရက်မရှိ,,,,
328,အောက်ဆီဂျင်,,ကိုအောင်မျိုးဇော် (မြတ်စေတနာမွန်),,,09425318844,,,,,မော်လမြိုင်,Mawlamyine ,မွန်ပြည်နယ်,Mon,"16.48459,97.62593",,,Same as Original,"အောက်ဆီဂျင်အပိုပစ္စည်းရရှိနိုင်,အောက်ဆီဂျင်ဖြည့်လို့ရ,နာရေးကူညီမှု",,မနက်၈-ည၆,ပိတ်ရက်မရှိ,,16.48459,97.62593,
329,အောက်ဆီဂျင်,,ရာမည အရေးပေါ်လူမှုကယ်ဆယ်ရေးအဖွဲ့,,,09777400199,09765556199,09764446199,,,မော်လမြိုင်,Mawlamyine ,မွန်ပြည်နယ်,Mon,"16.48459,97.62593",,,Same as Original,"အောက်ဆီဂျင်အပိုပစ္စည်းရရှိနိုင်,အောက်ဆီဂျင်ဖြည့်လို့ရ,လူနာတင်ယဥ်,နာရေးကူညီမှု",ညမထွက်ရအချိန်ကူညီပေး,၂၄ နာရီ,ပိတ်ရက်မရှိ,09-788872006,16.492063,97.627088,
330,အောက်ဆီဂျင်,,Lwin Family (ဈေးကြို ဆန်တန်ရပ်),,,09795163801,,,,,မော်လမြိုင်,Mawlamyine ,မွန်ပြည်နယ်,Mon,"16.48459,97.62593",,,"Gas ဆိုင်, o2နှင့်ပတ်သတ်တာ ဘားမှမရှိပါ","အောက်ဆီဂျင်အိုးရောင်း,အောက်ဆီဂျင်အပိုပစ္စည်းရရှိနိုင်",,,,,16.445254,97.639804,
331,အောက်ဆီဂျင်,Academy (Zayar Myaing),အကယ်ဒမီ (ဇေယျာမြိုင်),,"အမှတ်(183), ငန်းတေးလမ်းမကြီး, ဇေယျာမြိုင်ရပ်",09774811170,09960959609,098701117,09779110110,,မော်လမြိုင်,Mawlamyine ,မွန်ပြည်နယ်,Mon,"16.48459,97.62593",,,Need Confirmation,,,,,,,,
332,အောက်ဆီဂျင်,,ရွှေနတ်တောင် လူမှုကယ်ဆယ်ရေးအဖွဲ့,,ရွှေနတ်တောင်ဘုရားကြီးထဲ,09672163845,09660999117,,,,မော်လမြိုင်,Mawlamyine ,မွန်ပြည်နယ်,Mon,"16.48459,97.62593",,,,"အောက်ဆီဂျင်အပိုပစ္စည်းရရှိနိုင်,အောက်ဆီဂျင်ဖြည့်လို့ရ,လူနာတင်ယဥ်,နာရေးကူညီမှု",ညမထွက်ရအချိန်ကူညီပေး,၂၄ နာရီ,ပိတ်ရက်မရှိ,,,,
333,အောက်ဆီဂျင်,,တူသောအကျိုးပရဟိတအသင်း,,"အာဂျင်ဆင်လမ်း,လှိုင်ရပ်ကွက်",09252499486,09988036939,09268880070,,,မော်လမြိုင်,Mawlamyine ,မွန်ပြည်နယ်,Mon,"16.48459,97.62593",,,"အေးသာယာကုန်စိမ်းစျေးနှင့် အမှတ်(2)ကျောင်းကြား,အာလမီကျောင်း,အာဂျင်ဆင် လမ်း,လှိုင်ရပ်ကွက်,မော်လမြိုင်မြို့",,,၂၄ နာရီ,ပိတ်ရက်မရှိ,,,,
334,အောက်ဆီဂျင်,,အနှိုင်းမဲ့မေတ္တာ သွေးနှင့် အောက်ဆီဂျင် အခမဲ့ ကူညီမှုအသင်း,,,09255915045,0945356441,09267904455,,,သထုံ,Thaton ,မွန်ပြည်နယ်,Mon,"16.9197,97.3678",,,Same as Original,"အောက်ဆီဂျင်အပိုပစ္စည်းရရှိနိုင်,အောက်ဆီဂျင်ဖြည့်လို့ရ,လူနာတင်ယဥ်",ညမထွက်ရအချိန်ကူညီပေး,မနက်၈-ည၆,ပိတ်ရက်မရှိ,,16.928433,97.369148,https://www.facebook.com/anmmtblood02
335,အောက်ဆီဂျင်,,မြန်မာ့လူငယ်(မုဒုံ)အရေးပေါ်ကယ်ဆယ်ရေးအဖွဲ့,,,09767666434,09767666438,,,,မုဒုံ,Mudon ,မွန်ပြည်နယ်,Mon,"16.25812,97.72478",,,Same as Original,"အောက်ဆီဂျင်အပိုပစ္စည်းရရှိနိုင်,အောက်ဆီဂျင်ဖြည့်လို့ရ,လူနာတင်ယဥ်",ညမထွက်ရအချိန်ကူညီပေး,၂၄ နာရီ,ပိတ်ရက်မရှိ,,16.250146,97.730097,
336,အောက်ဆီဂျင်,,ကွမ်ခြံကုန်းမြို့မအောက်စီဂျင်,,,,,,,,ကွမ်းခြံကုန်း,Kungyangon ,ရန်ကုန်တိုင်းဒေသကြီး,Yangon,"16.4394,96.0119",,,Need Confirmation,,,,,,16.4394,96.0119,
337,အောက်ဆီဂျင်,,နာရေးကူညီမှုအသင်း(ရန်ကုန်),,၁၃/က၊ဗိုလ်မှူးဗထူးလမ်း၊ ၄၂ရပ်ကွက်၊ ‌မြောက်ဒဂုံ,0943184548,,,,,ဒဂုံမြို့သစ်(မြောက်ပိုင်း),Dagon Myothit (North) ,ရန်ကုန်တိုင်းဒေသကြီး,Yangon,"16.87774,96.19079",,stopped,Stop Service,အောက်ဆီဂျင်ဖြည့်လို့ရ,,,,,16.8873444,96.1708472,https://www.facebook.com/cleanyangon/photos/a.166856950511329/1071451586718523/
338,အောက်ဆီဂျင်,,အပြုံးမပျက်အသင်း,,ရေးမြို့နယ်,09445558400,09775558400,09898999924,,,ရေး,Ye ,မွန်ပြည်နယ်,Mon,"15.2453917363,97.8493539243",,,အောင်သုခရပ်၊ ရေးမြို့,"အောက်ဆီဂျင်အပိုပစ္စည်းရရှိနိုင်,အောက်ဆီဂျင်ဖြည့်လို့ရ",,မနက်၈-ည၆,ပိတ်ရက်မရှိ,,15.247159,97.851253,
339,အောက်ဆီဂျင်,Sweety Home,Sweety Home,,ပြည်ကြီးတံခွန်,09451140401,,,,,ပြည်ကြီးတံခွန်,Pyigyitagon ,မန္တလေးတိုင်းဒေသကြီး,Mandalay,"21.901964,96.104181",,stopped,Wrong Info/ Stop Service,,,,,,,,
340,အောက်ဆီဂျင်,Miba Gone,မိဘဂုဏ်,,ပြည်ထောင်စုလမ်း၊ ဒေါနခြံရပ် ၊ မုံရွာမြို့,07123361,09966232350,09400461854,09253581907,,မုံရွာ,Monywa ,စစ်ကိုင်းတိုင်းဒေသကြီး,Sagaing,"22.12168,95.13963",,,Near Shwe Taw Win hospital,အောက်ဆီဂျင်အပိုပစ္စည်းရရှိနိုင်,,မနက်၆-ည၈,ပိတ်ရက်မရှိ,,,,
341,အောက်ဆီဂျင်,Mani Sala,မဏီစလ,,၃၆လမ်းနဲ့ ၈၆လမ်းထောင့်,09402611166,09402611177,09402611188,,,မဟာအောင်မြေ,Mahaaungmyay ,မန္တလေးတိုင်းဒေသကြီး,Mandalay,"21.97535,96.094599",,,Same as Original,"လူနာတင်ယဥ်,နာရေးကူညီမှု",,,,,21.96932315,96.07347162,
342,အောက်ဆီဂျင်,Aung,အောင်,,၈၇လမ်း၊ ၃၄x၃၅ ကြား,09797776721,,,,,မဟာအောင်မြေ,Mahaaungmyay ,မန္တလေးတိုင်းဒေသကြီး,Mandalay,"21.97535,96.094599",,stopped,Stop Service,,,,,,,,
343,အောက်ဆီဂျင်,Ko Zaw Htun,ကိုဇော်ထွန်း,,၃၆ လမ်းနဲ့ ၆၁လမ်းထောင့်,09789990998,09402020853,09787890344,,,မဟာအောင်မြေ,Mahaaungmyay ,မန္တလေးတိုင်းဒေသကြီး,Mandalay,"21.97535,96.094599",,,မင်းကွန်းသားလေး တကိုယ်တော်ပရဟိတ၊ စိန့်ဂျွန်းဘုရားကျောင်း၊ 36လမ်း - 61လမ်းထောင့်,အောက်ဆီဂျင်ဖြည့်လို့ရ,,မနက်၁၀-ည၁၂,ပိတ်ရက်မရှိ,,,,
344,အောက်ဆီဂျင်,,တဝမေတ္တာ ပရဟိတ,,စစ်ကိုင်းမန်းတလေးလမ်း /တဝရွှေဂူဘုရားအနီး,0943044801,09650119199,09402778767,09795119119,09449192192,ချမ်းမြသာစည်,Chanmyathazi ,မန္တလေးတိုင်းဒေသကြီး,Mandalay,"21.939404,96.095838",,,Same as Original,အောက်ဆီဂျင်ဖြည့်လို့ရ,,,,,,,
345,အောက်ဆီဂျင်,,မြရည်နန္ဒာ ပရဟိတ,,၁၁၇၊ ၅၃x၅၄ လမ်းကြား၊ ချမ်းမြသာစည်မြို့နယ်,09255255416,09402549231,09440026883,09752806119,,ချမ်းမြသာစည်,Chanmyathazi ,မန္တလေးတိုင်းဒေသကြီး,Mandalay,"21.939404,96.095838",,,Same as Original,အောက်ဆီဂျင်ဖြည့်လို့ရ,,,,,,,
346,အောက်ဆီဂျင်,,အောက်ဆီီဂျင်ဖြည့်,,ကျောက်ရေတွင်းမှတ်တိုင်၊ ၃လမ်း၊ မြောက်ဥက္ကလာပ,09450003923,,,,,မြောက်ဥက္ကလာပ,North Okkalapa,ရန်ကုန်တိုင်းဒေသကြီး,Yangon,"16.918775,96.163028",,,Need Confirmation,,,,,,16.8901833,96.1535624,
347,အောက်ဆီဂျင်,,MPA Oxygen,,သိမ်ဖြူသင်္ဘောကျင်း ၊ စက်မှူအင်ဂျင်နီယာဌာန၊ ဗိုလ်တစ်ထောင်ဆိပ်ကမ်း ကွန်တိန်နာလမ်းမပေါ်၊ ဗိုလ်တစ်ထောင်ဘုရားလမ်း ၊ ရန်ကုန်။,,,,,,ဗိုလ်တထောင်,Botahtaung,ရန်ကုန်တိုင်းဒေသကြီး,Yangon,"16.771967,96.169709",,,Need Confirmation,,,,,,16.7673627,96.172295,
348,အောက်ဆီဂျင်,,မဇ္ဈိမအလင်း လူငယ်လူမှုကူညီရေးအသင်း,,ပုသိမ်မြို့ အမှတ် ၂ ရပ်ကွက်,09794555011,0989455794,09795410308,09695410308,09662294919,ပုသိမ်,Pathein ,ဧရာဝတီတိုင်းဒေသကြီး,Ayeyarwady,"16.77924,94.73303",,,Same as Original,"အောက်ဆီဂျင်အပိုပစ္စည်းရရှိနိုင်,အောက်ဆီဂျင်ဖြည့်လို့ရ,လူနာတင်ယဥ်,နာရေးကူညီမှု",ညမထွက်ရအချိန်ကူညီပေး,၂၄ နာရီ,ပိတ်ရက်မရှိ,,,,
349,အောက်ဆီဂျင်,Kyaw Sithu,ကျော်စည်သူ,,ဆိုင်(၁)- စျေးလမ်း ၊ အရှေ့ကျောက်တိုက်၊​မုံရွာမြို့ ၊ ဆိုင်(၂) - အမှတ်(၄)လမ်း ၊ နန္ဒဝန်ရပ်ကွက်၊ မုံရွာမြို့,09782110944,09400461644,09792110944,092110944,092401897,မုံရွာ,Monywa ,စစ်ကိုင်းတိုင်းဒေသကြီး,Sagaing,"22.12168,95.13963",,,ဆိုင်(၁)- စျေးလမ်း ၊ အရှေ့ကျောက်တိုက်၊​မုံရွာမြို့ ၊ ဆိုင်(၂) - အမှတ်(၄)လမ်း ၊ နန္ဒဝန်ရပ်ကွက်၊ မုံရွာမြို့ - စိန်ပန်းနီလမ်း-၄၄x၄၅ လမ်းကြား - စက်မှုဇုံ(၁)- မုံရွာမြို့,"အောက်ဆီဂျင်အိုးရောင်း,အောက်ဆီဂျင်ဖြည့်လို့ရ",,,,,,,
350,အောက်ဆီဂျင်,,MBG,,စိန်ပန်းနီလမ်း-၄၄x၄၅ လမ်းကြား - စက်မှုဇုံ(၁)- မုံရွာမြို့,09400461854,,,,,မုံရွာ,Monywa ,စစ်ကိုင်းတိုင်းဒေသကြီး,Sagaing,"22.12168,95.13963",,,Same as Original,အောက်ဆီဂျင်ဖြည့်လို့ရ,,,,,22.09348862,95.17354931,
351,အောက်ဆီဂျင်,,ဆန်းမွန်းစတား,,သလ္လာဝတီ လှည်းဂိတ်အနီး| ကမ်းနားလမ်း|မုံရွာမြို့,09400185533,09977123971,,,,မုံရွာ,Monywa ,စစ်ကိုင်းတိုင်းဒေသကြီး,Sagaing,"22.12168,95.13963",,,Need Confirmation,,,,,,22.141495,95.105283,
352,အောက်ဆီဂျင်,,ချယ်ရီမြေ ပရဟိတ,,ချယ်ရီမြေ ပရဟိတအသင်း တောင်ရပ်ကွက် မူဆယ်မြို့နယ်,09403712380,,,,,မူဆယ်,Muse ,ရှမ်းပြည်နယ် (မြောက်),Shan (North),"23.98989,97.90165",,,Need Confirmation,,,,,,23.99723356,97.90411684,
353,အောက်ဆီဂျင်,,ကရုဏာလူမှုကူညီရေးအသင်း(မအူပင်),,မအူပင်မြို့,09790231554,,,,,မအူပင်,Maubin ,ဧရာဝတီတိုင်းဒေသကြီး,Ayeyarwady,"16.73023,95.6494",,,Need Confirmation,,,,,,,,
354,အောက်ဆီဂျင်,Thin Nwe,သင်းနွယ်,,အောင်သီရိဈေး6ရပ်ကွက်လှည်းစုအတွင်းလမ်းမ,09796773155,09964716062,,,,ပုသိမ်,Pathein ,ဧရာဝတီတိုင်းဒေသကြီး,Ayeyarwady,"16.77924,94.73303",,,Same as Original,အောက်ဆီဂျင်ဖြည့်လို့ရ,,,ပိတ်ရက်မရှိ,,,,
355,အောက်ဆီဂျင်,,ဘက်စုံလူမှုကူညီရေးအဖွဲ့ (ပုသိမ်),,အဘယသီဝံ(ရွှေကျင်)တိုက်သစ်ကျောင်းတိုက်,09441447440,09791809990,,,,ပုသိမ်,Pathein ,ဧရာဝတီတိုင်းဒေသကြီး,Ayeyarwady,"16.77924,94.73303",,,Same as Original,"အောက်ဆီဂျင်အပိုပစ္စည်းရရှိနိုင်,အောက်ဆီဂျင်ဖြည့်လို့ရ,လူနာတင်ယဥ်,နာရေးကူညီမှု",ညမထွက်ရအချိန်ကူညီပေး,၂၄ နာရီ,ပိတ်ရက်မရှိ,,,,
356,အောက်ဆီဂျင်,,မဇ္စျိမအလင်း လူငယ်လူမှုကူညီရေးအသင်း,,,09794555011,0989455943,09695410308,09662294919,09795410308,ပုသိမ်,Pathein ,ဧရာဝတီတိုင်းဒေသကြီး,Ayeyarwady,"16.77924,94.73303",,,"အမှတ် ၃၄၊ ပုဒင်းတန်းလမ်း ၊ အမှတ်၂ ရပ်ကွက်၊ပုသိမ်။ ရွှေပြည့်စုံဘုရားနှင့် ရွှေမော်ဓော ဘုရားအကြား
 High Speed စားသောက်ဆိုင်ရှေ့",အောက်ဆီဂျင်ဖြည့်လို့ရ,ညမထွက်ရအချိန်ကူညီပေး,၂၄ နာရီ,ပိတ်ရက်မရှိ,,,,
357,အောက်ဆီဂျင်,,အောင်မြတ်ကောင်း,,အမှတ်(၆၁)၊အကြော်တန်းဆိုင်ခန်း၊မင်းကြီးလမ်း,098617580,0949212125,09422470074,09428617580,,ပုသိမ်,Pathein ,ဧရာဝတီတိုင်းဒေသကြီး,Ayeyarwady,"16.77924,94.73303",,,Same as Original,"အောက်ဆီဂျင်အိုးရောင်း,အောက်ဆီဂျင်အပိုပစ္စည်းရရှိနိုင်,အောက်ဆီဂျင်ဖြည့်လို့ရ",,မနက်၈-ည၆,ပိတ်ရက်မရှိ,,,,
358,အောက်ဆီဂျင်,Naing Family,Naing Family,,၃၈၃၊ စစ်ကိုင်းလမ်း၊ စက်မှုဇုန် (၁)၊ တောင်ဒဂုံ,095099875,09765099875,,,,ဒဂုံမြို့သစ်(တောင်ပိုင်း),Dagon Myothit (South) ,ရန်ကုန်တိုင်းဒေသကြီး,Yangon,"16.84016,96.22582",,,Need Confirmation,,,,,,16.8497344,96.2475209,
359,အောက်ဆီဂျင်,Naing Family,Naing Family,,၁၉၇၊ သခင်ဖိုးလှကြီးလမ်း၊ ပြည်,09790412777,09790413777,,,,ပြည်,Pyay ,ပဲခူးတိုင်းဒေသကြီး (အနောက်),Bago (West),"18.82151,95.22103",,,Need Confirmation,,,,,,,,
360,အောက်ဆီဂျင်,Naing Family,Naing Family,,၆၃၊ ကျောက်တန်း စက်မှုဇုန်၊ မော်လမြိုင်,09978000305,09797402222,09978000306,09889668688,,မော်လမြိုင်,Mawlamyine ,မွန်ပြည်နယ်,Mon,"16.48459,97.62593",,,Need Confirmation,,,,,,,,
361,အောက်ဆီဂျင်,,မျိုးဆက်သစ်မြတ်ပါရမီ လူမှုကယ်ဆယ်ရေး,,မိတ္ထီလာမြို့ ဇောင်ချမ်းကုန်းရပ်ကွက်,09402684496,09779963066,,,,မိတ္ထီလာ,Meiktila ,မန္တလေးတိုင်းဒေသကြီး,Mandalay,"20.88189,95.86311",,,Need Confirmation,,,,,,,,
362,အောက်ဆီဂျင်,Myanmar Resuce Organization,Myanmar Rescue Organization,,ရုံးကြီးရပ်ကွက်/နာရီစင်အနီး။ မြို့မသတိပဌာန်ကျောင်းတိုက်၊ မုံရွာမြို့,09791119119,9752833119,9777562019,9960329700,,မုံရွာ,Monywa ,စစ်ကိုင်းတိုင်းဒေသကြီး,Sagaing,"22.12168,95.13963",,,Same as Original,"အောက်ဆီဂျင်အိုးရောင်း,အောက်ဆီဂျင်အပိုပစ္စည်းရရှိနိုင်",,,,,,,
363,အောက်ဆီဂျင်,Ziwaka,ဇီဝက,,ပြည်သူ့ဆေးရုံတောင်ဘက်,,,,,,မုံရွာ,Monywa ,စစ်ကိုင်းတိုင်းဒေသကြီး,Sagaing,"22.12168,95.13963",,,Need Confirmation,,,,,,21.9691351,95.0801069,
364,အောက်ဆီဂျင်,Thukha Aung,သုခအောင်,,မုံရွာတောင်၊ Ocean Center အနီး,,,,,,မုံရွာ,Monywa ,စစ်ကိုင်းတိုင်းဒေသကြီး,Sagaing,"22.12168,95.13963",,,Need Confirmation,,,,,,22.10042519,95.13966116,
365,အောက်ဆီဂျင်,So Pyay,စိုပြေ,,ပြည်သူ့ဆေးရုံအနီး,,,,,,မုံရွာ,Monywa ,စစ်ကိုင်းတိုင်းဒေသကြီး,Sagaing,"22.12168,95.13963",,,"သစ်တောလမ်း, Monywa, Sagaing, Myanmar",,,,,,"22.115081212815255,",95.12829982,
366,အောက်ဆီဂျင်,Care Phamancy,Care Pharmacy,,ဇောတိကမုန့်ဆိုင်အနီး၊ ကျောက္ကာလမ်း,,,,,,မုံရွာ,Monywa ,စစ်ကိုင်းတိုင်းဒေသကြီး,Sagaing,"22.12168,95.13963",,,အမှတ် 9/24 ကျောက္ကာလမ်း၊ ဇောတိကမုန့်ဆိုင်အနီး၊ အလယ်ရပ်၊ မုံရွာမြို့,,,,,,22.11231216,95.13341581,
367,ကိုဗစ်စစ်ရန်,,မုံရွာပြည်သူ့အားကစားကွင်း,,မြင်းမူလမ်း၊ မုံရွာပြည်သူ့အားကစားကွင်း,0943069088,,,,,မုံရွာ,Monywa ,စစ်ကိုင်းတိုင်းဒေသကြီး,Sagaing,"22.12168,95.13963",,,Need Confirmation,အောက်ဆီဂျင်ဖြည့်လို့ရ,,,,,22.11993159,95.12766755,
368,အောက်ဆီဂျင်,,မင်းကွန်းသားလေးoxygenအခမဲ့စင်တာ,,36လမ်း၊61လမ်းထောင့်,09789990998,09769990998,,,,မဟာအောင်မြေ,Mahaaungmyay ,မန္တလေးတိုင်းဒေသကြီး,Mandalay,"21.97535,96.094599",,,Confirmed စိန်ဂျွန်းဘုရားကျောင်းဝန်းထဲ,အောက်ဆီဂျင်ဖြည့်လို့ရ,,မနက်၈-ည၆,ပိတ်ရက်မရှိ,,21.96535322,96.11380839,
369,အောက်ဆီဂျင်,,ရွှေမဟာနွယ်လူမှူကယ်ဆယ်ရေးအဖွဲ့,,117လမ်း-53လမ်းနှင့်54လမ်းကြား,09771177622,09988984486,09259133559,,,ချမ်းမြသာစည်,Chanmyathazi ,မန္တလေးတိုင်းဒေသကြီး,Mandalay,"21.939404,96.095838",,,Confirmed,"အောက်ဆီဂျင်အပိုပစ္စည်းရရှိနိုင်,အောက်ဆီဂျင်ဖြည့်လို့ရ,လူနာတင်ယဥ်",,မနက်၈-ည၆,ပိတ်ရက်မရှိ,,,,
370,အောက်ဆီဂျင်,,ဖေးကူလက် များ လူမှုကူညီရေးအသင်း,,၈၆ လမ်း၊ ၄၀ × ၄၁ ကြား၊ ကျောက်ဝိုင်းအရှေ့ မဟာအောင်မြေ,,,,,,မဟာအောင်မြေ,Mahaaungmyay ,မန္တလေးတိုင်းဒေသကြီး,Mandalay,"21.97535,96.094599",,,Need Confirmation,,,,,,,,
371,အောက်ဆီဂျင်,RVK Myanmar,အာဗွီ မြန်မာ (ပြင်ဦးလွင်),,,09751417761,,,,,ပြင်ဦးလွင်,Pyinoolwin ,မန္တလေးတိုင်းဒေသကြီး,Mandalay,"22.01397,96.45634",,,ဆေးဝါးစက်ရုံ၊ အနီးစခန်းလေယာဉ်ကွင်းအနီး၊ပြင်ဦးလွင်။,အောက်ဆီဂျင်ဖြည့်လို့ရ,,မနက်၈-ည၆,ပိတ်ရက်မရှိ,,21.94629506,96.40623667,
372,အောက်ဆီဂျင်,,အဖြူရောင်နှလုံးသား,,ကြေးသွန်းဘုရားဝင်း သထုံမြို့,09757400078,09425356516,,,,သထုံ,Thaton ,မွန်ပြည်နယ်,Mon,"16.9197,97.3678",,,"
ဘုရားတောင်ဘက်မုတ်မှ ဝင်လာရန် ဆိုင်ခန်းအမှတ် မရှိပါ- 09425356516 ဤဖုန်းသည် ရုံးချိန်အတွင်သာဖုန်းကိုင်မည်-
24 Hours phone- 09757400078
","အောက်ဆီဂျင်အိုးရောင်း,အောက်ဆီဂျင်အပိုပစ္စည်းရရှိနိုင်,လူနာတင်ယဥ်,နာရေးကူညီမှု",,၂၄ နာရီ,ပိတ်ရက်မရှိ,,,,
373,အောက်ဆီဂျင်,Moe Kaung,မိုးကောင်း,,,09770789467,09764180022,0976418003,09764188842,09764188873,သထုံ,Thaton ,မွန်ပြည်နယ်,Mon,"16.9197,97.3678",,,မိုးကောင်းဘုရားအရှေ့၊ အုပ်ချုပ်ရေးမှူးရုံးဝင်း၊ မိုးကောင်းရွာ၊မိုးကောင်းကျေးရွာအုပ်စု၊သထုံမြို့နယ်,"အောက်ဆီဂျင်အပိုပစ္စည်းရရှိနိုင်,အောက်ဆီဂျင်ဖြည့်လို့ရ,လူနာတင်ယဥ်,နာရေးကူညီမှု",ညမထွက်ရအချိန်ကူညီပေး,၂၄ နာရီ,ပိတ်ရက်မရှိ,,17.105919,97.300973,
374,အောက်ဆီဂျင်,Thet Tant Yaung Sin,သက်တန့်ရောင်စဥ်,,ကြေးသွန်းဘုရားဝင်းအတွင်း သထုံမြို့,09786314963,09972369858,09779993613,,,သထုံ,Thaton ,မွန်ပြည်နယ်,Mon,"16.9197,97.3678",,,Need Confirmation,"အောက်ဆီဂျင်အပိုပစ္စည်းရရှိနိုင်,လူနာတင်ယဥ်,နာရေးကူညီမှု",,မနက်၈-ည၆,ပိတ်ရက်မရှိ,09-786314863,,,
375,အောက်ဆီဂျင်,,ရှင်သန်ခြင်းတွဲလက်,,,09783307028,09681608274,09255823358,,,သထုံ,Thaton ,မွန်ပြည်နယ်,Mon,"16.9197,97.3678",,,အုပ်ချုပ်ရေးမှူးရုံးဝင်း ၊ဘုရားလမ်း၊ သုဓမ္မဝတီမြို့သစ်၊ သထုံမြို့နယ်,"အောက်ဆီဂျင်အပိုပစ္စည်းရရှိနိုင်,အောက်ဆီဂျင်ဖြည့်လို့ရ,လူနာတင်ယဥ်,နာရေးကူညီမှု",ညမထွက်ရအချိန်ကူညီပေး,၂၄ နာရီ,ပိတ်ရက်မရှိ,,16.919951,97.408833,
376,အောက်ဆီဂျင်,,အကြင်နာတွဲလက်,,ရွှေစာရံဘုရားအနောက်မုခ်အနီး သထုံမြို့,09797571000,09660571000,,,,သထုံ,Thaton ,မွန်ပြည်နယ်,Mon,"16.9197,97.3678",,,Same as Original,လူနာတင်ယဥ်,ညမထွက်ရအချိန်ကူညီပေး,၂၄ နာရီ,ပိတ်ရက်မရှိ,,,,
377,အောက်ဆီဂျင်,Myittar Shin,မေတ္တာရှင်,,နောင်ကုလားကျေးရွာ သထုံမြို့,09791836304,09781031054,09255929937,,,သထုံ,Thaton ,မွန်ပြည်နယ်,Mon,"16.9197,97.3678",,,Same as Original,"လူနာတင်ယဥ်,နာရေးကူညီမှု",ညမထွက်ရအချိန်ကူညီပေး,၂၄ နာရီ,ပိတ်ရက်မရှိ,,,,
378,အောက်ဆီဂျင်,Manaw Phyu,မနောဖြူ,,,09977367772,09790690029,,,,သထုံ,Thaton ,မွန်ပြည်နယ်,Mon,"16.9197,97.3678",,,ကောလီသာဘုန်းကြီးကျောင်း၊ ဘင်လှိုင်နှင့် ဒူးရင်းဆိပ်ကြား၊ သထုံမြို့နယ်,"အောက်ဆီဂျင်အပိုပစ္စည်းရရှိနိုင်,အောက်ဆီဂျင်ဖြည့်လို့ရ,လူနာတင်ယဥ်,နာရေးကူညီမှု",,မနက်၈-ည၆,ပိတ်ရက်မရှိ,,16.975765,97.440711,
379,အောက်ဆီဂျင်,,နှောင်ကြိုးမဲ့,,ဒုံဝန်းကျေးရွာ-သထုံမြို့,09764000373,09764000938,,,,သထုံ,Thaton ,မွန်ပြည်နယ်,Mon,"16.9197,97.3678",,,Need Confirmation,,,,,,,,
380,အောက်ဆီဂျင်,,ပီတိနှလုံးသား,,,09783887420,,,,,သထုံ,Thaton ,မွန်ပြည်နယ်,Mon,"16.9197,97.3678",,,နောင်ဘိုကျေးရွာ၊ သထုံမြို့,"အောက်ဆီဂျင်အပိုပစ္စည်းရရှိနိုင်,အောက်ဆီဂျင်ဖြည့်လို့ရ,လူနာတင်ယဥ်,နာရေးကူညီမှု",ညမထွက်ရအချိန်ကူညီပေး,၂၄ နာရီ,ပိတ်ရက်မရှိ,09-762436816,17.034086,97.323525,
381,အောက်ဆီဂျင်,,Zawlbuk ပရဟိတ,,တာဟန်းရပ်ကွက်၊ ကလေးမြို့၊ စစ်ကိုင်းတိုင်းဒေသကြီး,09400544443,,,,,ကလေး,Kale ,စစ်ကိုင်းတိုင်းဒေသကြီး,Sagaing,"23.1933,94.02977",,,Same as Original,အောက်ဆီဂျင်ဖြည့်လို့ရ,,,,,,,
382,အောက်ဆီဂျင်,Min Khant Nyar,မင်းခန့်ညား,,မြောက်ဒဂုံ,09448233917,,,,,ဒဂုံမြို့သစ်(မြောက်ပိုင်း),Dagon Myothit (North) ,ရန်ကုန်တိုင်းဒေသကြီး,Yangon,"16.87774,96.19079",,,Need Confirmation,,,,,,,,
383,အောက်ဆီဂျင်,,JOY House(2),,အမှတ် ၁၀၁\F ရန်ကုန်အင်းစိန်လမ်းမကြီး|ခဝဲခြံမှတ်တိုင်အနီး,09444555964,,,,,မရမ်းကုန်း,Mayangone,ရန်ကုန်တိုင်းဒေသကြီး,Yangon,"16.86619,96.142611",,,Need Confirmation,,,,,,,,
384,အောက်ဆီဂျင်,,မစီးဒီးခါန်းလူငယ် လူမှုကူညီရေးအသင်း,,အမှတ် (၃၅၆)၊ ကျိုက္ကဆံလမ်း၊ နတ်ချောင်းရပ်ကွက်၊ တာမွေမြို့နယ်၊ ရန်ကုန်တိုင်းဒေသကြီး။,09786750007,09786940006,09261619763,09786402299,,တာမွေ,Tamwe,ရန်ကုန်တိုင်းဒေသကြီး,Yangon,"16.810182,96.17646",,,Same as Original,"လူနာတင်ယဥ်,နာရေးကူညီမှု",,မနက်၉ခွဲ-ည၆ညမထွက်ရအချိန်မှအပ,ပိတ်ရက်မရှိ,,16.81040932,96.17673264,
385,အောက်ဆီဂျင်,,ရေကြောင်းရုံး,,ပြည်တွင်းရေကြောင်းရုံး မုံရွာမြို့,09794563439,,,,,မုံရွာ,Monywa ,စစ်ကိုင်းတိုင်းဒေသကြီး,Sagaing,"22.12168,95.13963",,,Need Confirmation,,,,,,,,
386,အောက်ဆီဂျင်,Save Life,Save Life,,Thanlyin,09799457404,,,,,သန်လျင်,Thanlyin ,ရန်ကုန်တိုင်းဒေသကြီး,Yangon,"16.76378,96.25184",,,Need Confirmation,,,,,,16.76702933,96.24368555,
387,အောက်ဆီဂျင်,Ko Zwe,ကိုဇွဲ,,(၂၂) မင်းကြီးညိုရပ်ကွက် ၊ မြိုဦး (၃) လမ်းထိပ် ၊ ရန်ကုန် - မန္တလေး လမ်းမတော် ၊ ‌ထီးနီကုန်း CB BANK မျက်စောင်းထိုးနား,095351571,09765351571,,,,တောင်ငူ,Taungoo ,ပဲခူးတိုင်းဒေသကြီး (အရှေ့),Bago (East),"18.93953,96.43314",,,Same as Original,"အောက်ဆီဂျင်အိုးရောင်း,အောက်ဆီဂျင်အပိုပစ္စည်းရရှိနိုင်,အောက်ဆီဂျင်ဖြည့်လို့ရ",,မနက်၈-ည၆,အဖိတ်၊ ဥပုသ်ပိတ်,,,,
388,အောက်ဆီဂျင်,Ko Win Htet Oo,ကိုဝင်းထက်ဦး,,အမှတ် (၃) ရဲစခန်းနား,09403717370,,,,,တောင်ငူ,Taungoo ,ပဲခူးတိုင်းဒေသကြီး (အရှေ့),Bago (East),"18.93953,96.43314",,,Same as Original,"အောက်ဆီဂျင်အိုးရောင်း,အောက်ဆီဂျင်ဖြည့်လို့ရ",,မနက်၈-ည၆,,,18.941817,96.436433,
389,အောက်ဆီဂျင်,Yan Myo Aung,ရန်မျိုးအောင်,,,,,,,,တောင်ငူ,Taungoo ,ပဲခူးတိုင်းဒေသကြီး (အရှေ့),Bago (East),"18.93953,96.43314",,,Need Confirmation,,,,,,,,
390,အောက်ဆီဂျင်,U Kyaw,ဦးကျော်,,,,,,,,တောင်ငူ,Taungoo ,ပဲခူးတိုင်းဒေသကြီး (အရှေ့),Bago (East),"18.93953,96.43314",,,Need Confirmation,,,,,,,,
391,အောက်ဆီဂျင်,,အဖြူရောင်လက်များပရဟိတအသင်း,,အဖြူရောင်လက်များပရဟိတအသင်း(မြင်းခြံ),09265811200,09786041200,,,,မြင်းခြံ,Myingyan ,မန္တလေးတိုင်းဒေသကြီး,Mandalay,"21.45745,95.39179",,,Same as Original,,ညမထွက်ရအချိန်ကူညီပေး,၂၄ နာရီ,,,,,
392,အောက်ဆီဂျင်,N S Oxygen & Ethyl Alcohol,N S Oxygen & Ethyl Alcohol,,အမှန် (၅၀၄) သိမ်ဖြူလမ်း (သိမ်ဖြူစာတိုက်အနီး / လမ်း (၅) ခွဆုံအနီး ),09420081103,09250013834,095162365,,,မြင်းခြံ,Myingyan ,မန္တလေးတိုင်းဒေသကြီး,Mandalay,"21.45745,95.39179",,,Need Confirmation,,,,,,,,
393,အောက်ဆီဂျင်,,မြင်းခြံအွန်လိုင်းပရဟိတအသင်း,,မြင်းခြံအွန်လိုင်းပရဟိအသင်း(မြင်းခြံ),09787434737,,,,,မြင်းခြံ,Myingyan ,မန္တလေးတိုင်းဒေသကြီး,Mandalay,"21.45745,95.39179",,,Need Confirmation,အောက်ဆီဂျင်အပိုပစ္စည်းရရှိနိုင်,,မနက်၈-ည၆,ပိတ်ရက်မရှိ,,,,
394,အောက်ဆီဂျင်,,မုတ္တစာဂီ သွေးလှူရှင်အသင်း,,ချမ်းမြသာစည်မြို့နယ် ၊ အောင်ပင်လယ်/၅၆×၁၀၇လမ်း ဆု(ကဖေး),09403041008,09402511840,,,,ချမ်းမြသာစည်,Chanmyathazi ,မန္တလေးတိုင်းဒေသကြီး,Mandalay,"21.939404,96.095838",,,Same as Original,အောက်ဆီဂျင်ဖြည့်လို့ရ,ညမထွက်ရအချိန်ကူညီပေး,၂၄ နာရီ,ပိတ်ရက်မရှိ,,,,
395,အောက်ဆီဂျင်,Nyein Hospital,ညိမ်းဆေးရုံ,,29x84st ထောင့် မန္တလေး,,,,,,မန္တလေး,Mandalay City,မန္တလေးတိုင်းဒေသကြီး,Mandalay,"21.9894028624,96.092101078",,,Need Confirmation,,,,,,,,
396,အောက်ဆီဂျင်,Aung,အောင်,,နေပြည်တော်တောင်ညိုလမ်း၊ ဆင်ရုပ် ဇောတိကအနီး,09797925094,09974320183,06722494,06723384,,နေပြည်တော်,Nay Pyi Taw ,နေပြည်တော်,Nay Pyi Taw,"19.80326,96.18566",,,Same as Original,အောက်ဆီဂျင်အိုးရောင်း,,မနက်၈-ည၆,ပိတ်ရက်မရှိ,,,,
397,အောက်ဆီဂျင်,,,,ဒေါ်သိန်းတင် ၉၁လမ်းထောင့် မိုးသီရီစားသောက်ဆိုင် ၅လွှာ,097972786774,,,,,မင်္ဂလာတောင်ညွန့်,Mingalartaungnyunt,ရန်ကုန်တိုင်းဒေသကြီး,Yangon,"16.788908,96.167859",,,,,,,,,,,
398,အောက်ဆီဂျင်,Potencer,Potencer,"No(24)MaOoKone Street,Tarmwe",အမှတ်၂၄၊ မအူကုန်းလမ်း၊ တာမွေ၊ ရန်ကုန်,09971436202,,,,,ဗိုလ်တထောင်,Botahtaung,ရန်ကုန်တိုင်းဒေသကြီး,Yangon,"16.771967,96.169709",,,Need Confirmation,,,,,,16.79547271,96.17430804,
399,အခြား,,မိုးစေတနာ ပရဟိတအသင်း,ပျဉ်းမနားမြို့နယ်,ပျဉ်းမနားမြို့နယ်,09 420 771 405,09 972 755 311,09 952 221 710,,,ပျဉ်းမနား,Pyinmana ,နေပြည်တော်,Nay Pyi Taw,"19.7361,96.20895",,,Need Confirmation,,,,,,,,
400,အခြား,,သုခဒါန ပရဟိတအသင်း,,ဥတ္တရသီရိ မြို့နယ်,9254567548,,,,,ဥတ္တရသီရိ,Oke Ta Ra Thi Ri ,နေပြည်တော်,Nay Pyi Taw,"19.891,96.043",,,Need Confirmation,"အောက်ဆီဂျင်ဖြည့်လို့ရ,လူနာတင်ယဥ်,နာရေးကူညီမှု",,မနက်၈-ည၆,ပိတ်ရက်မရှိ,,,,
401,အောက်ဆီဂျင်,,စေတမာန်လူမှုကူညီရေးအသင်း,,,09 441442443,,,,,,,,,,,,Need Confirmation,,,,,,,,
402,အောက်ဆီဂျင်,"NorthOakkalar, Kyauk Yedwin Bus stop",မြောက်ဥက္ကလာပ ကျောက်ရေတွင်းမှတ်တိုင်,,မြောက်ဥက္ကလာပ ကျောက်ရေတွင်းမှတ်တိုင် (၃)လမ်း၊ည၇နာရီ ပိတ်ပါတယ်,09450003923,,,,,,,,,,,,Need Confirmation,,,,,,,,
403,အောက်ဆီဂျင်စက်ရုံ,KMK,KMK,,တောင်ဒဂုံစက်မှုဇုန်,09252252832,,,,,ဒဂုံမြို့သစ်(တောင်ပိုင်း),Dagon Myothit (South) ,ရန်ကုန်တိုင်းဒေသကြီး,Yangon,"16.84016,96.22582",,,Need Confirmation,,,,,,,,
404,အောက်ဆီဂျင်,,ပီတိမေတ္တာလူမှုကူညီကယ်ဆယ်ရေး,,,095076545,09777757734,,,,,,,,,,,Same as Original,"အောက်ဆီဂျင်ဖြည့်လို့ရ,လူနာတင်ယဥ်",ညမထွက်ရအချိန်ကူညီပေး,၂၄ နာရီ,ပိတ်ရက်မရှိ,,,,
405,အခြား,,သက်တန့်ရောင်စဉ် ပရဟိတ,,,09972369858,,,,,,,,,,,,သထုံမြို့နယ်,"လူနာတင်ယဥ်,နာရေးကူညီမှု",ညမထွက်ရအချိန်ကူညီပေး,၂၄ နာရီ,ပိတ်ရက်မရှိ,,,,
406,အခြား,,အဖြူ ရောင်နှလုံးသား လူမှုကယ်ဆယ်ရေးအဖွဲ့,,,09425356516,,,,,,,,,,,,ကြေးသွန်းဘုရား၀န်း၊ရွေစာရံဘုရားတောင်ဘက်မုဒ်၊သထုံမြို့နယ်။,"လူနာတင်ယဥ်,နာရေးကူညီမှု",ညမထွက်ရအချိန်ကူညီပေး,၂၄ နာရီ,ပိတ်ရက်မရှိ,9774281820,16.91506157,97.36977,
407,အခြား,,စိုးမိုးသူ လူမှုကူညီရေးအဖွဲ့,,ဇမ္မူသီရိမြို့နယ်,09 420 104 504,09 253 095 834,09 254 080 946,,,ဇမ္မူသီရိ,,,,,,,ဗလသိဒ္ဒိရပ်ကွက်၊ဇမ္ဗူသီရိမြို့နယ်၊နေပြည်တော်။,"အောက်ဆီဂျင်အပိုပစ္စည်းရရှိနိုင်,အောက်ဆီဂျင်ဖြည့်လို့ရ,လူနာတင်ယဥ်,နာရေးကူညီမှု",ညမထွက်ရအချိန်ကူညီပေး,၂၄ နာရီ,ပိတ်ရက်မရှိ,"09-420753989,09-250969216,09-420757140 https://www.facebook.com/%E1%80%85%E1%80%AD%E1%80%AF%E1%80%B8%E1%80%99%E1%80%AD%E1%80%AF%E1%80%B8%E1%80%9E%E1%80%B0-%E1%80%9C%E1%80%B0%E1%80%99%E1%80%BE%E1%80%AF%E1%80%80%E1%80%B0%E1%80%8A%E1%80%AE%E1%80%9B%E1%80%B1%E1%80%B8%E1%80%A1%E1%80%96%E1%80%BD%E1%80%B2%E1%80%B7-251722948605143/",19.76886291,96.07292876,
408,အခြား,,နေပြည်တော်ကြက်ခြေနီသူနာပြုတပ်ဖွဲ့,,ပျဉ်းမနားမြို့နယ်,09 448 535 275,09 420 714 432,,,,ပျဉ်းမနား,Pyinmana ,နေပြည်တော်,Nay Pyi Taw,"19.7361,96.20895",,,"နေပြည်တော်ကြက်ခြေနီသူနာပြုတပ်ဖွဲ့, ဒေလီယာလမ်းသွယ်နှင့် ၂၂လမ်းထောင့်, ပျဉ်းမနား။","လူနာတင်ယဥ်,နာရေးကူညီမှု",ညမထွက်ရအချိန်ကူညီပေး,၂၄ နာရီ,ပိတ်ရက်မရှိ,,19.7625726,96.21918314,
409,အောက်ဆီဂျင်,Rescue,မော်လမြိုင် လူမှုကယ်ဆယ်ရေးအဖွဲ့,,တနသ်ာရီလမ်း၊ ဘိုကုန်းရပ်၊ ဓမ္မနန္နီကျောင်းတိုက်,09 784784199,09 785785 199,09 260144199,,,မော်လမြိုင်,Mawlamyine ,မွန်ပြည်နယ်,Mon,"16.48459,97.62593",,,Same as Original,"လူနာတင်ယဥ်,နာရေးကူညီမှု",ညမထွက်ရအချိန်ကူညီပေး,၂၄ နာရီ,ပိတ်ရက်မရှိ,,16.46736953,97.62449294,
410,အောက်ဆီဂျင်,,ဝေဆာ (၂),,အမှတ်(၁၃)၊ အောက်လမ်းမကြီး၊ ဖက်တန်းရပ်၊ မော်လမြိုင်။,09 750775502,09 784040078,09 406991122,,,မော်လမြိုင်,Mawlamyine ,မွန်ပြည်နယ်,Mon,"16.48459,97.62593",,,Same as Original,"အောက်ဆီဂျင်အိုးရောင်း,အောက်ဆီဂျင်အပိုပစ္စည်းရရှိနိုင်,အောက်ဆီဂျင်ဖြည့်လို့ရ,လူနာတင်ယဥ်",ညမထွက်ရအချိန်ကူညီပေး,မနက်၈-ည၆,ပိတ်ရက်မရှိ,,,,
411,အောက်ဆီဂျင်,KS(Kyaw),KS (ကျော်),,၃၁၀၊ ဗိုလ်ချုပ်လမ်းနှင့် ကျောက်စိမ်းလမ်းထောင့်၊ (၅/၈) ရပ်ကွက်၊ ရွှေပြည်သာမြို့နယ်။ (ထန်း ၆ ပင်မှတ်တိုင်အနီး သံဒင်းဘက်သို့),09611696,0973235936,095165969,0973124654,,ရွှေပြည်သာ,Shwepyithar ,ရန်ကုန်တိုင်းဒေသကြီး,Yangon,"16.95504,96.08329",,,Need Confirmation,,,,,,,,
412,အောက်ဆီဂျင်,Mate Sat Oxygen Factory & Gas Distribution,မိတ်ဆက် အောက်ဆီဂျင်စက်ရုံနှင့် ဓါတ်ငွေ့မျိုးစုံ ဖြန့်ဖြူးရေး,,အမှတ်(၁၅၅/၁၅၆) နှင်းဆီလမ်း၊ အမှတ် (၃) စက်မှုဇုန်၊ တိုးချဲ့၊ တောင်ဒဂုံ၊ ရန်ကုန်မြို့,095008390,095170038,09250345546,09254406914,,ဒဂုံမြို့သစ်(တောင်ပိုင်း),Dagon Myothit (South) ,ရန်ကုန်တိုင်းဒေသကြီး,Yangon,"16.84016,96.22582",,,Need Confirmation,,,,,,,,
413,အောက်ဆီဂျင်,Aye Yeik San Oxygen,အေးရိပ်စံ အောက်ဆီဂျင် ရောင်း/ငှား/လေဖြည့်,,အမှတ် (၁၂) ဗဟန်း (၁)လမ်း၊ ဗဟန်းမြို့နယ်၊ ရန်ကုန်,09969439111,09969439666,09969439777,,,ဗဟန်း,Bahan,ရန်ကုန်တိုင်းဒေသကြီး,Yangon,"16.815427,96.156112",,,Need Confirmation,,,,,,16.79727278,96.15627013,
414,အောက်ဆီဂျင်,MAS Yangon,MAS Yangon,,မင်းဓမ္မလမ်း၊ အင်းစိန်မြို့နယ် (ကျောက်တော်ကြီးဘုရား အနီး),09 765519945,09 765519946,09 765519951,,,အင်းစိန်,Insein,ရန်ကုန်တိုင်းဒေသကြီး,Yangon,"16.901771,96.095959",,,Same as Original,အောက်ဆီဂျင်ဖြည့်လို့ရ,,,,,16.886596,96.122833,
415,အောက်ဆီဂျင်,,,,ထန်းခြောက်ပင်မှတ်တိုင် ၊ ဗိုလ်ချုပ်လမ်း၊ ကျောက်စိမ်းလမ်းထောင့်၊ ရွှေပြည်သာ,09 73235936,,,,,ရွှေပြည်သာ,Shwepyithar ,ရန်ကုန်တိုင်းဒေသကြီး,Yangon,"16.95504,96.08329",,,,,,,,,,,
416,အောက်ဆီဂျင်,Naing Family,Naing Family,,ဧရာစံ-အမှတ်(၄၄၂)၊ စက်မှုဇုံ ၁ လမ်းမကြီးနှင့်ရန်ကုန်လမ်းထောင့်၊ တောင်ဒဂုံ ။,09 443043094,09 76541282,09 965416282,,,ဒဂုံမြို့သစ်(တောင်ပိုင်း),Dagon Myothit (South) ,ရန်ကုန်တိုင်းဒေသကြီး,Yangon,"16.84016,96.22582",,,Need Confirmation,,,,,,16.84344925,96.22728055,
417,အောက်ဆီဂျင်,Aye Yeik Thar,အေးရိပ်သာ,,၂/၂ လမ်း၊ ခေတ္တရာမြို့သစ်၊ ပြည်မြို့ ။,09 450105299,09 960225468,,,,ပြည်,Pyay ,ပဲခူးတိုင်းဒေသကြီး (အနောက်),Bago (West),"18.82151,95.22103",,,Need Confirmation,,,,,,,,
418,အောက်ဆီဂျင်,,မြတ်ချမ်းသာ ပရဟိတ,,တောင်ကြီးမြို့,09428315413,,,,,တောင်ကြီး,Taunggyi ,ရှမ်းပြည်နယ် (တောင်),Shan (South),"20.77477,97.03598",,,"မင်းကျောင်းတိုက် တောင်ကြီးမြို့, တောင်ကြီးမြို့","အောက်ဆီဂျင်ဖြည့်လို့ရ,လူနာတင်ယဥ်",ညမထွက်ရအချိန်ကူညီပေး,၂၄ နာရီ,ပိတ်ရက်မရှိ,,20.78986578,97.03472393,
419,အောက်ဆီဂျင်,,အဖြူရောင် ပရဟိတ,,တောင်ကြီးမြို့,09259913092,,,,,တောင်ကြီး,Taunggyi ,ရှမ်းပြည်နယ် (တောင်),Shan (South),"20.77477,97.03598",,,"မင်းကျောင်းတိုက် တောင်ကြီးမြို့, တောင်ကြီးမြို့","အောက်ဆီဂျင်ဖြည့်လို့ရ,လူနာတင်ယဥ်",ညမထွက်ရအချိန်ကူညီပေး,၂၄ နာရီ,ပိတ်ရက်မရှိ,,20.7899977,97.03475428,
420,အောက်ဆီဂျင်,,မင်္ဂလာစုဘူး ပရဟိတ,,တောင်ကြီးမြို့,09250786789,,,,,တောင်ကြီး,Taunggyi ,ရှမ်းပြည်နယ် (တောင်),Shan (South),"20.77477,97.03598",,,"မင်းကျောင်းတိုက် တောင်ကြီးမြို့, တောင်ကြီးမြို့","အောက်ဆီဂျင်ဖြည့်လို့ရ,လူနာတင်ယဥ်",ညမထွက်ရအချိန်ကူညီပေး,၂၄ နာရီ,ပိတ်ရက်မရှိ,09-5211275,,,
421,အောက်ဆီဂျင်,,သုခဟိတကာရီ ပရဟိတ,,တောင်ကြီးမြို့,09263604050,,,,,တောင်ကြီး,Taunggyi ,ရှမ်းပြည်နယ် (တောင်),Shan (South),"20.77477,97.03598",,,"မင်းကျောင်းတိုက် တောင်ကြီးမြို့, တောင်ကြီးမြို့",,,,,,,,
422,အောက်ဆီဂျင်,,,,,,,,,,,,,,,,,,,,,,,,,
423,အောက်ဆီဂျင်,,,,,,,,,,,,,,,,,,,,,,,,,
424,အောက်ဆီဂျင်,,ကရုဏာ လူမှုကူညီရေးအသင်း,,ကရုဏာ လူမှုကူညီရေးအသင်း ဟိုမွန်ရပ်ကွက် မူဆယ်မြို့ ရှမ်း(မြောက်),09401652100,095230234,095231479,,,မူဆယ်,Muse ,ရှမ်းပြည်နယ် (မြောက်),Shan (North),"23.98989,97.90165",,,Same as Original,လူနာတင်ယဥ်,ညမထွက်ရအချိန်ကူညီပေး,၂၄ နာရီ,ပိတ်ရက်မရှိ,,,,
425,အောက်ဆီဂျင်,,ရွှေညောင်လူငယ် ပရဟိတ,,ရွှေညောင်မြို့,095197186,,,,,ရွှေညောင်,Shwenyaung ,ရှမ်းပြည်နယ် (တောင်),Shan (South),"20.76015,96.93614",,,Same as Original,"အောက်ဆီဂျင်ဖြည့်လို့ရ,လူနာတင်ယဥ်",ညမထွက်ရအချိန်ကူညီပေး,၂၄ နာရီ,ပိတ်ရက်မရှိ,,,,
426,အောက်ဆီဂျင်,Myittar Shin A Thin,မေတ္တာရှင်အသင်း,,တောင်ကြီးမြို့,095280289,0936162049,09899460664,081205282,08105194,တောင်ကြီး,Taunggyi ,ရှမ်းပြည်နယ် (တောင်),Shan (South),"20.77477,97.03598",,,နဂါးပွက် ပရိယတ္တိ စာသင်တိုက် ဝန်းအတွင်း၊ ချမ်းမြသာစည်ရပ်ကွက်၊ တောင်ကြီးမြို့,လူနာတင်ယဥ်,ညမထွက်ရအချိန်ကူညီပေး,၂၄ နာရီ,ပိတ်ရက်မရှိ,ဝ၈၁ ၂၀၅၂၈၂၊ ၂၀၅၁၉၄၊ ၂၁၂၅၆၁၉၊ ၂၁၂၅၆၂၀၊ ဝ၉၅၂၈၁၅၁၁၊ ၀၈၁၂၀၅၁၉၄၊ ၀၈၁၂၁၂၅၆၁၉,,,
427,အောက်ဆီဂျင်,Arkar Min Min,အာကာမင်းမင်း,,တောင်ငူမြို့,09444755545,,,,,တောင်ငူ,Taungoo ,ပဲခူးတိုင်းဒေသကြီး (အရှေ့),Bago (East),"18.93953,96.43314",,,Same as Original,"အောက်ဆီဂျင်အပိုပစ္စည်းရရှိနိုင်,အောက်ဆီဂျင်ဖြည့်လို့ရ",ညမထွက်ရအချိန်ကူညီပေး,၂၄ နာရီ,ပိတ်ရက်မရှိ,,,,
428,အောက်ဆီဂျင်,HKS,HKS,,တောင်ဒဂုံမြို့နယ်,09421158814,,,,,ဒဂုံမြို့သစ်(တောင်ပိုင်း),Dagon Myothit (South) ,ရန်ကုန်တိုင်းဒေသကြီး,Yangon,"16.84016,96.22582",,,Need Confirmation,,,,,,,,
429,အောက်ဆီဂျင်စက်ရုံ,Pyae,ပြည့်,,၇/၁၂၀၊ အနောက်မြို့ပတ်လမ်း၊ ရတနာသီရိရပ်ကွက်၊ တောင်ကြီးမြို့,09402758303,09761366665,09777794314,,,,,,,,,,Need Confirmation,,,,,,20.79616573,97.0316499,
430,အောက်ဆီဂျင်စက်ရုံ,,မန်းရှင်အောက်စီဂျင်စက်ရုံ (တောင်ကြီးမြို့),,တောင်ကြီးမြို့,09422000290,0991035778,09796168101,,,တောင်ကြီး,Taunggyi ,ရှမ်းပြည်နယ် (တောင်),Shan (South),"20.77477,97.03598",,,Need Confirmation,,,,,,,,
431,အောက်ဆီဂျင်,,ရွှေညောင်လူငယ် ပရဟိတ,,တောင်ကြီးမြို့,095197186,,,,,တောင်ကြီး,Taunggyi ,ရှမ်းပြည်နယ် (တောင်),Shan (South),"20.77477,97.03598",,,Need Confirmation,,,,,,,,
432,ဆရာဝန် (ဖုန်းဝန်ဆောင်မှု),,Online အခမဲ့ဆေးခန်း,,https://www.facebook.com/Online-အခမဲ့-ဆေးခန်း-101495368869803,,,,,,,,,,,,,Need Confirmation,,,,,,,,
433,ဆရာဝန် (ဖုန်းဝန်ဆောင်မှု),,တယ်လီကျန်းမာ,,"https://t.me/COVID19MM1
https://t.me/COVID19MM2
https://t.me/COVID19MM3
https://t.me/COVID19MM4
https://t.me/COVID19MM5",,,,,,,,,,,,,Need Confirmation,,,,,,,,
434,အောက်ဆီဂျင်,,မာဃအောက်ဆီဂျင်,,မာဃအောက်ဆီဂျင် တောင်ဥက္ကလာမြို့နယ်,09960627982,,,,,တောင်ဥက္ကလာပ,South Okkalapa,ရန်ကုန်တိုင်းဒေသကြီး,Yangon,"16.846249,96.179859",,,၉၁၃/က၊မာဃ၁၂လမ်း၊၁၂ရပ်ကွက်၊တောင်ဥဣလာပမြို့နယ်၊ရန်ကုန်။,,,,,,,,
435,အောက်ဆီဂျင်,,ပါရမီ နာမှုကူညီရေးအသင်း,,မိုးကုတ်မြို့ (မိုးကုတ်အရှေ့ပိုင်း),0862225062,09254237475,,,,မိုးကုတ်,Mogoke ,မန္တလေးတိုင်းဒေသကြီး,Mandalay,"22.92139,96.5054",,,Need Confirmation,,,,,,,,
436,အောက်ဆီဂျင်,,မြတ်စေတနာ အသင်း,,မိုးကုတ်မြို့ (မိုးကုတ်အရှေ့ပိုင်း),0862220626,0862220976,,,,မိုးကုတ်,Mogoke ,မန္တလေးတိုင်းဒေသကြီး,Mandalay,"22.92139,96.5054",,,Need Confirmation,,,,,,,,
437,အောက်ဆီဂျင်,Mogok Rescue Office,မြန်မာနိုင်ငံ လူမှုကယ်ဆယ်ရေးအဖွဲ့,,မိုးကုတ်မြို့ (မိုးကုတ်အရှေ့ပိုင်း),0862220361,09756000191,09765000192,,,မိုးကုတ်,Mogoke ,မန္တလေးတိုင်းဒေသကြီး,Mandalay,"22.92139,96.5054",,,Need Confirmation,,,,,,,,
438,အောက်ဆီဂျင်,,လောကဟိတ လူမှုကူညီရေးအသင်း,,မိုးကုတ်မြို့ (ကျပ်ပြင်ဈေး၊ မိုးကုတ်အနောက်ပိုင်း),09258204237,,,,,မိုးကုတ်,Mogoke ,မန္တလေးတိုင်းဒေသကြီး,Mandalay,"22.92139,96.5054",,,Need Confirmation,,,,,,,,
439,ဆရာဝန် (ဖုန်းဝန်ဆောင်မှု),Ask a Doctor,Ask a Doctor- အခမဲ့ ကျန်းမာရေး,,https://www.facebook.com/AskaDoctorforFree/,,,,,,,,,,,,,Need Confirmation,,,,,,,,
440,ဆရာဝန် (ဖုန်းဝန်ဆောင်မှု),Central Covid Help Center,Central Covid Help Center,,https://www.facebook.com/centralclinicygn,,,,,,,,,,,,,Need Confirmation,,,,,,,,
441,ဆရာဝန် (ဖုန်းဝန်ဆောင်မှု),TeleCare Sagaing,TeleCare Sagaing,,https://www.facebook.com/telecaresgg,,,,,,,,,,,ကောလင်းမြို၊ စစ်ကိုင်းမြို့၊ ရေဦးမြို့နှင့် တန့်ဆည်မြို့နေပြည်သူတို့အတွက် TELEMEDICINE,,Need Confirmation,,,,,,,,
442,သူနာပြု/အကူ,Ayeyarwaddy Training Center ATC,Ayeyarwaddy Training Centre ATC,,https://www.facebook.com/ayatrainingcentre/,,,,,,,,,,,သူနာပြုအကူ,,Need Confirmation,,,,,,,,
443,ဆရာဝန် (ဖုန်းဝန်ဆောင်မှု),,ကိုယ်စိတ်ကျန်းမာ,,https://www.facebook.com/ကိုယ္စိတ္က်န္းမာ-354766471877471/,,,,,,,,,,,,,Need Confirmation,,,,,,,,
444,ဆရာဝန် (ဖုန်းဝန်ဆောင်မှု),,Tele Care,,https://www.facebook.com/Tele-Care-103743055271845/,09796662897,,,,,,,,,,,,Need Confirmation,,,,,,,,
445,ဆရာဝန် (ဖုန်းဝန်ဆောင်မှု),,Yangon Medical Network,,,09757521712,09757521713,,,,,,,,,နေ့စဥ် မနက် ၉နာရီမှာ ညနေ၆နာရီအထိ,,Need Confirmation,,,မနက်၉-ည၆,,,,,
446,ဆရာဝန် (အိမ်ဝန်ဆောင်မှု),,ဒေါက်တာသွေး,,https://www.facebook.com/ygnhealthcareservice,09426601150,09765159044,,,,,,,,,,,Need Confirmation,,,,,,,,
447,ဆရာဝန် (ဖုန်းဝန်ဆောင်မှု),,Tele Care သမားတော်,,https://www.facebook.com/Tele-Care-သမားတော်-109338404741314/,,,,,,,,,,,,,Need Confirmation,,,,,,,,
448,ဆရာဝန် (အိမ်ဝန်ဆောင်မှု),,Hantha Pharmacy,,https://www.facebook.com/hanthapharma/,,,,,,,,,,,,,Need Confirmation,,,,,,,,
449,ဆရာဝန် (အိမ်ဝန်ဆောင်မှု),,Covi-Care,,https://www.facebook.com/Covi-Care-108916631458865/,,,,,,,,,,,,,Need Confirmation,,,,,,,,
450,သူနာပြု/အကူ,,SKT Nurse Services,,https://www.facebook.com/SKT-Nurse-Services-100392381737915,09960956460,,,,,,,,,,သူနာပြုအကူ,,Need Confirmation,,,,,,,,
451,ဆရာဝန် (ဖုန်းဝန်ဆောင်မှု),,Tele-Conversation,,,09755820731,09755820748,09775123527,,,,,,,,,,Need Confirmation,,,မနက်၉-ည၉,,,,,
452,ဆရာဝန် (ဖုန်းဝန်ဆောင်မှု),,MFM_Covid_Telemed,,https://t.me/MFM_Covid_Telemed,,,,,,,,,,,,,Need Confirmation,,,,,,,,
453,ဆရာဝန် (ဖုန်းဝန်ဆောင်မှု),,University Of Medicine - 2 12/2007 Alumni,,https://www.facebook.com/122007um2socialpunishment/,,,,,,,,,,,,,Need Confirmation,,,,,,,,
454,အောက်ဆီဂျင်,,ပါရမီီရှင် နာရေးကူညီမှုအသင်း,,ဂန့်ဂေါမြောက်ပိုင်းဘုန်းကြီးကျောင်း,,,,,,ဂန့်ဂေါ,Gangaw ,မကွေးတိုင်းဒေသကြီး,Magway,"22.17421,94.13582",,,Need Confirmation,,,,,,,,
455,ဆရာဝန် (ဖုန်းဝန်ဆောင်မှု),,Better Health,,https://www.facebook.com/Better-Health-100797408886064/,,,,,,,,,,,,,Need Confirmation,,,,,,,,
456,အောက်ဆီဂျင်,,ဦးဝင်းနိုင်စိုး,,တောင်ကြီးမြို့,09791248510,,,,,တောင်ကြီး,Taunggyi ,ရှမ်းပြည်နယ် (တောင်),Shan (South),"20.77477,97.03598",,,Need Confirmation,,,,,,,,
457,အောက်ဆီဂျင်,,ထက်အောင်လွင်,,တောင်ကြီးမြို့,0941009158,,,,,တောင်ကြီး,Taunggyi ,ရှမ်းပြည်နယ် (တောင်),Shan (South),"20.77477,97.03598",,,Need Confirmation,,,,,,,,
458,အောက်ဆီဂျင်,,ကိုနေ,,တောင်ကြီးမြို့,09428223301,,,,,တောင်ကြီး,Taunggyi ,ရှမ်းပြည်နယ် (တောင်),Shan (South),"20.77477,97.03598",,,Need Confirmation,,,,,,,,
459,အောက်ဆီဂျင်,,မေတ္တာစုဘူး ပရဟိတ,,တောင်ကြီးမြို့,095211275,,,,,တောင်ကြီး,Taunggyi ,ရှမ်းပြည်နယ် (တောင်),Shan (South),"20.77477,97.03598",,,Need Confirmation,,,,,,,,
460,အောက်ဆီဂျင်,,ရာမည အရေးပေါ်လူမှုကယ်ဆယ်ရေးအဖွဲ့,,မော်လမြိုင်,9777400199,976556199,9764446199,,,မော်လမြိုင်,Mawlamyine ,မွန်ပြည်နယ်,Mon,"16.48459,97.62593",,,Need Confirmation,,,,,,,,
461,ဆရာဝန် (ဖုန်းဝန်ဆောင်မှု),,တယ်လီကျန်းမာ-မြောင်းမြ,,https://www.facebook.com/telekyanmarmyaungmya,,,,,,မြောင်းမြ,Myaungmya ,ဧရာဝတီတိုင်းဒေသကြီး,Ayeyarwady,"16.59926,94.92977",,,Need Confirmation,,,,,,,,
462,အောက်ဆီဂျင်,,မရှိပါ,,ကံလှရွာ၊ ပဲခူးလမ်းမှတ်တိုင်၊ လှိုင်သာယာမြို့နယ်,09254347236,,,,,လှိုင်သာယာ,Hlaingtharya ,ရန်ကုန်တိုင်းဒေသကြီး,Yangon,"16.85402,96.06893",,,Need Confirmation,,,,,,,,
463,ဆရာဝန် (ဖုန်းဝန်ဆောင်မှု),,MyanCare,,https://www.facebook.com/Myancareapps,09799115566,09798115566,09798225566,,,,,,,,အခမဲ့ မဟုတ်ပါ။,,Need Confirmation,,,,,,,,
464,Call center,,ရင်သွေး Call center (ကလေးကျန်းမာရေး),,https://www.facebook.com/yinthwaymm,09799225566,09783455577,09892775577,09750231886,,,,,,,အခမဲ့ မဟုတ်ပါ။,,Need Confirmation,,,,,,,,
465,ဆရာဝန် (အိမ်ဝန်ဆောင်မှု),,Doctors on Wheels အိမ်တိုင်ရာရောက်ဆေးကုသမှုလုပ်ငန်း,,www.facebook.com/doctorsonwheelsmobilehealthcareservices,09442333535,09961211300,09961211400,,,,,,,,အခမဲ့ မဟုတ်ပါ။,,Need Confirmation,,,,,,,,
466,ဆရာဝန် (ဖုန်းဝန်ဆောင်မှု),,Doctors on Wheels Telemedicine,,www.facebook.com/doctorsonwheelsmobilehealthcareservices,09442333535,,,,,,,,,,,,Need Confirmation,,,,,,,,
467,အောက်ဆီဂျင်,,အရေးပေါ် ကယ်ဆယ်ရေးအဖွဲ့ ၊ စစ်ကိုင်း,,နန္ဒဝန်ရပ်ကွက်၊ ဓမ္မာရုံအနီး၊ စစ်ကိုင်းမြို့,09779900100,09792119119,,,,စစ်ကိုင်း,Sagaing ,စစ်ကိုင်းတိုင်းဒေသကြီး,Sagaing,"21.88008,95.96231",,,Need Confirmation,,,,,,,,
468,အောက်ဆီဂျင်,,အောင်မြင့်မြတ်,,အောင်မြင့်မြတ် ရေဆေးဆီလိုက်၊ ချင်းစုရပ်ကွက် လမ်းမကြီး၊ စစ်ကိုင်းမြို့,,,,,,စစ်ကိုင်း,Sagaing ,စစ်ကိုင်းတိုင်းဒေသကြီး,Sagaing,"21.88008,95.96231",,,Need Confirmation,,,,,,,,
469,အောက်ဆီဂျင်,,ဦးချိုင်း,,ဦးချိုင်း၊ စစ်ကိုင်းမြို့,095182577,,,,,စစ်ကိုင်း,Sagaing ,စစ်ကိုင်းတိုင်းဒေသကြီး,Sagaing,"21.88008,95.96231",,,Need Confirmation,,,,,,,,
470,အောက်ဆီဂျင်,,ဟိန်းထက် အောက်ဆီဂျင်,,ဟိန်းထက် အောက်ဆီဂျင်၊ စစ်ကိုင်းမြို့,09259486180,09786536633,,,,စစ်ကိုင်း,Sagaing ,စစ်ကိုင်းတိုင်းဒေသကြီး,Sagaing,"21.88008,95.96231",,,Need Confirmation,,,,,,,,
471,အောက်ဆီဂျင်,,ဦးသန်းစိုး နာရေးကူညီမှုအသင်း,,မြင်းခြံ,092215411,,,,,မြင်းခြံ,Myingyan ,မန္တလေးတိုင်းဒေသကြီး,Mandalay,"21.45745,95.39179",,,"အေးမြသီတာဈေးအနောက်ဘက်၊ သုဓမ္မာဘုန်းကြီးကျောင်း၊ အမှတ် (၇) ရပ်ကွက်၊ မြင်းခြံမြို့။
","အောက်ဆီဂျင်ဖြည့်လို့ရ,လူနာတင်ယဥ်,နာရေးကူညီမှု",,မနက်၈-ည၆,ပိတ်ရက်မရှိ,,21.463974,95.390453,
472,အောက်ဆီဂျင်,,ကိုမျိုးအောင် ဧရာဝတီအသင်း,,မြင်းခြံ,09971468677,,,,,မြင်းခြံ,Myingyan ,မန္တလေးတိုင်းဒေသကြီး,Mandalay,"21.45745,95.39179",,,အေးမြသီတာဈေးအနောက်ဘက်၊ သုဓမ္မာဘုန်းကြီးကျောင်း၊ အမှတ် (၇) ရပ်ကွက်၊ မြင်းခြံမြို့။,"အောက်ဆီဂျင်ဖြည့်လို့ရ,လူနာတင်ယဥ်,နာရေးကူညီမှု",,မနက်၈-ည၈ခွဲ,ပိတ်ရက်မရှိ,,21.463974,95.390453,
473,အောက်ဆီဂျင်,,ကိုဟိန်းထက် ဧရာဝတီအသင်း,,မြင်းခြံ,09793662245,,,,,မြင်းခြံ,Myingyan ,မန္တလေးတိုင်းဒေသကြီး,Mandalay,"21.45745,95.39179",,,အေးမြသီတာဈေးအနောက်ဘက်၊ သုဓမ္မာဘုန်းကြီးကျောင်း၊ အမှတ် (၇) ရပ်ကွက်၊ မြင်းခြံမြို့။,"အောက်ဆီဂျင်ဖြည့်လို့ရ,လူနာတင်ယဥ်,နာရေးကူညီမှု",,မနက်၈-ည၈ခွဲ,ပိတ်ရက်မရှိ,,21.463974,95.390453,
474,အောက်ဆီဂျင်,,ရွှေရန်ကင်းအောက်စီဂျင်ငှားရမ်းရောင်းဝယ်ရေး,,ဆေးရုံရှေ့တိုက်ခန်းအောင်ဆန်း(၁)၊ အောင်ဆန်းလမ်းမကြီး,095124043,,,,,ပြည်,Pyay ,ပဲခူးတိုင်းဒေသကြီး (အနောက်),Bago (West),"18.82151,95.22103",,,အထွေထွေ ရောဂါကု ဆေးရုံကြီးရှေ့၊ အောင်ဆန်းလမ်းမကြီး ပြည်မြို့။,အောက်ဆီဂျင်ဖြည့်လို့ရ,,၂၄ နာရီ,ပိတ်ရက်မရှိ,,18.822646,95.245627,
475,အောက်ဆီဂျင်,,ကိုပဲခူးလေး,,ပဲခူးမြို့,09428184596,0997978390,09458007099,,,ပဲခူး,Bago ,ပဲခူးတိုင်းဒေသကြီး (အရှေ့),Bago (East),"17.33583,96.48389",,,,,,,,,,,
476,အောက်ဆီဂျင်,,အောင်လုပ်ငန်းစု အောက်စီဂျင်ရမ်းရောင်းဝယ်ရေး,,လမ်းရှည်လမ်း၊ရွှေကူရပ်ကွက်,095310228,,,,,ပြည်,Pyay ,ပဲခူးတိုင်းဒေသကြီး (အနောက်),Bago (West),"18.82151,95.22103",,,"အမှတ် (၃၄၃)၊ လမ်းရှည်လမ်းနှင့် ဆွေးနွေးဘုရားလမ်းထောင့်၊ ဆံတော်ရပ်ကွက်၊ ပြည်မြို့။
","အောက်ဆီဂျင်အိုးရောင်း,အောက်ဆီဂျင်ဖြည့်လို့ရ",,မနက်၇-ည၉,ပိတ်ရက်မရှိ,,18.822379,95.217065,
477,အောက်ဆီဂျင်,,အေးရိပ်သာ အောက်စီဂျင်ရမ်းရေး,,(၂)လမ်း၊ (၂)လမ်း၊ခေတ္တရာရပ်ကွက်,09450105299,,,,,ပြည်,Pyay ,ပဲခူးတိုင်းဒေသကြီး (အနောက်),Bago (West),"18.82151,95.22103",,,Need Confirmation,,,,,,,,
478,အောက်ဆီဂျင်,,မေတ္တာရှင် အောက်စီဂျင်ရမ်းရေး,,ဗိုလ်ချုပ်လမ်း၊ မူရွာပင်ရပ်၊ ရွာဘဲရပ်ကွက်,09250409082,,,,,ပြည်,Pyay ,ပဲခူးတိုင်းဒေသကြီး (အနောက်),Bago (West),"18.82151,95.22103",,,ဗိုလ်ချုပ်လမ်း၊ မူရွာပင်ရပ်၊ သံလမ်းထိပ်၊ ပြည်မြို့။,အောက်ဆီဂျင်ဖြည့်လို့ရ,,မနက်၈-ည၈ခွဲ,ပိတ်ရက်မရှိ,,18.819918,95.216433,
479,အောက်ဆီဂျင်,,နိုင်အောက်စီဂျင်ရမ်းရောင်းဝယ်ရေး,,အမှတ်(၁၉၇)သခင်ဖိုးလှကြီးလမ်းစက်မှုဇုန်(၂) နဝဒေးရပ်ကွက်,09790412777,,,,,ပြည်,Pyay ,ပဲခူးတိုင်းဒေသကြီး (အနောက်),Bago (West),"18.82151,95.22103",,,Need Confirmation,,,,,,,,
480,အောက်ဆီဂျင်,,NKS အောက်စီဂျင်ငှားရမ်းရောင်းဝယ်ရေး,,လမ်းရှည်လမ်းဆံတော်ရပ်ကွက်,09796996762,,,,,ပြည်,Pyay ,ပဲခူးတိုင်းဒေသကြီး (အနောက်),Bago (West),"18.82151,95.22103",,,အမှတ် (၃၃၉) လမ်းရှည်လမ်းနှင့် ရုံလမ်းထောင့်၊ ဆံတော်ရပ်ကွက်၊ ပြည်မြို့။,အောက်ဆီဂျင်ဖြည့်လို့ရ,,မနက်၇-ည၉,ပိတ်ရက်မရှိ,,18.823068,95.217306,
481,အောက်ဆီဂျင်,,ပရဟိတပါရမီလူမူကယ်ဆယ်ရေး အသင်း,,နဝဒေးလမ်း၊ ၁၀ထပ်ကြီးဘုရားနောက်ကျောဘက်၊ ရွာဘဲရပ်ကွက်,09453200007,,,,,ပြည်,Pyay ,ပဲခူးတိုင်းဒေသကြီး (အနောက်),Bago (West),"18.82151,95.22103",,,Need Confirmation,"အောက်ဆီဂျင်အပိုပစ္စည်းရရှိနိုင်,လူနာတင်ယဥ်",ညမထွက်ရအချိန်ကူညီပေး,၂၄ နာရီ,ပိတ်ရက်မရှိ,,,,
482,အောက်ဆီဂျင်,,မနုသာမေတ္တာ ရှင်ကူပရဟိတအသင်း,,အောင်ဆုပန်စေတီဝန်း၊ ရွှေတံခါးအပိုင်း(၃),095374503,,,,,ပြည်,Pyay ,ပဲခူးတိုင်းဒေသကြီး (အနောက်),Bago (West),"18.82151,95.22103",,,Need Confirmation,လူနာတင်ယဥ်,ညမထွက်ရအချိန်ကူညီပေး,၂၄ နာရီ,ပိတ်ရက်မရှိ,,,,
483,အောက်ဆီဂျင်,,ပျူနှလုံးသား လူမှုကူညီရေးအသင်း,,ဂေါက်ကွင်းလမ်း၊ ခေတ္တရာရပ်ကွက်,09677925100,,,,,ပြည်,Pyay ,ပဲခူးတိုင်းဒေသကြီး (အနောက်),Bago (West),"18.82151,95.22103",,,Need Confirmation,"အောက်ဆီဂျင်အပိုပစ္စည်းရရှိနိုင်,လူနာတင်ယဥ်",ညမထွက်ရအချိန်ကူညီပေး,၂၄ နာရီ,ပိတ်ရက်မရှိ,,,,
484,အောက်ဆီဂျင်,,ကြီးမြတ်သူ သာရေးနာရေးအသင်း,,ရွှေကံသာကွက်သစ်(၁)(၈)လမ်း၊ ဝက်ထီးကန်ကျေးရွာအုပ်စု,09252156172,,,,,ပြည်,Pyay ,ပဲခူးတိုင်းဒေသကြီး (အနောက်),Bago (West),"18.82151,95.22103",,,Need Confirmation,"လူနာတင်ယဥ်,နာရေးကူညီမှု",ညမထွက်ရအချိန်ကူညီပေး,၂၄ နာရီ,ပိတ်ရက်မရှိ,,,,
485,အောက်ဆီဂျင်,,ဒေသတွင်းရေနစ်သူရှာဖွေကယ်ဆယ်ရေး အသင်း,,ဆေးရုံလမ်းတို၊ရွှေကူရပ်ကွက်,09423671883,,,,,ပြည်,Pyay ,ပဲခူးတိုင်းဒေသကြီး (အနောက်),Bago (West),"18.82151,95.22103",,,Need Confirmation,လူနာတင်ယဥ်,ညမထွက်ရအချိန်ကူညီပေး,၂၄ နာရီ,ပိတ်ရက်မရှိ,,,,
486,အောက်ဆီဂျင်,,ဂရုဏာသိဒ္ဓိ လူမှုကူညီရေးအသင်း,,အောင်ဆန်းတိုးချဲ့ (A)လမ်း၊ပြည်သာယာရပ်ကွက်,09955315331,,,,,ပြည်,Pyay ,ပဲခူးတိုင်းဒေသကြီး (အနောက်),Bago (West),"18.82151,95.22103",,,Need Confirmation,လူနာတင်ယဥ်,ညမထွက်ရအချိန်ကူညီပေး,၂၄ နာရီ,ပိတ်ရက်မရှိ,,,,
487,အောက်ဆီဂျင်,,ခေတ္တရာသာရေးနာရေး အသင်း,,ကန်ဖျားကျောင်းတိုက်ဝန်းရွာဘဲရပ်ကွက်,095310676,,,,,ပြည်,Pyay ,ပဲခူးတိုင်းဒေသကြီး (အနောက်),Bago (West),"18.82151,95.22103",,,Need Confirmation,"အောက်ဆီဂျင်အပိုပစ္စည်းရရှိနိုင်,အောက်ဆီဂျင်ဖြည့်လို့ရ,လူနာတင်ယဥ်,နာရေးကူညီမှု",,မနက်၉-ည၈,ပိတ်ရက်မရှိ,,,,
488,အောက်ဆီဂျင်,,ဘဝသံသရာ ပရဟိတအသင်း,,ပြည်လုံးချမ်းသာဓမ္မာရုံဝန်း၊ နဝင်းရပ်ကွက်,09260682964,,,,,ပြည်,Pyay ,ပဲခူးတိုင်းဒေသကြီး (အနောက်),Bago (West),"18.82151,95.22103",,,Need Confirmation,"အောက်ဆီဂျင်ဖြည့်လို့ရ,လူနာတင်ယဥ်,နာရေးကူညီမှု",ညမထွက်ရအချိန်ကူညီပေး,၂၄ နာရီ,ပိတ်ရက်မရှိ,,,,
489,အောက်ဆီဂျင်,,မြန်မာမွတ်စလင် လူငယ်များပရဟိတအသင်း,,တာရိုးလမ်း၊ ဆင်စုရပ်ကွက်,09254621216,,,,,ပြည်,Pyay ,ပဲခူးတိုင်းဒေသကြီး (အနောက်),Bago (West),"18.82151,95.22103",,,Need Confirmation,"လူနာတင်ယဥ်,နာရေးကူညီမှု",ညမထွက်ရအချိန်ကူညီပေး,၂၄ နာရီ,ပိတ်ရက်မရှိ,,,,
490,အောက်ဆီဂျင်,,ဆေးရေး သာရေး/နာရေး အသင်း,,ဆွေးနွေးဘုရားလမ်း၊ ဆံတော်ရပ်ကွက်,09400309370,,,,,ပြည်,Pyay ,ပဲခူးတိုင်းဒေသကြီး (အနောက်),Bago (West),"18.82151,95.22103",,,Need Confirmation,"လူနာတင်ယဥ်,နာရေးကူညီမှု",ညမထွက်ရအချိန်ကူညီပေး,၂၄ နာရီ,ပိတ်ရက်မရှိ,,,,
491,အောက်ဆီဂျင်,,(ပတလ)မြို့ လုံးဆိုင်ရာသာရေး/နာရေးကူညီမှု အသင်း,,ဆင်မြီးဆွဲလမ်းတောင်ပိုင်းရပ်ကွက်၊ ပေါင်းတလည်မြို့,09781715340,,,,,ပြည်,Pyay ,ပဲခူးတိုင်းဒေသကြီး (အနောက်),Bago (West),"18.82151,95.22103",,,လမ်းတော်လမ်းဘေး (ပြည်၊ပေါက်ခေါင်းသွားတဲ့လမ်း)၊မြို့မစာသင်ကျောင်း,"အောက်ဆီဂျင်ဖြည့်လို့ရ,လူနာတင်ယဥ်,နာရေးကူညီမှု",ညမထွက်ရအချိန်ကူညီပေး,၂၄ နာရီ,ပိတ်ရက်မရှိ,,,,
492,အောက်ဆီဂျင်,,ချမ်းမြေ့ဆည်းဆာ လူမှုကူညီရေးအသင်း,,မရမ်းကုန်းမြို့နယ်,09254191610,09761965504,,,,မရမ်းကုန်း,Mayangone,ရန်ကုန်တိုင်းဒေသကြီး,Yangon,"16.86619,96.142611",,,Need Confirmation,,,,,,,,
493,အောက်ဆီဂျင်,,နဝင်းလူငယ်သာရေးနာရေးအသင်း,,မာလကားကုန်းတံတားထိပ်၊ နဝင်းရက်ကွက်,09423661486,,,,,ပြည်,Pyay ,ပဲခူးတိုင်းဒေသကြီး (အနောက်),Bago (West),"18.82151,95.22103",,,နဝင်းမြောက်ပိုင်း၊ ဖောင်တော်ဦးဘုရားအရှေ့ဘက်,"အောက်ဆီဂျင်အပိုပစ္စည်းရရှိနိုင်,နာရေးကူညီမှု",ညမထွက်ရအချိန်ကူညီပေး,၂၄ နာရီ,ပိတ်ရက်မရှိ,,,,
494,အောက်ဆီဂျင်,Mayan Su Saetanar,မရမ်းစု စေတနာ,,မရမ်းစုလမ်း၊ ၃ ရပ်ကွက်၊ မရမ်းကုန်းမြို့နယ်,09262651983,09692732665,0932239445,,,မရမ်းကုန်း,Mayangone,ရန်ကုန်တိုင်းဒေသကြီး,Yangon,"16.86619,96.142611",,,Need Confirmation,,,,,,,,
495,အောက်ဆီဂျင်,Wah Yu Darna,ဝါယုဒါန,,အုတ်ပုံဆိပ်လမ်း၊ ဇွဲစုံသန္တိက ကျောင်းတိုက်ဝန်း၊ (၈) ရပ်ကွက်၊ မရမ်းကုန်းမြို့နယ်,09250029882,09252694278,09793131440,09780552612,,မရမ်းကုန်း,Mayangone,ရန်ကုန်တိုင်းဒေသကြီး,Yangon,"16.86619,96.142611",,,Same as original,,,၂၄ နာရီ,ပိတ်ရက်မရှိ,,,,
496,အောက်ဆီဂျင်,,ဝါသုဒါန,,မူလဓမ္မာရုံ၊ ဖွဲ့စုံသာသနာရာမ (သံယိက) ကျောင်းတိုက်၊ (၈) ရပ်ကွက်၊ မရမ်းကုန်းမြို့နယ်,09455321568,09787224272,0925402549,0943142464,,မရမ်းကုန်း,Mayangone,ရန်ကုန်တိုင်းဒေသကြီး,Yangon,"16.86619,96.142611",,,လမ်းဝမှတ်တိုင်အနီး,"အောက်ဆီဂျင်အပိုပစ္စည်းရရှိနိုင်,အောက်ဆီဂျင်ဖြည့်လို့ရ,လူနာတင်ယဥ်",,မနက်၄-ည၉,None,,,,
497,အောက်ဆီဂျင်,,စွမ်းလူအောင်,,မိုးကုတ်လမ်း၊ ရေငယ်လမ်းဆုံအနီး၊ ပြင်ဦးလွင်မြို့နယ်,09445511117,09445522227,09777748388,,,ပြင်ဦးလွင်,Pyinoolwin ,မန္တလေးတိုင်းဒေသကြီး,Mandalay,"22.01397,96.45634",,,ပန်းချယ်ရီဝေ(ပန်းဆိုင်)အနီး,အောက်ဆီဂျင်ဖြည့်လို့ရ,,မနက်၈-ည၇,None,,,,
498,အောက်ဆီဂျင်,,ပြင်ဦးလွင် အခမဲ့ နာရေးကူညီမှုအသင်း,,ဈေးတောင်ကျောင်းကြီး၊ ပြင်ဦးလွင်မြို့နယ်,0852028446,0852028046,,,,ပြင်ဦးလွင်,Pyinoolwin ,မန္တလေးတိုင်းဒေသကြီး,Mandalay,"22.01397,96.45634",,,ရွှေဘိုလမ်း၊ ၁ကွက် (ရပ်ကွက်ကြီးနား)ဆေးရုံကြီးအရှေ့,"အောက်ဆီဂျင်ဖြည့်လို့ရ,လူနာတင်ယဥ်,နာရေးကူညီမှု",ညမထွက်ရအချိန်ကူညီပေး,၂၄ နာရီ,ပိတ်ရက်မရှိ,,,,
499,အောက်ဆီဂျင်,,ပုလဲ ပရဟိတဖောင်ဒေးရှင်း (ရုံးခွဲ),,,092045138,09256277174,09797550724,,,ပြင်ဦးလွင်,Pyinoolwin ,မန္တလေးတိုင်းဒေသကြီး,Mandalay,"22.01397,96.45634",,,စ/၂၈၊ မြတ်လေးလမ်း၊ရပ်ကွက်ကြီး၁၀၊ ပဒေသာမြို့သစ်,အောက်ဆီဂျင်ဖြည့်လို့ရ,ညမထွက်ရအချိန်ကူညီပေး,၂၄ နာရီ,ပိတ်ရက်မရှိ,,,,
500,ဆရာဝန် (ဖုန်းဝန်ဆောင်မှု),,Dr.P Free Medical Consultation,,https://www.facebook.com/Dr.PFreeMedConsultation/,,,,,,,,,,,,,Need Confirmation,,,,,,,,
501,ဆရာဝန် (ဖုန်းဝန်ဆောင်မှု),,Healthy Tele Myanmar,,https://www.facebook.com/Healthy-Tele-Myanmar-104697665227614/,,,,,,,,,,,,,Need Confirmation,,,,,,,,
502,ဆရာဝန် (ဖုန်းဝန်ဆောင်မှု),,Teleclinic Mandalay,,https://www.facebook.com/Teleclinic-Mandalay-109108614778764/,09981198045,09984974064,,,,,,,,,,,Need Confirmation,,,,,,,,
503,ဆရာဝန် (ဖုန်းဝန်ဆောင်မှု),,OnHealth-မေးလိုရာမေးကျန်းမာရေး,,https://www.facebook.com/onhealth21/,,,,,,,,,,,,,Need Confirmation,,,,,,,,
504,ဆရာဝန် (အိမ်ဝန်ဆောင်မှု),,Dr. Nay -GP- Home Visit,,,095044451,,,,,,,,,,,,Need Confirmation,,,,,,,,
505,ဆရာဝန် (ဖုန်းဝန်ဆောင်မှု),,Dr. Ni,,https://www.facebook.com/107690241086965/posts/302670191588968/,,,,,,,,,,,,,Need Confirmation,,,,,,,,
506,ဆရာဝန် (ဖုန်းဝန်ဆောင်မှု),,စု အခမဲ့ဆေးခန်း - 24/7 Online Clinic,,https://www.facebook.com/စု-အခမဲ့ဆေးခန်း-247-Online-Clinic-107842104904207/,,,,,,,,,,,,,Need Confirmation,,,,,,,,
507,ဆရာဝန် (ဖုန်းဝန်ဆောင်မှု),,Spring Doctors for Children,,https://www.facebook.com/springdoctorsforchildren/,,,,,,,,,,,,,Need Confirmation,,,,,,,,
508,ဆရာဝန် (ဖုန်းဝန်ဆောင်မှု),,Free Online Clinic - Hpa An,,https://www.facebook.com/fochpaan,,,,,,,,,,,,,Need Confirmation,,,,,,,,
509,ဆရာဝန် (ဖုန်းဝန်ဆောင်မှု),,Hello ဒေါက်တာ OG,,https://www.facebook.com/Hello-ဒေါက်တာ--OG-114741670349200/,,,,,,,,,,,,,Need Confirmation,,,,,,,,
510,ဆရာဝန် (ဖုန်းဝန်ဆောင်မှု),,Mon Myat Telemedicine,,https://www.facebook.com/Mon-Myat-Telemedicine-113341847664485/,,,,,,,,,,,,,Need Confirmation,,,,,,,,
511,ဆရာဝန် (ဖုန်းဝန်ဆောင်မှု),,Happy Life Online Clinic,,https://www.facebook.com/Happy-Life-Online-Clinic-108963297639241/,,,,,,,,,,,,,Need Confirmation,,,,,,,,
512,ဆရာဝန် (ဖုန်းဝန်ဆောင်မှု),,Medical Tele-Consultation Team,,https://www.facebook.com/Medical-Tele-Consultation-Team-104375505259530/,,,,,,,,,,,,,Need Confirmation,,,မနက်၉-ည၉,,,,,
513,အောက်ဆီဂျင်,,ပေတောပရဟိတကျောင်းအနီး၊ မြစ်သားမြို့,,မြစ်သားမြို့,092150914,,,,,မြစ်သား,Myittha ,မန္တလေးတိုင်းဒေသကြီး,Mandalay,"21.42427,96.13086",,,Need Confirmation,,,,,,,,
514,အောက်ဆီဂျင်,,မေတ္တာရှင် (အခမဲ့) လူမှု၊ နာမှု ကူညီရေးအသင်း,,မြစ်သားမြို့,09793599004,09402535502,09403762480,,,မြစ်သား,Myittha ,မန္တလေးတိုင်းဒေသကြီး,Mandalay,"21.42427,96.13086",,,Need Confirmation,"အောက်ဆီဂျင်ဖြည့်လို့ရ,လူနာတင်ယဥ်,နာရေးကူညီမှု",ညမထွက်ရအချိန်ကူညီပေး,၂၄ နာရီ,ပိတ်ရက်မရှိ,,,,
515,အောက်ဆီဂျင်,,ဗြမ္မပါလ လူမှုကူညီရေးအသင်း,,ကူမဲမြို့,0662062201,,,,,ကူမဲ,Ku Me ,မန္တလေးတိုင်းဒေသကြီး,Mandalay,"21.3583,96.1603",,,Need Confirmation,"အောက်ဆီဂျင်အပိုပစ္စည်းရရှိနိုင်,အောက်ဆီဂျင်ဖြည့်လို့ရ,လူနာတင်ယဥ်,နာရေးကူညီမှု",ညမထွက်ရအချိန်ကူညီပေး,၂၄ နာရီ,ပိတ်ရက်မရှိ,,,,
516,အောက်ဆီဂျင်,,ပုလဲ ဖောင်ဒေးရှင်း,,အင်းတိုင်ရွာ၊ မြို့ရှောင်လမ်း၊ ကျောက်ဆည်မြို့နယ်,09766532858,09797586395,09780268978,,,ကျောက်ဆည်,Kyaukse ,မန္တလေးတိုင်းဒေသကြီး,Mandalay,"21.61325,96.13033",,,Need Confirmation,"အောက်ဆီဂျင်အပိုပစ္စည်းရရှိနိုင်,အောက်ဆီဂျင်ဖြည့်လို့ရ",ညမထွက်ရအချိန်ကူညီပေး,၂၄ နာရီ,ပိတ်ရက်မရှိ,,,,
517,အောက်ဆီဂျင်,,ကိုအောင်ကျော်ဖြိုးအဖွဲ့,,ရဲစုရပ်ကွက်၊ ကျောက်ဆည်မြို့နယ်,09777773055,,,,,ကျောက်ဆည်,Kyaukse ,မန္တလေးတိုင်းဒေသကြီး,Mandalay,"21.61325,96.13033",,,Need Confirmation,"အောက်ဆီဂျင်အပိုပစ္စည်းရရှိနိုင်,အောက်ဆီဂျင်ဖြည့်လို့ရ,နာရေးကူညီမှု",ညမထွက်ရအချိန်ကူညီပေး,၂၄ နာရီ,ပိတ်ရက်မရှိ,,,,
518,အောက်ဆီဂျင်,,ဇော်ဂျီမောင် ပရဟိတအသင်း,,ပေါက်တောရပ်ကွက်၊ ကျောက်ဆည်မြို့နယ်,092031119,09771496418,09688889983,,,ကျောက်ဆည်,Kyaukse ,မန္တလေးတိုင်းဒေသကြီး,Mandalay,"21.61325,96.13033",,,Need Confirmation,"အောက်ဆီဂျင်ဖြည့်လို့ရ,လူနာတင်ယဥ်",ညမထွက်ရအချိန်ကူညီပေး,၂၄ နာရီ,ပိတ်ရက်မရှိ,09-797605984,,,
519,အောက်ဆီဂျင်,,ထွန်းတောက်,,မြို့ဦးရပ်၊ ရန်ကုန် - မန္တလေးကားလမ်းဘေး၊ ကျောက်ဆည်မြို့နယ်,09448055556,09962425917,,,,ကျောက်ဆည်,Kyaukse ,မန္တလေးတိုင်းဒေသကြီး,Mandalay,"21.61325,96.13033",,,Need Confirmation,အောက်ဆီဂျင်ဖြည့်လို့ရ,ညမထွက်ရအချိန်ကူညီပေး,မနက်၉-ည၇,လပြည့်၊ လကွယ်ပိတ်,,,,
520,အောက်ဆီဂျင်,,ကြယ်စင်သစ်,,ကြက်မင်းတွန်ရပ်ကွက်၊ ကောင်းစံစားသောက်ဆိုင်အနီး၊ ရန်ကုန် - မန္တလေးကားလမ်းဘေး၊ ကျောက်ဆည်,0943104762,09259999076,,,,ကျောက်ဆည်,Kyaukse ,မန္တလေးတိုင်းဒေသကြီး,Mandalay,"21.61325,96.13033",,,Need Confirmation,,,,,,,,
521,အောက်ဆီဂျင်,,အကြင်နာ အသင်း,,အကြင်နာအသင်း၊ ကိုမြတ်ထွန်းနိုင်,09402515670,,,,,ကျောက်ဆည်,Kyaukse ,မန္တလေးတိုင်းဒေသကြီး,Mandalay,"21.61325,96.13033",,,Need Confirmation,"အောက်ဆီဂျင်အပိုပစ္စည်းရရှိနိုင်,အောက်ဆီဂျင်ဖြည့်လို့ရ,လူနာတင်ယဥ်,နာရေးကူညီမှု",ညမထွက်ရအချိန်ကူညီပေး,၂၄ နာရီ,ပိတ်ရက်မရှိ,,,,
522,အောက်ဆီဂျင်,,အာယုပါလ အသင်း,,အာယုပါလအသင်း၊ ကိုလင်း,09400436659,,,,,ကျောက်ဆည်,Kyaukse ,မန္တလေးတိုင်းဒေသကြီး,Mandalay,"21.61325,96.13033",,,Need Confirmation,"အောက်ဆီဂျင်အပိုပစ္စည်းရရှိနိုင်,အောက်ဆီဂျင်ဖြည့်လို့ရ,လူနာတင်ယဥ်,နာရေးကူညီမှု",ညမထွက်ရအချိန်ကူညီပေး,၂၄ နာရီ,ပိတ်ရက်မရှိ,,,,
523,ဆရာဝန် (အိမ်ဝန်ဆောင်မှု),,Kaung Pyae Sone Advanced Laboratory and Specialist Clinic,,https://www.facebook.com/Kaung-Pyae-Sone-Advanced-Laboratory-and-Specialist-Clinic-111707317265648/,09750110156,09750110157,,,,,,,,,အခမဲ့ မဟုတ်ပါ။,,Need Confirmation,,,,,,,,
524,ဆရာဝန် (အိမ်ဝန်ဆောင်မှု),,RIGHT Laboratory & Healthscreen,,https://www.facebook.com/RightLaboratoryAndHealthScreen/,01224955,,,,,,,,,,အခမဲ့ မဟုတ်ပါ။,,Need Confirmation,,,,,,,,
525,ဆရာဝန် (အိမ်ဝန်ဆောင်မှု),,Dr. Htein Laboratory and Medical Check up Services,,https://www.facebook.com/drhteinlab/,09458612358,09941651114,09941651112,09400868007,,,,,,,အခမဲ့ မဟုတ်ပါ။,,Need Confirmation,,,,,,,,
526,ဆရာဝန် (အိမ်ဝန်ဆောင်မှု),,Housecall Doctors Network,,https://www.facebook.com/HDNHealthcare/,09443597933,09958130820,09953000192,,,,,,,,အခမဲ့ မဟုတ်ပါ။,,Need Confirmation,,,,,,,,
527,ဆရာဝန် (အိမ်ဝန်ဆောင်မှု),,Hearts & Hands Myanmar - H&HM,,https://www.facebook.com/Hearts-Hands-Myanmar-HHM-107216991540388,09777733762,,,,,,,,,,အခမဲ့ မဟုတ်ပါ။,,Need Confirmation,,,,,,,,
528,ဆရာဝန် (ဖုန်းဝန်ဆောင်မှု),,ASK Jyan,,https://www.facebook.com/jyan.perioperative,,,,,,,,,,,,,Need Confirmation,,,,,,,,
529,အခြား,BPG Health Care (Teleradiology),BPG Health Care (ရင်ဘတ်ဓါတ်မှန်),,,09420909072,,,,,,,,,,,,Need Confirmation,,,,,,,,
530,ဆရာဝန် (ဖုန်းဝန်ဆောင်မှု),,Helping Hands,,https://www.facebook.com/Helping-Hands-110826494600266/,,,,,,,,,,,,,Need Confirmation,,,မနက်၉-ည၈,,,,,
531,ဆရာဝန် (ဖုန်းဝန်ဆောင်မှု),Tele Clinic Monywa TCM,ကိုဗစ်-၁၉ တိုင်ပင်ဆွေးနွေးကုသဆေးခန်း (မုံရွာ),,https://www.facebook.com/ကိုဗစ်-19-တိုင်ပင်ဆွေးနွေးကုသဆေးခန်း-Tele-Clinic-Monywa-TCM-104644801902031/,09778069813,,,,,မုံရွာ,Monywa ,စစ်ကိုင်းတိုင်းဒေသကြီး,Sagaing,"22.12168,95.13963",,,Need Confirmation,,,မနက်၉-ည၈,,,,,
532,အောက်ဆီဂျင်,Mi Ba Gone Oxygen,မိဘဂုဏ် အောက်ဆီဂျင်စက်ရုံနှင့် လေဖြည့်လုပ်ငန်း,,ပြည်ထောင်စုလမ်း၊ ဒေါနခြံရပ်၊ မုံရွာမြို့,07123361,09966232350,09400461854,09253581907,,မုံရွာ,Monywa ,စစ်ကိုင်းတိုင်းဒေသကြီး,Sagaing,"22.12168,95.13963",,,Need Confirmation,အောက်ဆီဂျင်ဖြည့်လို့ရ,,မနက်၉-ည၇,ပိတ်ရက်မရှိ,,,,
533,Call center,,ကုသိုလ်ဖြစ်အခမဲ့ဆေးကုခန်း,,,09426921700,9426921600'0,,,,,,,,,,,,,,,,,,,
534,ဆရာဝန် (ဖုန်းဝန်ဆောင်မှု),Dr. Oakar Myo Myat Oo,ဒေါက်တာ ဥက္ကာမျိုးမြတ်ဦး (အမေ့အိမ် အထူးကုဆေးခန်း),,အမှတ်(၁၅) ဗန္ဓုလလမ်း၊ ၄၅ ရပ်ကွက်၊ မြောက်ဒဂုံ,09443120697,09795592997,,,,ဒဂုံမြို့သစ်(မြောက်ပိုင်း),Dagon Myothit (North) ,ရန်ကုန်တိုင်းဒေသကြီး,Yangon,"16.87774,96.19079",,,,,,,,,,,
535,ဆရာဝန် (ဖုန်းဝန်ဆောင်မှု),Mon Myat Telemedicine,Mon Myat Telemedicine,https://www.facebook.com/Mon-Myat-Telemedicine-113341847664485,https://www.facebook.com/Mon-Myat-Telemedicine-113341847664485,,,,,,,,,,,မနက်၉ မှ ည၉ထိ၊ အခမဲ့ မဟုတ်ပါ။။ Messenger တွင် Booking အရင်တင်ပြီးမှ ဆက်သွယ်ရန် ဖုန်းနံပါတ် ပို့ပေးပါသည်,,,,,မနက်၉-ည၉,,,,,
536,ဆရာဝန် (အိမ်ဝန်ဆောင်မှု),,မင်္ဂလာတောင်ညွှန့် မြို့နယ် ဖျားနာကုဆေးခန်း,,မင်္ဂလာတောင်ညွှန့် မြို့ နယ်,09779202447,,,,,မင်္ဂလာတောင်ညွန့်,Mingalartaungnyunt,ရန်ကုန်တိုင်းဒေသကြီး,Yangon,"16.788908,96.167859",မနက်၉ မှ ည၉ထိ အခမဲ့,,,,,မနက်၉-ည၉,,,,,
537,ဆရာဝန် (ဖုန်းဝန်ဆောင်မှု),Sanpya Online Clinic,စံပြ အွန်လိုင်းဆေးခန်း,https://www.facebook.com/sanpyaonlineclinic/,https://www.facebook.com/sanpyaonlineclinic/,09780981106,,,,,,,,,,အခမဲ့ မဟုတ်ပါ။။ အထူးကု ဆရာဝန်ကြီး များနှင့် ပြသနိုင်သည်,,,,,,,,,,
538,ဆရာဝန် (ဖုန်းဝန်ဆောင်မှု),,Tamwe Telemedicine,,,09761964437,9445982228,9757624855,,,,,,,,,,,,,,,,,,
539,ဆရာဝန် (ဖုန်းဝန်ဆောင်မှု),,Online Charity Clinic -Health For All,,https://www.facebook.com/Online-Charity-Clinic-Health-For-All-113003641050576/,,,,,,,,,,,,,,,,,,,,,
540,အောက်ဆီဂျင်,,ပါရမီရှင်နာရေးကူညီမူအသင်း,,မြို့ခင်းသာတောင်ကျောင်း,09256451130,09783177991,,,,ဂန့်ဂေါ,Gangaw ,မကွေးတိုင်းဒေသကြီး,Magway,"22.17421,94.13582",,,,,,,,,,,
541,သူနာပြု/အကူ,,Ma Thet သူနာပြုအကူ,,,09253681834,,,,,,,,,,သူနာပြုအကူ,,,,,,,,,,
542,သူနာပြု/အကူ,,Daw Than Sein သူနာပြုအကူ,,,09458253135,09776357679,,,,,,,,,သူနာပြုအကူ,,,,,,,,,,
543,သူနာပြု/အကူ,,နီလာ သူနာပြုဝန်ဆောင်မှု,,,09774796277,,,,,,,,,,သူနာပြုအကူ,,,,,,,,,,
544,သူနာပြု/အကူ,,စွမ်းထက် သူနာပြုနှင့်သူနာပြုအကူ,,,09445799156,09445799159,,,,,,,,,သူနာပြုအကူ,,,,,,,,,,
545,ဆရာဝန် (အိမ်ဝန်ဆောင်မှု),,Ei Thu Nurse Services,,,09677699639,09899032581,,,,,,,,,သူနာပြုအကူ,,,,,,,,,,
546,ဆရာဝန် (ဖုန်းဝန်ဆောင်မှု),,လူထုထံမှ လူထုဆီသို့,,,09777772007,,,,,,,,,,,,,,,,,,,,
547,အောက်ဆီဂျင်,,Aryu Pakokku,,ပခုက္ကူ,09444004015,,,,,ပခုက္ကူ,Pakokku ,မကွေးတိုင်းဒေသကြီး,Magway,"21.335,95.08227",,,,,,,,,,,
548,အောက်ဆီဂျင်,,ယခင်မူလ အောက်ဆီဂျင်,,အမှတ် (၈) ဗဟန်း ၁လမ်း,01548389,0930095874,,,,ဗဟန်း,Bahan,ရန်ကုန်တိုင်းဒေသကြီး,Yangon,"16.815427,96.156112",,,,,,,,,,,
549,အောက်ဆီဂျင်,,Aung အောက်ဆီဂျင်,,အမှတ် (၈/၉ A)၊ ယမုံနာလမ်းနှင့် မာန်ပြေလမ်းထောင့် (မာန်ပြေမှတ်တိုင်)၊ သာကေတမြို့နယ်,095041257,0945002355,,,,သာကေတ,Thaketa,ရန်ကုန်တိုင်းဒေသကြီး,Yangon,"16.793009,96.202959",,,,,,,,,,,
550,အောက်ဆီဂျင်,,ကိုရှားသူ,,သမိုင်း အောင်ဓမ္မရိပ်သာလမ်း,,,,,,မရမ်းကုန်း,Mayangone,ရန်ကုန်တိုင်းဒေသကြီး,Yangon,"16.86619,96.142611",,,,,,,,,,,
551,အောက်ဆီဂျင်,,အိမ်အရောက် အောက်စီဂျင်အိုးဖြည့်လုပ်ငန်း,,,09250013834,09420081103,,,,,,,,,,,,,,,,,,,
552,ဆရာဝန် (ဖုန်းဝန်ဆောင်မှု),,Dr. ဥာဏ်ဟိန်း,,,09256012937,,,,,,,,,,,,,,,,,,,,
553,ဆရာဝန် (ဖုန်းဝန်ဆောင်မှု),,Dr. ရဲထွန်း,,,09975717991,,,,,,,,,,,,,,,,,,,,
554,ဆရာဝန် (ဖုန်းဝန်ဆောင်မှု),,Dr. သက်နိုင်ဦး,,,09251915751,,,,,,,,,,,,,,,,,,,,
555,ဆရာဝန် (ဖုန်းဝန်ဆောင်မှု),,Dr. သောင်းကျော်စိုး,,,09251915751,,,,,,,,,,,,,,,,,,,,
556,အခြား,,ကိုဥက္ကာကျော်,,ပါရမီ စိန်ဂေဟာအနီး၊လှိုင်မြို့နယ်,09786492565,09740915830,,,,လှိုင်,Hlaing,ရန်ကုန်တိုင်းဒေသကြီး,Yangon,"16.847934,96.125227",,,,,,,,,,,
557,သူနာပြု/အကူ,,ခွန်အားသစ် သူနာပြု အကူနှင့် ဆေးဝါးသင်တန်း,https://www.facebook.com/%E1%80%81%E1%80%BD%E1%80%94%E1%80%BA%E1%80%A1%E1%80%AC%E1%80%B8%E1%80%9E%E1%80%85%E1%80%BA-%E1%80%9E%E1%80%B0%E1%80%94%E1%80%AC%E1%80%95%E1%80%BC%E1%80%AF%E1%80%A1%E1%80%80%E1%80%B0-%E1%80%94%E1%80%BE%E1%80%84%E1%80%B7%E1%80%BA-%E1%80%86%E1%80%B1%E1%80%B8%E1%80%9D%E1%80%AB%E1%80%B8%E1%80%9E%E1%80%84%E1%80%BA%E1%80%90%E1%80%94%E1%80%BA%E1%80%B8-125763978120395/,https://www.facebook.com/%E1%80%81%E1%80%BD%E1%80%94%E1%80%BA%E1%80%A1%E1%80%AC%E1%80%B8%E1%80%9E%E1%80%85%E1%80%BA-%E1%80%9E%E1%80%B0%E1%80%94%E1%80%AC%E1%80%95%E1%80%BC%E1%80%AF%E1%80%A1%E1%80%80%E1%80%B0-%E1%80%94%E1%80%BE%E1%80%84%E1%80%B7%E1%80%BA-%E1%80%86%E1%80%B1%E1%80%B8%E1%80%9D%E1%80%AB%E1%80%B8%E1%80%9E%E1%80%84%E1%80%BA%E1%80%90%E1%80%94%E1%80%BA%E1%80%B8-125763978120395/,09404000579,,,,,,,,,,ကိုဗစ်လူနာ ပြုစုရန် သူနာပြုအကူ ရှာဖွေပေးသည်,,,,,,,,,,
558,သူနာပြု/အကူ,,မသက်,,,09253681834,,,,,,,,,,ကိုဗစ်လူနာ ပြုစုရန် သူနာပြုအကူ ရှာဖွေပေးသည်,,,,,,,,,,
559,သူနာပြု/အကူ,Swan Htet Nurse Services,စွမ်းထက် သူနာပြု အကူ ဝန်ဆောင်မှု,https://www.facebook.com/groups/2214539305449416/user/100047228521614/,https://www.facebook.com/groups/2214539305449416/user/100047228521614/,09445799156,9445799159,,,,,,,,,ကိုဗစ်လူနာ ပြုစုရန် သူနာပြုအကူ ရှာဖွေပေးသည်,,,,,,,,,,
560,သူနာပြု/အကူ,San Myanmar Health Care Services,San Myanmar Health Care Services,https://www.facebook.com/knowledgebank24,အိမ်အမှတ်18D/1049 ကျွန်းရွှေမြိုင်လမ်း၊တောင်ဒဂုံမြို့နယ်၊ရန်ကုန်မြို့,09791385777,09263351567,,,,ဒဂုံမြို့သစ်(တောင်ပိုင်း),Dagon Myothit (South) ,ရန်ကုန်တိုင်းဒေသကြီး,Yangon,"16.84016,96.22582","Day Duty- 7am to 7pm, Night Duty - 7pm to 7am, Semi level -12000, Skill level -15000, Advance level −18000",,,,,,,,,,
561,သူနာပြု/အကူ,San Myanmar Health Care Services,San Myanmar Health Care Services,https://www.facebook.com/knowledgebank24,19လမ်း၊ နန်းရှေ့၊ကုန်းတန်း၊ သဇင်လမ်းသွယ်၊ ပုသိမ်ကြီးမြို့နယ်မန္တလေးမြို့,09791385777,09263351567,,,,ပုသိမ်ကြီး,Patheingyi ,မန္တလေးတိုင်းဒေသကြီး,Mandalay,"22.0039939404,96.1646506554","Day Duty- 7am to 7pm, Night Duty - 7pm to 7am, Semi level -12000, Skill level -15000, Advance level −18001",,,,,,,,,,
562,သူနာပြု/အကူ,San Myanmar Health Care Services,San Myanmar Health Care Services,https://www.facebook.com/knowledgebank24,အိမ်နံပါတ်Rp 146ရမ်ပူနယ်မြေ9 တရုတ်ဘုံကျောင်းအနောက်ဘက်.အိမ်နံပါတ်22/နယ်မြေ၁ /အောင်နန်းရိပ်သာလမ်း,09791385777,09263351567,,,,မြစ်ကြီးနား,Myitkyina ,ကချင်ပြည်နယ်,Kachin,"25.38749,97.39036","Day Duty- 7am to 7pm, Night Duty - 7pm to 7am, Semi level -12000, Skill level -15000, Advance level −18002",,,,,,,,,,
563,သူနာပြု/အကူ,Su Nurse Services,Su သူနာပြု ဝန်ဆောင်မှု,,,09780351512,09441557701,,,,,,,,,,,,,,,,,,,
564,ဆရာဝန် (အိမ်ဝန်ဆောင်မှု),,Home care service Bago,,,09409422003,09409422004,09409422005,,,ပဲခူး,Bago ,ပဲခူးတိုင်းဒေသကြီး (အရှေ့),Bago (East),"17.33583,96.48389",အခမဲ့ မဟုတ်ပါ။,,,,,,,,,,
565,ဆရာဝန် (ဖုန်းဝန်ဆောင်မှု),Online Charity Clinic - Health For All,Online Charity Clinic - Health For All,https://www.facebook.com/Online-Charity-Clinic-Health-For-All-113003641050576/,https://www.facebook.com/Online-Charity-Clinic-Health-For-All-113003641050576/,,,,,,,,,,,မနက် ၉ နာရီမှ ည ၇ နာရီထိ၊ Covid-19 အပြင် အခြားကျန်းရေး ပြဿနာများအတွက်လည်း အခမဲ့   ဆက်သွယ်မေးမြန်း နိုင်သည်,,,,,,,,,,
566,ဆရာဝန် (ဖုန်းဝန်ဆောင်မှု),,မုံရွာ ဆရာဝန်များ,https://www.facebook.com/monywa.doctors/,https://www.facebook.com/monywa.doctors/,092132052,095151638,092031523,09440650875,09759388185,ရန်ကုန်,Yangon City,ရန်ကုန်တိုင်းဒေသကြီး,Yangon,"16.7781861107,96.1609261617",မနက် ၈ မှ နေ့ ၁၂ ထိ ဖုန်းနံပါတ် (၁၊ ၂ )၊ နေ့လည် ၁၂ မှ ညနေ ၄ ထိ ဖုန်းနံပါတ် (၃) ညနေ ၄ မှ ည၈ ထိ ဖုန်းနံပါတ် (၄ ၊ ၅ ),,,,,,,,,,
567,ဆရာဝန် (ဖုန်းဝန်ဆောင်မှု),Yangon Medical Cover,Yangon Medical Cover,https://www.facebook.com/ygnmedicalcover,https://www.facebook.com/ygnmedicalcover,09987801354,09980039930,,,,ရန်ကုန်,Yangon City,ရန်ကုန်တိုင်းဒေသကြီး,Yangon,"16.7781861107,96.1609261617",စုံဂဏန်းရက်များအတွက် ဖုန်းနံပါတ်(၁) မဂဏန်းရက်များအတွက် ဖုန်းနံပါတ်(၂),,,,,,,,,,
568,ဆရာဝန် (ဖုန်းဝန်ဆောင်မှု),Renaissance Mandalay,ရှင်သန်ခြင်း မန္တလေး,https://www.facebook.com/groups/3599530183480838/,https://www.facebook.com/groups/3599530183480838/,09766622870,09766622871,,,,မန္တလေး,Mandalay City,မန္တလေးတိုင်းဒေသကြီး,Mandalay,"21.9894028624,96.092101078",Hot line ကိုဆက်သွယ်ချိန် လူမမာရဲ့ အချက်အလက်များ မေးမြန်းပြီး ဆရာဝန်ရဲ့ ဖုန်းနံပါတ်ကို ပေးပါမယ်,,,,,,,,,,
569,ဆေးဆိုင်,ဆေးဆိုင်,မင်္ဂလာ ဆေးဆိုင်,,တောင်ဥက္ကလာ အနီးတဝိုက်၊ မြောက်ဒဂုံ ၃၃ အနီးတဝိုက်,09764799190,09420016252,,,,တောင်ဥက္ကလာပ,South Okkalapa,ရန်ကုန်တိုင်းဒေသကြီး,Yangon,"16.846249,96.179859",,,,,,,,,,,
570,အောက်ဆီဂျင်,,မင်းဓမ္မ MEC အောက်ဆီဂျင် စက်ရုံ,,,,,,,,,,,,,မနက် ၉ မှ ည ၉ နာရီထိ 10L 15L အိုးများ  တစ်လုံး (၁၅၀၀)ကျပ်၊  အိုးအခွံယူလာရမည်။ Gate 1 ဘက်မှ ဝင်ရန်,,,,,,,,,,
571,အောက်ဆီဂျင်,,ချမ်းမြ သုခ,,အမှတ် (၄၈၅) ရွှေစံကိုင်၊ တမ္မဝတီရပ်ကွက်၊ ချမ်းမြသာစည်မြို့နယ်၊ မန္တလေးမြို့,,,,,,ချမ်းမြသာစည်,Chanmyathazi ,မန္တလေးတိုင်းဒေသကြီး,Mandalay,"21.939404,96.095838",၁၇.၇.၂၁ မနက် ၁၀နာရီအောက်ဆီဂျင် ရပါမည်,,,,,,,,,,
572,ဆေးဆိုင်,,Htoo Thazin ဆေးဆိုင်,https://www.facebook.com/htoothazinpharmacy/,ဆိုင် (၁) UMFCCI ဘေး၊ မင်းရဲ ကျော်စွာလမ်း။ ဆိုင် (၂) အနော်ရထာလမ်း နှင့် လမ်းမတော်လမ်းထောင့်,,,,,,,,,,,ရန်ကုန်မြို့တွင်း Delivery ပို့သည်။ Cash သာလက်ခံသည်။,,,,,,,,,,
573,ဆေးဆိုင်,,မြတ်မြင့်မိုရ် ဆေးခန်းနှင့် ဆေးဆိုင်,https://www.facebook.com/MyatMyintMo2019/,အမှတ် ၄၀၂၊ အင်းဝလမ်း၊ ၆ရပ်ကွက်၊ ​​တောင်ဥက္ကလာမြို့နယ်၊ ရန်ကုန်မြို့။,09890492851,09890492852,09890492853,,,တောင်ဥက္ကလာပ,South Okkalapa,ရန်ကုန်တိုင်းဒေသကြီး,Yangon,"16.846249,96.179859",ရန်ကုန်မြို့တွင်း Delivery ပို့သည်။,,,,,,,,,,
574,ဆရာဝန် (ဖုန်းဝန်ဆောင်မှု),,Democracy Clinic,,https://www.facebook.com/Democracy-Clinic-342009636965974/,,,,,,,,,,,,,,,,,,,,,
575,ဆရာဝန် (ဖုန်းဝန်ဆောင်မှု),,Dr. ပါရမီ,,,09441988941,,,,,,,,,,မနက် ၉ မှ ညနေ ၅ နာရီထိ,,,,,,,,,,
576,ဆရာဝန် (ဖုန်းဝန်ဆောင်မှု),,Dr. အောင်,,,09781827113,,,,,,,,,,မနက် ၉ မှ ညနေ ၅ နာရီထိ,,,,,,,,,,
577,ဆရာဝန် (ဖုန်းဝန်ဆောင်မှု),,Dr. Home,,,09989961214,,,,,,,,,,မနက် ၉ မှ ညနေ ၅ နာရီထိ,,,,,,,,,,
578,ဆရာဝန် (ဖုန်းဝန်ဆောင်မှု),,Dr. ဝင်းမင်း,,,09896162822,,,,,,,,,,မနက် ၉ မှ ညနေ ၅ နာရီထိ,,,,,,,,,,
579,ဆရာဝန် (ဖုန်းဝန်ဆောင်မှု),,Lashio Online Clinic,,https://www.facebook.com/Lashio-Online-Clinic-101174278922224,,,,,,,,,,,,,,,,,,,,,
580,ကိုဗစ်စစ်ရန်,,Trust အထူးကုဆေးခန်းနှင့် အိမ်တိုင်ရာရောက်ကျန်းမာရေး၀န်ဆောင်မှု,,သပြေကုန်း၊ ဇမ္ဗူသီရိမြို့နယ်၊ နေပြည်တော်,9420311971,,,,,နေပြည်တော်,Nay Pyi Taw ,နေပြည်တော်,Nay Pyi Taw,"19.80326,96.18566",,,,,,,,,,,
581,အခြား,,ရှင်သန်မှု ကူညီရေး (Ambulance),,ဗိုလ်တထောင်,095016616,,,,,ဗိုလ်တထောင်,Botahtaung,ရန်ကုန်တိုင်းဒေသကြီး,Yangon,"16.771967,96.169709",,,,,,,,,,,
582,ဆေးဆိုင်,,One Pharmacy and Home Delivery Services,,https://www.facebook.com/OnePharmacyandHomeDeliveryServices/,095151594,,,,,,,,,,Cash သာ လက်ခံသည်။ Mobile Banking နဲ့ရှင်းပါက 5%ပေးရမည်။,,,,,,,,,,
583,ဆေးဆိုင်,,ထူးအံ့ ဆေးဥယျာဉ်,https://www.facebook.com/htooanttpharmacy/,အမှတ်(၆၁) ၊ မြေညီထပ်၊ ပုဇွန်တောင်စျေးရှေ့၊ အထက်ပုဇွန်တောင်လမ်းမကြီး၊ ပုဇွန်တောင်မြို့နယ်၊ ရန်ကုန်မြို့။,095159283,09799755141,09253236703,,,ပုဇွန်တောင်,Pazundaung,ရန်ကုန်တိုင်းဒေသကြီး,Yangon,"16.779648,96.174392",,,,,,,,,,,
584,ဆေးဆိုင်,,မိုးပုလဲဆေးဆိုင်,https://www.facebook.com/khinthanaye7786/,အမှတ် (၁၉) ၂၅ လမ်း အောက်ဘလောက်၊ ပန်းဘဲတန်း မြို့နယ်,01370552,,,,,ပန်းဘဲတန်း,Pabedan,ရန်ကုန်တိုင်းဒေသကြီး,Yangon,"16.776983,96.15601",တစ်ရက်လျှင် အော်ဒါ (၁၀) ခုသာ လက်ခံသည်,,,,,,,,,,
585,ဆေးဆိုင်,,သိဒ္ဓိစုံ ဆေးဆိုင် (၁),https://www.facebook.com/TheikdiSone.Pharmacy/,အမှတ် (၂၈၄) ကျိုက္ကဆံလမ်း၊ တာမွေဈေးရှေ့၊ တာမွေ မြို့နယ်,09663666330,09781431462,,,,တာမွေ,Tamwe,ရန်ကုန်တိုင်းဒေသကြီး,Yangon,"16.810182,96.17646",,,,,,,,,,,
586,ဆေးဆိုင်,,သိဒ္ဓိစုံ ဆေးဆိုင် (၂ ),https://www.facebook.com/TheikdiSone.Pharmacy/,အမှတ် (၅၆) Thamar Datehti Street၊ တာမွေ မြို့နယ်,09665666550,09667374397,,,,တာမွေ,Tamwe,ရန်ကုန်တိုင်းဒေသကြီး,Yangon,"16.810182,96.17646",,,,,,,,,,,
587,ဆေးဆိုင်,,အောင် ဆေးဆိုင်,https://www.facebook.com/AungPharmacy/,,0944173 9142,,,,,,,,,,Delivery နားထားပါသည်,,,,,,,,,,
588,ဆေးဆိုင်,,ဇီဝ ဆေးဆိုင်,https://www.facebook.com/ziwamm/,အမှတ် (၃) မဟာဗန္ဓုလလမ်း (မန္တလေး ဈေးလမ်း)၊ ၂၉ ရပ်ကွက်၊ မြောက်ဒဂုံ မြို့နယ်,09998375511,09887375522,,,,ဒဂုံမြို့သစ်(မြောက်ပိုင်း),Dagon Myothit (North) ,ရန်ကုန်တိုင်းဒေသကြီး,Yangon,"16.87774,96.19079",,,,,,,,,,,
589,ဆေးဆိုင်,,ဇီဝ ဆေးဆိုင်,https://www.facebook.com/ziwamm/,အမှတ် (၁၈၀)  ရေတာရှည်လမ်းဟောင်းနှင့် အနောက်ရွှေဂုံတိုင်လမ်းထောင့်၊ အနောက်ရွှေဂုံတိုင် လမ်းမပေါ်၊ ဗဟန်းမြို့နယ်,09887375533,09887375544,,,,ဗဟန်း,Bahan,ရန်ကုန်တိုင်းဒေသကြီး,Yangon,"16.815427,96.156112",၁၉ ဇူလိုင်မှ ဆိုင်ပြန်ဖွင့်မည်။,,,,,,,,,,
590,ဆေးဆိုင်,,မုဒိတာဆေးဆိုင်,https://www.facebook.com/Muditarpharmacy/,အမှတ် (၁၀) ၁၄၅ လမ်း၊ အရိုးကုန်း ရပ်ကွက်၊ တာမွေ မြို့နယ်,,,,,,,,,,,,,,,,,,,,,
591,ဆေးဆိုင်,,လင်း မိသားစု ဆေးမျိုးစုံ ရောင်းဝယ်ရေး,https://www.facebook.com/%E1%80%9C%E1%80%84%E1%80%BA%E1%80%B8-%E1%80%99%E1%80%AD%E1%80%9E%E1%80%AC%E1%80%B8%E1%80%85%E1%80%AF-%E1%80%86%E1%80%B1%E1%80%B8%E1%80%99%E1%80%BB%E1%80%AD%E1%80%AF%E1%80%B8%E1%80%85%E1%80%AF%E1%80%B6%E1%80%9B%E1%80%B1%E1%80%AC%E1%80%84%E1%80%BA%E1%80%B8%E1%80%9D%E1%80%9A%E1%80%BA%E1%80%9B%E1%80%B1%E1%80%B8-102836214853768/,အမှတ် E - ၃၆၊ တတိယထပ်၊ ရွှေပြည့်စုံဈေး၊ မင်္ဂလာဈေးဝင်း၊ မင်္ဂလာတောင်ညွန့်မြို့နယ်,09263544405,09267033426,09450552259,,,မင်္ဂလာတောင်ညွန့်,Mingalartaungnyunt,ရန်ကုန်တိုင်းဒေသကြီး,Yangon,"16.788908,96.167859",,,,,,,,,,,
592,ဆေးဆိုင်,,Medimall Pharmacy,https://www.facebook.com/MedimallPharmacyMyanmar/,"2A KBS Condominiums, 10/ A Pyi Thar Yar Street, near Brainworks International School, Thingyangyun Township, Yangon",09778612600,09892688837,,,,သင်္ဃန်းကျွန်း,Thingangyun,ရန်ကုန်တိုင်းဒေသကြီး,Yangon,"16.831011,96.19323",Cash or Mobile Banking ၂ မျိုးလုံး လက်ခံသည်။,,,,,,,,,,
593,ဆေးဆိုင်,,ရွှေချမ်းသာ ဆေးဆိုင်,https://www.facebook.com/%E1%80%9B%E1%80%BD%E1%80%B1%E1%80%81%E1%80%BB%E1%80%99%E1%80%BA%E1%80%B8%E1%80%9E%E1%80%AC-%E1%80%86%E1%80%B1%E1%80%B8%E1%80%86%E1%80%AD%E1%80%AF%E1%80%84%E1%80%BA-Shwe-Chan-Thar-Pharmacy-101419735096064/,,095061940,09268421527,09773858102,09987788681,,ရန်ကုန်,Yangon City,ရန်ကုန်တိုင်းဒေသကြီး,Yangon,"16.7781861107,96.1609261617",ရန်ကုန်မြို့တွင်း (၂၁) မြို့နယ်သို့ Delivery ပို့ပေးသည်။,,,,,,,,,,
594,ဆေးဆိုင်,,သစ်ခွ ဆေးဆိုင်,https://www.facebook.com/Orchidpharmacy/,မင်္ဂလာတောင်ညွန့်၊ တာမွေ၊ သင်္ကန်းကျွန်း၊ ဗဟန်း၊ တောင်ဥက္ကလာနှင့် သာကေတ မြို့နယ်တို့တွင် ဆိုင်ခွဲပေါင်း (၈)ခု,09770619222,09664111551,09770619111,09770619333,09770619444,ရန်ကုန်,Yangon City,ရန်ကုန်တိုင်းဒေသကြီး,Yangon,"16.7781861107,96.1609261617",,,,,,,,,,,
595,အခြား,,Aries Min ပိုးသတ်ဆေးဖြန်း,https://www.facebook.com/profile.php?id=100008748633331,,095118420,09760777745,,,,ရန်ကုန်,Yangon City,ရန်ကုန်တိုင်းဒေသကြီး,Yangon,"16.7781861107,96.1609261617",စျေးနှုန်းကတော့ အခန်းအမျိုးအစားအကျယ်အဝန်းပေါ်မူတည်ပြီး ကွာခြားပါတယ်,,,,,,,,,,
596,အခြား,Oxygen Flowmeter,Ko Aung Ko Oxygen Flowmeter,https://www.facebook.com/aungko.oo.1426,,09421063813,,,,,ရန်ကုန်,Yangon City,ရန်ကုန်တိုင်းဒေသကြီး,Yangon,"16.7781861107,96.1609261617","Cash=50,000, Mobile Bank=55,000, Home Delivery=60,000",,,,,,,,,,
597,အခြား,,အောက်ဆီဂျင်စက် ပြုပြရေး,https://www.facebook.com/mmyohtetlin,M1 ဘီယာဆိုင်၊  ဩဘာလမ်းနှင့် ဒဂုံသီရိ လမ်းထိပ်၊ ကျောက်မြောင်းမြို့နယ်,09961600053,09778900527,,,,ကျောက်မြောင်း,Kyauk Myaung ,စစ်ကိုင်းတိုင်းဒေသကြီး,Sagaing,"22.59329,95.94495",စက်ပြင်လိုပါက လူကိုယ်တိုင်သွားရန်,,,,,,,,,,
598,အခြား,,ဝယ်ပေးမယ်,https://www.facebook.com/%E1%80%9D%E1%80%9A%E1%80%BA%E1%80%95%E1%80%B1%E1%80%B8%E1%80%99%E1%80%9A%E1%80%BA-103733898660049/,,,,,,,ရန်ကုန်,Yangon City,ရန်ကုန်တိုင်းဒေသကြီး,Yangon,"16.7781861107,96.1609261617",ဈေးဝယ်ရန် အခက်အခဲရှိသူများအတွက် မနက် ၈ မှ  ညနေ ၅ အတွင်း ပို့ပေးသည်။ တတ်နိုင်သူများ ငွေကြေးပေးချေပြီး အခက်အခဲရှိပါက အကူအညီတောင်းခံနိုင်သည်,,,,,,,,,,
599,သူနာပြု/အကူ,,နိုက်တင်ဂေး ဆေးရုံနှင့် အိမ်အရောက် သူနာပြုဝန်ဆောင်မှု,,,09459286015,,,,,,,,,,,,,,,,,,,,
600,အခြား,Oxygen Flowmeter,,,68 လမ်း၊  ဘောလုံးကွင်းနား၊ မန္တလေး,09441150126,,,,,မန္တလေး,Mandalay City,မန္တလေးတိုင်းဒေသကြီး,Mandalay,"21.9894028624,96.092101078",ဇူလိုင် ၁၆ ရက်နေ့ ပစ္စည်းရောက်,,,,,,,,,,
601,အခြား,Oxygen Flowmeter,,,66 A လမ်း၊ 39 x 40 ကြား၊ မန္တလေး,09420620220,,,,,မန္တလေး,Mandalay City,မန္တလေးတိုင်းဒေသကြီး,Mandalay,"21.9894028624,96.092101078",,,,,,,,,,,
602,အခြား,Oxygen Flowmeter,Classic Online Shop,,,09965246714,,,,,မန္တလေး,Mandalay City,မန္တလေးတိုင်းဒေသကြီး,Mandalay,"21.9894028624,96.092101078","Oxygen 40L=420,000, Oxygen 20L=300,000, Flowmeter=90,000, Oximeter=30,000",,,,,,,,,,
603,အခြား,Oxygen Flowmeter,ခိုင်ခိုင် လေပေါင်မီတာ ဆိုင် (၁),,အမှတ် (၂၂၇) ၃၆ လမ်း၊ (၈၃-၈၄ ကြား) မန္တလေး,09401539777,09401539555,092011317,,,မန္တလေး,Mandalay City,မန္တလေးတိုင်းဒေသကြီး,Mandalay,"21.9894028624,96.092101078",,,,,,,,,,,
604,အခြား,Oxygen Flowmeter,ခိုင်ခိုင် လေပေါင်မီတာ ဆိုင် ( ၂ ),,အမှတ် (၂၆၇) ၃၅ လမ်း၊ (၈၀-၈၁ ကြား) မန္တလေး,094072215,094031270,0943151444,,,မန္တလေး,Mandalay City,မန္တလေးတိုင်းဒေသကြီး,Mandalay,"21.9894028624,96.092101078",,,,,,,,,,,
605,အခြား,Oxygen Flowmeter,ခိုင်ခိုင် လေပေါင်မီတာ ဆိုင် (၃),,H ၂၂၊ ဖိုးရာဇာလမ်း၊ (၆၆-၆၇ ကြား) ပြည်ကြီးတံခွန်၊ မန္တလေး,09896192761,09797773136,09797773137,,,မန္တလေး,Mandalay City,မန္တလေးတိုင်းဒေသကြီး,Mandalay,"21.9894028624,96.092101078",,,,,,,,,,,
606,ဆရာဝန် (ဖုန်းဝန်ဆောင်မှု),,ချယ်ရီမြေမှ တယ်လီကျန်းမာ,,https://www.facebook.com/lnmtssu,09982158408,09755437471,,,,,,,,,,,,,,,,,,,
607,ဆရာဝန် (ဖုန်းဝန်ဆောင်မှု),,Dr. မြင့်မြင့်အေး (ဆေးရုံအုပ်),,,095404694,,,,,မန္တလေး,Mandalay City,မန္တလေးတိုင်းဒေသကြီး,Mandalay,"21.9894028624,96.092101078",မနက် ၁၀ နာရီမှ နေ့လည် ၂ နာရီထိ,,,,,,,,,,
608,ဆရာဝန် (ဖုန်းဝန်ဆောင်မှု),,Dr. ခင်သိင်္ဂီမြင့်,,,095197337,,,,,မန္တလေး,Mandalay City,မန္တလေးတိုင်းဒေသကြီး,Mandalay,"21.9894028624,96.092101078",မနက် ၁၀ နာရီမှ နေ့လည် ၂ နာရီထိ,,,,,,,,,,
609,ဆရာဝန် (ဖုန်းဝန်ဆောင်မှု),,Dr. ခင်ခင်ထွေး,,,09450004601,,,,,မန္တလေး,Mandalay City,မန္တလေးတိုင်းဒေသကြီး,Mandalay,"21.9894028624,96.092101078",မနက် ၁၀ နာရီမှ နေ့လည် ၂ နာရီထိ,,,,,,,,,,
610,ဆရာဝန် (ဖုန်းဝန်ဆောင်မှု),,Dr. ချိုသဇင်ဖြူ,,,09796927552,095014697,,,,မန္တလေး,Mandalay City,မန္တလေးတိုင်းဒေသကြီး,Mandalay,"21.9894028624,96.092101078",မနက် ၁၀ နာရီမှ နေ့လည် ၂ နာရီထိ,,,,,,,,,,
611,ပရဟိတ,,ရှင်သန်ရေး ကူညီမှုအသင်း,,ဗိုလ်တထောင်မြို့နယ်,09252011155,09252022255,,,,ဗိုလ်တထောင်,Botahtaung,ရန်ကုန်တိုင်းဒေသကြီး,Yangon,"16.771967,96.169709",,,,,,,,,,,
612,ပရဟိတ,,ရှင်သန်ခွင့် လူမှုကူညီရေးအသင်း,,ဒဂုံမြို့သစ် (တောင်ပိုင်း),09257578675,0973166707,,,,ဒဂုံမြို့သစ်(တောင်ပိုင်း),Dagon Myothit (South) ,ရန်ကုန်တိုင်းဒေသကြီး,Yangon,"16.84016,96.22582",,,,,,,,,,,
613,ပရဟိတ,,ကြယ်စင်လင်းလက် လူမှုကူညီရေး အသင်း,,ပုဇွန်တောင် မြို့နယ်,09420011445,,,,,ပုဇွန်တောင်,Pazundaung,ရန်ကုန်တိုင်းဒေသကြီး,Yangon,"16.779648,96.174392",,,,,,,,,,,
614,ပရဟိတ,,ထာဝရ အလင်းတန်း လူမှုကူညီရေးအသင်း,,မြောက်ဥက္ကလာပ မြို့နယ်,0942104025,09401023599,,,,မြောက်ဥက္ကလာပ,North Okkalapa,ရန်ကုန်တိုင်းဒေသကြီး,Yangon,"16.918775,96.163028",,,,,,,,,,,
615,ပရဟိတ,,အနှိုင်းမဲ့ လူမှုကူညီရေးအသင်း,,ဒဂုံမြို့သစ် (တောင်ပိုင်း),09448044142,,,,,ဒဂုံမြို့သစ်(တောင်ပိုင်း),Dagon Myothit (South) ,ရန်ကုန်တိုင်းဒေသကြီး,Yangon,"16.84016,96.22582",,,,,,,,,,,
616,ပရဟိတ,,တာမွေကွန်ယက် လူမှုကူညီကယ်ဆယ်ရေးအသင်း,,တာမွေ မြို့နယ်,0949304464,,,,,တာမွေ,Tamwe,ရန်ကုန်တိုင်းဒေသကြီး,Yangon,"16.810182,96.17646",,,,,,,,,,,
617,ပရဟိတ,,မေတ္တာညွှန့် လူမှုကူညီရေးအသင်း,,တာမွေ မြို့နယ်,095102381,095078243,,,,တာမွေ,Tamwe,ရန်ကုန်တိုင်းဒေသကြီး,Yangon,"16.810182,96.17646",,,,,,,,,,,
618,ပရဟိတ,,အနှိုင်းမဲ့ နာရေးကူညီမှုအသင်း (တာမွေကြီး),,တာမွေ မြို့နယ်,0996505002,,,,,တာမွေ,Tamwe,ရန်ကုန်တိုင်းဒေသကြီး,Yangon,"16.810182,96.17646",,,,,,,,,,,
619,ပရဟိတ,,ရွှေရတနာ လူမှုကူညီရေးအသင်း,,တာမွေ မြို့နယ်,095110409,,,,,တာမွေ,Tamwe,ရန်ကုန်တိုင်းဒေသကြီး,Yangon,"16.810182,96.17646",,,,,,,,,,,
620,ပရဟိတ,,မအူကုန်းလမ်းကြယ် လူမှုကူညီရေးအသင်း,,တာမွေ မြို့နယ်,09786678700,09421092675,,,,တာမွေ,Tamwe,ရန်ကုန်တိုင်းဒေသကြီး,Yangon,"16.810182,96.17646",,,,,,,,,,,
621,ပရဟိတ,,သဘာဝ ဓမ္မဂါယာ,,ဒဂုံမြို့သစ် (တောင်ပိုင်း),09421048364,09425025401,,,,ဒဂုံမြို့သစ်(တောင်ပိုင်း),Dagon Myothit (South) ,ရန်ကုန်တိုင်းဒေသကြီး,Yangon,"16.84016,96.22582",,,,,,,,,,,
622,ပရဟိတ,,၉၃ မေတ္တာ လူမှုကူညီရေးအသင်း,,ဒဂုံဆိပ်ကမ်းမြို့နယ်,09250275500,09420027005,,,,ဒဂုံမြို့သစ် (ဆိပ်ကမ်း),Dagon Myothit (Seikkan),ရန်ကုန်တိုင်းဒေသကြီး,Yangon,"16.840488,96.272564",,,,,,,,,,,
623,ပရဟိတ,,5B TAXI လူမှုကူညီရေးအသင်း,,ဒဂုံဆိပ်ကမ်းမြို့နယ်,0944316516,09250743362,09254181400,09456511115,,ဒဂုံမြို့သစ် (ဆိပ်ကမ်း),Dagon Myothit (Seikkan),ရန်ကုန်တိုင်းဒေသကြီး,Yangon,"16.840488,96.272564",,,,,,,,,,,
624,ပရဟိတ,,မိတ်ဆွေကောင်းပရဟိတအသင်း,,ဒဂုံမြို့သစ်တောင်ပိုင်းမြို့နယ်,09774007040,,,,,ဒဂုံမြို့သစ်(တောင်ပိုင်း),Dagon Myothit (South) ,ရန်ကုန်တိုင်းဒေသကြီး,Yangon,"16.84016,96.22582",,,,,,,,,,,
625,ပရဟိတ,,သစ္စာမဏ္ဍိုင်လူမှုကူညီကယ်ဆယ်ရေးအသင်း,,ဒေါပုံမြို့နယ်,09421004088,0944551108,,,,,,,,,,,,,,,,,,,
626,ပရဟိတ,,ဇေယျသုခလူမှုကူညီရေးအဖွဲ့,,သာကေတမြို့နယ်,09771777720,095194813,,,,သာကေတ,Thaketa,ရန်ကုန်တိုင်းဒေသကြီး,Yangon,"16.793009,96.202959",,,,,,,,,,,
627,ပရဟိတ,,အမတဂဝေသီလူမှုကူညီရေးအဖွဲ့,,သာကေတမြို့နယ်,09420114062,,,,,သာကေတ,Thaketa,ရန်ကုန်တိုင်းဒေသကြီး,Yangon,"16.793009,96.202959",,,,,,,,,,,
628,ပရဟိတ,,စစ်တောင်းရိပ်မွန်နာရေးနှင့် လူမှုကူညီရေး,,ဒဂုံဆိပ်ကမ်းမြို့နယ်,095121234,09450048189,,,,ဒဂုံမြို့သစ် (ဆိပ်ကမ်း),Dagon Myothit (Seikkan),ရန်ကုန်တိုင်းဒေသကြီး,Yangon,"16.840488,96.272564",,,,,,,,,,,
629,ပရဟိတ,,လင်းလက်လူမှုကူညီရေးအသင်း,,ကျောက်တံတားမြို့နယ်,09262239600,09260055006,,,,ကျောက်တံတား,Kyauktada,ရန်ကုန်တိုင်းဒေသကြီး,Yangon,"16.774263,96.161642",,,,,,,,,,,
630,ပရဟိတ,,မဟာမွန်မြတ်စေတနာပရဟိတအသင်း,,ပန်းဘဲတန်းမြို့နယ်,09260977786,09260477786,,,,ပန်းဘဲတန်း,Pabedan,ရန်ကုန်တိုင်းဒေသကြီး,Yangon,"16.776983,96.15601",,,,,,,,,,,
631,ပရဟိတ,,ရှင်သန်ခြင်း အောက်စီဂျင်နှင့်လူမှုကူညီရေးအသင်း,,ကြည့်မြင်တိုင်မြို့နယ်,0943021296,0943115305,,,,ကြည့်မြင်တိုင်,Kyeemyindaing,ရန်ကုန်တိုင်းဒေသကြီး,Yangon,"16.814573,96.121879",,,,,,,,,,,
632,ပရဟိတ,,မြတ်သုမလူမှုကူညီရေးအသင်း,,ကြည့်မြင်တိုင်မြို့နယ်,09449999415,09443443415,,,,ကြည့်မြင်တိုင်,Kyeemyindaing,ရန်ကုန်တိုင်းဒေသကြီး,Yangon,"16.814573,96.121879",,,,,,,,,,,
633,ပရဟိတ,,ဂရုဏာသုခလူမှုကူညီရေးအသင်း,,ကြည့်မြင်တိုင်မြို့နယ်,09254502600,09254208800,,,,ကြည့်မြင်တိုင်,Kyeemyindaing,ရန်ကုန်တိုင်းဒေသကြီး,Yangon,"16.814573,96.121879",,,,,,,,,,,
634,ပရဟိတ,,စံပြလူမှုကူညီရေးပရဟိတလူငယ်အသင်း,,ကြည့်မြင်တိုင်မြို့နယ်,09899977800,09420640314,,,,ကြည့်မြင်တိုင်,Kyeemyindaing,ရန်ကုန်တိုင်းဒေသကြီး,Yangon,"16.814573,96.121879",,,,,,,,,,,
635,ပရဟိတ,,၀င်းမေတ္တာလူမှုကူညီရေးပရဟိတအသင်း,,ကြည့်မြင်တိုင်မြို့နယ်,09421027371,09254716264,,,,ကြည့်မြင်တိုင်,Kyeemyindaing,ရန်ကုန်တိုင်းဒေသကြီး,Yangon,"16.814573,96.121879",,,,,,,,,,,
636,ပရဟိတ,,အဖြူရောင်လူမှုကူညီရေးအသင်း,,ကြည့်မြင်တိုင်မြို့နယ်,095415971,,,,,ကြည့်မြင်တိုင်,Kyeemyindaing,ရန်ကုန်တိုင်းဒေသကြီး,Yangon,"16.814573,96.121879",,,,,,,,,,,
637,ပရဟိတ,,ရွှေစမ်းချောင်းလူမှုကူညီရေးအသင်း,,စမ်းချောင်းမြို့နယ်,09775097230,09770658948,,,,စမ်းချောင်း,Sanchaung,ရန်ကုန်တိုင်းဒေသကြီး,Yangon,"16.803809,96.137291",,,,,,,,,,,
638,ပရဟိတ,,ဥတ္တရလုလင်သွေးလှူရှင်များအသင်း,,စမ်းချောင်းမြို့နယ်,09440008424,0973108424,,,,စမ်းချောင်း,Sanchaung,ရန်ကုန်တိုင်းဒေသကြီး,Yangon,"16.803809,96.137291",,,,,,,,,,,
639,ပရဟိတ,,လူမှုကူညီရေးအသင်း(ဗဟန်း),,ဗဟန်းမြို့နယ်,095048956,09785048956,,,,ဗဟန်း,Bahan,ရန်ကုန်တိုင်းဒေသကြီး,Yangon,"16.815427,96.156112",,,,,,,,,,,
640,ပရဟိတ,,မြန်မာ့ကြယ်ဖြူလူမှုဖွံ့ဖြိုးတိုးတက်ရေးပရဟိတအသင်း,,မရမ်းကုန်းမြို့နယ်,09421089129,09965056117,,,,မရမ်းကုန်း,Mayangone,ရန်ကုန်တိုင်းဒေသကြီး,Yangon,"16.86619,96.142611",,,,,,,,,,,
641,ပရဟိတ,,လှိုင်လူမှုကူညီကယ်ဆယ်ရေးအသင်း,,လှိုင်မြို့နယ်,0932237799,09401024223,,,,လှိုင်,Hlaing,ရန်ကုန်တိုင်းဒေသကြီး,Yangon,"16.847934,96.125227",,,,,,,,,,,
642,ပရဟိတ,,စိမ့်အေးစေ ပရဟိတလူမှုကူညီရေးအသင်း,,လှိုင်မြို့နယ်,094304598,09420022721,,,,လှိုင်,Hlaing,ရန်ကုန်တိုင်းဒေသကြီး,Yangon,"16.847934,96.125227",,,,,,,,,,,
643,ပရဟိတ,,အနှိုင်းမဲ့မေတ္တာ(လှိုင်)လူမှုကူညီရေးအသင်း,,လှိုင်မြို့နယ်,09421717150,,,,,လှိုင်,Hlaing,ရန်ကုန်တိုင်းဒေသကြီး,Yangon,"16.847934,96.125227",,,,,,,,,,,
644,ပရဟိတ,,ဇော်ဂျီလူမှုကူညီရေးအသင်း,,လှိုင်မြို့နယ်,,,,,,လှိုင်,Hlaing,ရန်ကုန်တိုင်းဒေသကြီး,Yangon,"16.847934,96.125227",,,,,,,,,,,
645,ပရဟိတ,,လှည်းတန်းလူမှုကူညီရေးအသင်း,,ကမာရွတ်မြို့နယ်,09403789779,09763977768,,,,ကမာရွတ်,Kamaryut,ရန်ကုန်တိုင်းဒေသကြီး,Yangon,"16.827684,96.132439",,,,,,,,,,,
646,ပရဟိတ,,MANကမာရွတ်အရေးပေါ်လူမှုကူညီကယ်ဆယ်ရေးအဖွဲ့,,ကမာရွတ်မြို့နယ်,095401677,09785401677,,,,ကမာရွတ်,Kamaryut,ရန်ကုန်တိုင်းဒေသကြီး,Yangon,"16.827684,96.132439",,,,,,,,,,,
647,ပရဟိတ,,မီးအိမ်ရှင်လူမှုကူညီရေးအသင်း,,ကြည့်မြင်တိုင်မြို့နယ်,09773536717,,,,,ကြည့်မြင်တိုင်,Kyeemyindaing,ရန်ကုန်တိုင်းဒေသကြီး,Yangon,"16.814573,96.121879",,,,,,,,,,,
648,ပရဟိတ,,အားမာန်လူငယ်ပရဟိတအသင်း,,ကြည့်မြင်တိုင်မြို့နယ်,0942802509,,,,,ကြည့်မြင်တိုင်,Kyeemyindaing,ရန်ကုန်တိုင်းဒေသကြီး,Yangon,"16.814573,96.121879",,,,,,,,,,,
649,ပရဟိတ,,ပရဟိတနှလုံးသားလူမှုကယ်ဆယ်ရေးအသင်း,,ကြည့်မြင်တိုင်မြို့နယ်,095035926,,,,,ကြည့်မြင်တိုင်,Kyeemyindaing,ရန်ကုန်တိုင်းဒေသကြီး,Yangon,"16.814573,96.121879",,,,,,,,,,,
650,ပရဟိတ,,မြန်မာမွတ်စလင်လူငယ်ဖောင်ဒေးရှင်း,,ပန်းဘဲတန်းမြို့နယ်,09786012786,,,,,ပန်းဘဲတန်း,Pabedan,ရန်ကုန်တိုင်းဒေသကြီး,Yangon,"16.776983,96.15601",,,,,,,,,,,
651,ပရဟိတ,,မိုးမိတ်လူမှုကူညီရေးအသင်း,,ကျောက်တံတားမြို့နယ်,09793710788,,,,,ကျောက်တံတား,Kyauktada,ရန်ကုန်တိုင်းဒေသကြီး,Yangon,"16.774263,96.161642",,,,,,,,,,,
652,ပရဟိတ,,ရှမ်းလမ်းလူမှုကူညီရေးအသင်း,,ပန်းဘဲတန်းမြို့နယ်,,,,,,ပန်းဘဲတန်း,Pabedan,ရန်ကုန်တိုင်းဒေသကြီး,Yangon,"16.776983,96.15601",,,,,,,,,,,
653,ပရဟိတ,,ရိုးရှင်းသောပရဟိတလူမှုကူညီရေးအသင်း,,သုံးခွမြို့နယ်,09429912788,,,,,သုံးခွ,Thongwa ,ရန်ကုန်တိုင်းဒေသကြီး,Yangon,"16.7586,96.52309",,,,,,,,,,,
654,ပရဟိတ,,မေတ္တာအလင်းနာလူမှုကူညီရေးအသင်း,,သန်လျင်မြိို့နယ်,095066491,,,,,သန်လျင်,Thanlyin ,ရန်ကုန်တိုင်းဒေသကြီး,Yangon,"16.76378,96.25184",,,,,,,,,,,
655,ပရဟိတ,,သဘာ၀အလင်းရောင်သွေးကွန်ယက်အသင်း,,သန်လျင်မြိို့နယ်,09661169438,,,,,သန်လျင်,Thanlyin ,ရန်ကုန်တိုင်းဒေသကြီး,Yangon,"16.76378,96.25184",,,,,,,,,,,
656,ပရဟိတ,,မုဒိတာလူမှုကူညီရေးအသင်း,,ကွမ်းခြံကုန်းမြို့,09795000103,,,,,ကွမ်းခြံကုန်း,Kungyangon ,ရန်ကုန်တိုင်းဒေသကြီး,Yangon,"16.4394,96.0119",,,,,,,,,,,
657,ပရဟိတ,,ငြိမ်းချမ်းရိပ်မြုံလူမှုကူညီရေးအသင်း,,တော်ကူးကျေးရွာ,09420225579,,,,,ကွမ်းခြံကုန်း,Kungyangon ,ရန်ကုန်တိုင်းဒေသကြီး,Yangon,"16.4394,96.0119",,,,,,,,,,,
658,ပရဟိတ,,ပါရမီရှင်လူမှုကူညီရေးအသင်း,,တော်လန်းဝကျေးရွာ,09966660614,,,,,ကွမ်းခြံကုန်း,Kungyangon ,ရန်ကုန်တိုင်းဒေသကြီး,Yangon,"16.4394,96.0119",,,,,,,,,,,
659,ပရဟိတ,,ဖြူစင်စေတနာလူမှုကူညီရေးအသင်း,,တော်ကလိပ်ကျေးရွာ,09454445818,,,,,ကွမ်းခြံကုန်း,Kungyangon ,ရန်ကုန်တိုင်းဒေသကြီး,Yangon,"16.4394,96.0119",,,,,,,,,,,
660,ပရဟိတ,,မေတ္တာမွန်လူမှုကူညီရေးအသင်း,,သောင်ခုန်ကျေးရွာ,09786370000,,,,,ကွမ်းခြံကုန်း,Kungyangon ,ရန်ကုန်တိုင်းဒေသကြီး,Yangon,"16.4394,96.0119",,,,,,,,,,,
661,ပရဟိတ,,အဖြူရောင်မေတ္တာလူမှုကူညီရေးအသင်း,,တော်ခလူးကျေးရွာ,09898191270,,,,,ကွမ်းခြံကုန်း,Kungyangon ,ရန်ကုန်တိုင်းဒေသကြီး,Yangon,"16.4394,96.0119",,,,,,,,,,,
662,ပရဟိတ,,အားမာန်လူမှုကူညီရေးအသင်း,,မြို့ကုန်းကျေးရွာ,09762720367,,,,,ကွမ်းခြံကုန်း,Kungyangon ,ရန်ကုန်တိုင်းဒေသကြီး,Yangon,"16.4394,96.0119",,,,,,,,,,,
663,ပရဟိတ,,မြင့်မြတ်နလုံးသားလူမှုကူညီရေးအသင်း,,သမင်ခြံကျေးရွာ,09756444726,,,,,ကွမ်းခြံကုန်း,Kungyangon ,ရန်ကုန်တိုင်းဒေသကြီး,Yangon,"16.4394,96.0119",,,,,,,,,,,
664,ပရဟိတ,,ဗြဟ္မစိုရ်လူမှုကူညီရေးအသင်း,,အဖျောက်ကျေးရွာ,09796844009,,,,,ကွမ်းခြံကုန်း,Kungyangon ,ရန်ကုန်တိုင်းဒေသကြီး,Yangon,"16.4394,96.0119",,,,,,,,,,,
665,ပရဟိတ,,မြတ်စေတနာလူမှုကူညီရေးအသင်း,,ဘုရားကြီးကျေးရွာ,09781198900,,,,,ကွမ်းခြံကုန်း,Kungyangon ,ရန်ကုန်တိုင်းဒေသကြီး,Yangon,"16.4394,96.0119",,,,,,,,,,,
666,ပရဟိတ,,တက်သစ်စမောင်မယ်လူမှုကူညီရေးအသင်း,,စမ်းရွာကျေးရွာ,0945041029,,,,,ကွမ်းခြံကုန်း,Kungyangon ,ရန်ကုန်တိုင်းဒေသကြီး,Yangon,"16.4394,96.0119",,,,,,,,,,,
667,ပရဟိတ,,ရွှေညီကိုလူမှုကူညီရေးအသင်း,,မပျော်ဘွယ်ကြီးကျေးရွာ,09799278189,,,,,ကွမ်းခြံကုန်း,Kungyangon ,ရန်ကုန်တိုင်းဒေသကြီး,Yangon,"16.4394,96.0119",,,,,,,,,,,
668,ပရဟိတ,,တွဲလက်များလူမှုကူညီရေးအသင်း,,အင်္ဂလုံးကျေးရွာ,09799396978,,,,,ကွမ်းခြံကုန်း,Kungyangon ,ရန်ကုန်တိုင်းဒေသကြီး,Yangon,"16.4394,96.0119",,,,,,,,,,,
669,ပရဟိတ,,မေတ္တာစမ်းရေလူမှုကူညီရေးအသင်း,,အင်းလျားဝချောင်ကျေးရွာ,,,,,,ကွမ်းခြံကုန်း,Kungyangon ,ရန်ကုန်တိုင်းဒေသကြီး,Yangon,"16.4394,96.0119",,,,,,,,,,,
670,ပရဟိတ,,မိတ်ဆွေကောင်းလူမှုကူညီရေးအသင်း,,တောင်ကုန်းကျေးရွာ,,,,,,ကွမ်းခြံကုန်း,Kungyangon ,ရန်ကုန်တိုင်းဒေသကြီး,Yangon,"16.4394,96.0119",,,,,,,,,,,
671,ပရဟိတ,,ဂရုဏာရှင်လူမှုကူညီရေးအသင်း,,မြို့ကုန်းကျေးရွာ,,,,,,ကွမ်းခြံကုန်း,Kungyangon ,ရန်ကုန်တိုင်းဒေသကြီး,Yangon,"16.4394,96.0119",,,,,,,,,,,
672,ပရဟိတ,,စေတနာရှင်လူမှုကူညီရေးအသင်း,,ကသစ်ကုန်းကျေးရွာ,,,,,,ကွမ်းခြံကုန်း,Kungyangon ,ရန်ကုန်တိုင်းဒေသကြီး,Yangon,"16.4394,96.0119",,,,,,,,,,,
673,ပရဟိတ,,ကံ အရေးပေါ်ကျန်းမာရေး စောင့်ရှောက်မှု,,ဒဂုံမြို့သစ်တောင်ပိုင်းမြို့နယ်,09266524288,09448129204,,,,ဒဂုံမြို့သစ်(တောင်ပိုင်း),Dagon Myothit (South) ,ရန်ကုန်တိုင်းဒေသကြီး,Yangon,"16.84016,96.22582",,,,,,,,,,,
674,ပရဟိတ,,အနာဂတ်မျှော်လင့်ချက်,,ဒဂုံမြို့သစ်တောင်ပိုင်းမြို့နယ်,09420258820,,,,,ဒဂုံမြို့သစ်(တောင်ပိုင်း),Dagon Myothit (South) ,ရန်ကုန်တိုင်းဒေသကြီး,Yangon,"16.84016,96.22582",,,,,,,,,,,
675,ပရဟိတ,,H RESCUE လူမှုကယ်ဆယ်ရေးအဖွဲ့,,ဒဂုံမြို့သစ်တောင်ပိုင်းမြို့နယ်,09777775192,,,,,ဒဂုံမြို့သစ်(တောင်ပိုင်း),Dagon Myothit (South) ,ရန်ကုန်တိုင်းဒေသကြီး,Yangon,"16.84016,96.22582",,,,,,,,,,,
676,ပရဟိတ,,သွေးချင်းညီအစ်ကိုများ ပရဟိတအသင်း,,ဒဂုံမြို့သစ်တောင်ပိုင်းမြို့နယ်,09453394496,09480655220,095031325,,,ဒဂုံမြို့သစ်(တောင်ပိုင်း),Dagon Myothit (South) ,ရန်ကုန်တိုင်းဒေသကြီး,Yangon,"16.84016,96.22582",,,,,,,,,,,
677,ပရဟိတ,,သရဝဏ် အလင်းရှင်,,ဒဂုံမြို့သစ်အရှေ့ပိုင်းမြို့နယ်,09991206035,,,,,ဒဂုံမြို့သစ် (အရှေ့ပိုင်း),Dagon Myothit (East),ရန်ကုန်တိုင်းဒေသကြီး,Yangon,"16.912805,96.213226",,,,,,,,,,,
678,ပရဟိတ,,မြောက်ဒဂုံစေတနာ,,ဒဂုံမြို့သစ်မြောက်ပိုင်းမြို့နယ်,09420091797,,,,,ဒဂုံမြို့သစ်(မြောက်ပိုင်း),Dagon Myothit (North) ,ရန်ကုန်တိုင်းဒေသကြီး,Yangon,"16.87774,96.19079",,,,,,,,,,,
679,ပရဟိတ,,တမိုးအောင်လူငယ်ပရဟိတ,,တာမွေမြို့နယ်,09792259206,,,,,တာမွေ,Tamwe,ရန်ကုန်တိုင်းဒေသကြီး,Yangon,"16.810182,96.17646",,,,,,,,,,,
680,ပရဟိတ,,တက်သစ်စလူမှုကူညီရေးအသင်း,,ဒဂုံမြို့သစ်တောင်ပိုင်းမြို့နယ်,09425012596 ,09250269650,0943088664,09964133550,,ဒဂုံမြို့သစ်(တောင်ပိုင်း),Dagon Myothit (South) ,ရန်ကုန်တိုင်းဒေသကြီး,Yangon,"16.84016,96.22582",,,,,,,,,,,
681,ပရဟိတ,,ရွှေရောင်တွဲလက် လူမှုကူညီရေးအသင်း,,သာကေတမြို့နယ်,09777737859,09677744740,09695444438,,,သာကေတ,Thaketa,ရန်ကုန်တိုင်းဒေသကြီး,Yangon,"16.793009,96.202959",,,,,,,,,,,
682,ပရဟိတ,,မြတ်ဒါနကုသိုလ် လူမှုကူညီရေးအသင်း,,ဒေါပုံမြို့နယ်,09250109646,,,,,ဒေါပုံ,Dawbon,ရန်ကုန်တိုင်းဒေသကြီး,Yangon,"16.781917,96.18435",,,,,,,,,,,
683,ပရဟိတ,,အေးချမ်းဖြူစင် မေတ္တာရှင် လူမှုကူညီရေးအသင်း,,တောင်ဥက္ကလာပမြို့နယ်,09768101010 ,09428631044,09768202020 ,09768101014,,တောင်ဥက္ကလာပ,South Okkalapa,ရန်ကုန်တိုင်းဒေသကြီး,Yangon,"16.846249,96.179859",,,,,,,,,,,
684,ပရဟိတ,,ဘိုကလေးဈေးပရဟိတအသင်း,,ဗိုလ်တထောင်မြို့နယ်,095419438,,,,,ဗိုလ်တထောင်,Botahtaung,ရန်ကုန်တိုင်းဒေသကြီး,Yangon,"16.771967,96.169709",,,,,,,,,,,
685,ပရဟိတ,,ဒဂုံဆိပ်ကမ်းအိမ်ခြံမြေ ပရဟိတအသင်း,,ဒဂုံဆိပ်ကမ်းမြို့နယ်,095165813 ,095131158,095155431,,,ဒဂုံမြို့သစ် (ဆိပ်ကမ်း),Dagon Myothit (Seikkan),ရန်ကုန်တိုင်းဒေသကြီး,Yangon,"16.840488,96.272564",,,,,,,,,,,
686,ပရဟိတ,,လေးဝတီကုလရက္ခိတ ပရဟိတအသင်း,,တောင်ဥက္ကလာပမြို့နယ်,09420752871,,,,,တောင်ဥက္ကလာပ,South Okkalapa,ရန်ကုန်တိုင်းဒေသကြီး,Yangon,"16.846249,96.179859",,,,,,,,,,,
687,ပရဟိတ,,သုခချမ်းသာလူမှုကူညီရေးအသင်း,,ဒဂုံမြို့သစ်တောင်ပိုင်းမြို့နယ်,09254477588,,,,,ဒဂုံမြို့သစ်(တောင်ပိုင်း),Dagon Myothit (South) ,ရန်ကုန်တိုင်းဒေသကြီး,Yangon,"16.84016,96.22582",,,,,,,,,,,
688,ပရဟိတ,,ရွှေဒါပုံလူမှုကူညီရေးအသင်း,,ဒေါပုံမြို့နယ်,09447405550,,,,,ဒေါပုံ,Dawbon,ရန်ကုန်တိုင်းဒေသကြီး,Yangon,"16.781917,96.18435",,,,,,,,,,,
689,ပရဟိတ,,မြို့ဦးလုလင်နာရေးကူညီမှုအသင်း,,ဒဂုံမြို့သစ်တောင်ပိုင်းမြို့နယ်,09250006321,,,,,ဒဂုံမြို့သစ်(တောင်ပိုင်း),Dagon Myothit (South) ,ရန်ကုန်တိုင်းဒေသကြီး,Yangon,"16.84016,96.22582",,,,,,,,,,,
690,ပရဟိတ,,တူညီသောတွဲလက်များ(ရန်ကင်း),,ရန်ကင်းမြို့နယ်,0997496427,,,,,ရန်ကင်း,Yankin,ရန်ကုန်တိုင်းဒေသကြီး,Yangon,"16.83601,96.162395",,,,,,,,,,,
691,ပရဟိတ,,အင်အားလူမှုကူညီရေးအသင်း,,ဒဂုံမြို့သစ်(မြောက်ပိုင်း)မြို့နယ်,09250006321,09254347829,0989545435,,,ဒဂုံမြို့သစ်(မြောက်ပိုင်း),Dagon Myothit (North) ,ရန်ကုန်တိုင်းဒေသကြီး,Yangon,"16.87774,96.19079",,,,,,,,,,,
692,ပရဟိတ,,အရိုးကုန်းနာရေးကူညီမှုအသင်း,,တာမွေမြို့နယ်,,,,,,တာမွေ,Tamwe,ရန်ကုန်တိုင်းဒေသကြီး,Yangon,"16.810182,96.17646",,,,,,,,,,,
693,ပရဟိတ,,ထူးပြည့်စုံလူမှုကူညီရေးအသင်း,,ဒဂုံမြို့သစ် (အရှေ့ပိုင်း)မြို့နယ်,09266888099,09266888199,,,,ဒဂုံမြို့သစ် (အရှေ့ပိုင်း),Dagon Myothit (East),ရန်ကုန်တိုင်းဒေသကြီး,Yangon,"16.912805,96.213226",,,,,,,,,,,
694,ပရဟိတ,,သဘာဝအလင်းရောင် သွေးကွန်ယက်,,ဒဂုံမြို့သစ်(မြောက်ပိုင်း)မြို့နယ်,09445347683,,,,,ဒဂုံမြို့သစ်(မြောက်ပိုင်း),Dagon Myothit (North) ,ရန်ကုန်တိုင်းဒေသကြီး,Yangon,"16.87774,96.19079",,,,,,,,,,,
695,ပရဟိတ,,စေတနာနာရေးကူညီမှုအသင်း,,ပုဇွန်တောင်မြို့နယ်,09254839779,09250060010,,,,ပုဇွန်တောင်,Pazundaung,ရန်ကုန်တိုင်းဒေသကြီး,Yangon,"16.779648,96.174392",,,,,,,,,,,
696,ပရဟိတ,,၉၂ လူမှုကူညီရေးအသင်း,,ဒဂုံမြို့သစ် (ဆိပ်ကမ်း)မြို့နယ်,095121234,0943188115,,,,ဒဂုံမြို့သစ် (ဆိပ်ကမ်း),Dagon Myothit (Seikkan),ရန်ကုန်တိုင်းဒေသကြီး,Yangon,"16.840488,96.272564",,,,,,,,,,,
697,ပရဟိတ,,ပုသိမ်ညွန့်လူမှုကူညီရေးအသင်း,,တာမွေမြို့နယ်,09799079972,,,,,တာမွေ,Tamwe,ရန်ကုန်တိုင်းဒေသကြီး,Yangon,"16.810182,96.17646",,,,,,,,,,,
698,ပရဟိတ,,သံဃာ့ရက္ခိတ,,ဒဂုံမြို့သစ် (အရှေ့ပိုင်း)မြို့နယ်,,,,,,ဒဂုံမြို့သစ် (အရှေ့ပိုင်း),Dagon Myothit (East),ရန်ကုန်တိုင်းဒေသကြီး,Yangon,"16.912805,96.213226",,,,,,,,,,,
699,ပရဟိတ,,မြန်မာမွတ်ဆလင်လူငယ် ပရဟိတအသင်း,,တာမွေမြို့နယ်,0973144559,,,,,တာမွေ,Tamwe,ရန်ကုန်တိုင်းဒေသကြီး,Yangon,"16.810182,96.17646",,,,,,,,,,,
700,ပရဟိတ,,မိုးပရဟိတ,,တာမွေမြို့နယ်,09889772020,09889771155,,,,တာမွေ,Tamwe,ရန်ကုန်တိုင်းဒေသကြီး,Yangon,"16.810182,96.17646",,,,,,,,,,,
701,ပရဟိတ,,လွတ်လပ်ရေးလူမှုကူညီရေးအသင်း,,မင်္ဂလာတောင်ညွန့်မြို့နယ်,09420160945,,,,,မင်္ဂလာတောင်ညွန့်,Mingalartaungnyunt,ရန်ကုန်တိုင်းဒေသကြီး,Yangon,"16.788908,96.167859",,,,,,,,,,,
702,ပရဟိတ,,ဖို့မြေပရဟိတ,,မင်္ဂလာတောင်ညွန့်မြို့နယ်,09400444545,09400330004,,,,မင်္ဂလာတောင်ညွန့်,Mingalartaungnyunt,ရန်ကုန်တိုင်းဒေသကြီး,Yangon,"16.788908,96.167859",,,,,,,,,,,
703,ပရဟိတ,,Happy Taxi လူမှုအထောက်အကူပြု ပရဟိတအသင်း,,ဒဂုံမြို့သစ်(တောင်ပိုင်း),09453113880,,,,,ဒဂုံမြို့သစ်(တောင်ပိုင်း),Dagon Myothit (South) ,ရန်ကုန်တိုင်းဒေသကြီး,Yangon,"16.84016,96.22582",,,,,,,,,,,
704,ပရဟိတ,,ပီတိလူမှုကူညီရေးအသင်း,,မင်္ဂလာတောင်ညွန့်မြို့နယ်,09420027094,,,,,မင်္ဂလာတောင်ညွန့်,Mingalartaungnyunt,ရန်ကုန်တိုင်းဒေသကြီး,Yangon,"16.788908,96.167859",,,,,,,,,,,
705,ပရဟိတ,,ပေးဆပ်သူလူမှုကူညီရေးအဖွဲ့,,သာကေတမြို့နယ်,09414021243,,,,,သာကေတ,Thaketa,ရန်ကုန်တိုင်းဒေသကြီး,Yangon,"16.793009,96.202959",,,,,,,,,,,
706,ပရဟိတ,,ဝေဇယန္တာလူငယ်များ လူမှုကူညီရေးအသင်း,,သာကေတမြို့နယ်,09763448040,,,,,သာကေတ,Thaketa,ရန်ကုန်တိုင်းဒေသကြီး,Yangon,"16.793009,96.202959",,,,,,,,,,,
707,ပရဟိတ,,ဒီကာယု,,သာကေတမြို့နယ်,09248471899,,,,,သာကေတ,Thaketa,ရန်ကုန်တိုင်းဒေသကြီး,Yangon,"16.793009,96.202959",,,,,,,,,,,
708,ပရဟိတ,,ဓူဝံကြယ်သဘာဝဘေးအန္တရာယ်ကူညီကယ်ဆယ်ရေးအဖွဲ့,,သာကေတမြို့နယ်,09420021027,,,,,သာကေတ,Thaketa,ရန်ကုန်တိုင်းဒေသကြီး,Yangon,"16.793009,96.202959",,,,,,,,,,,
709,ဆရာဝန် (ဖုန်းဝန်ဆောင်မှု),,Telehealth Chin State,,https://www.facebook.com/TelehealthChinState,,,,,,,,,,,Monday to Friday 9:00 AM to 4:00 PM ဗမာဘာသာစကား၊ တီးတိန်ဘာသာစကား၊ ဖလမ်းဘာသာစကား၊ ဟားခါးဘာသာစကားတို့ဖြင့်တိုင်ပင်နိုင်မည် ဖြစ်ပါသည်။,,,,,,,,,,
710,ပရဟိတ,,သုခ ရောင်ခြည်လူမှုကူညီရေးအသင်း,,လှည်းကူးမြို့နယ်,09795475315,,,,,လှည်းကူး,Hlegu ,ရန်ကုန်တိုင်းဒေသကြီး,Yangon,"17.09875,96.22745",,,,,,,,,,,
711,ပရဟိတ,,ဓမ္မဂုဏ်ရောင်လူမှုကူညီရေးအသင်း,,လှည်းကူးမြို့နယ်,0942046479,,,,,လှည်းကူး,Hlegu ,ရန်ကုန်တိုင်းဒေသကြီး,Yangon,"17.09875,96.22745",,,,,,,,,,,
712,ပရဟိတ,,ဝါးနက်ချောင်းလူမှုကူညီရေးအသင်း,,မှော်ဘီမြို့နယ်,09450714336,,,,,မှော်ဘီ,Hmawbi ,ရန်ကုန်တိုင်းဒေသကြီး,Yangon,"17.09987,96.0418",,,,,,,,,,,
713,ပရဟိတ,,နည်းပညာတက္ကသိုလ်(မှော်ဘီ),,မှော်ဘီမြို့နယ်,09782502213,,,,,မှော်ဘီ,Hmawbi ,ရန်ကုန်တိုင်းဒေသကြီး,Yangon,"17.09987,96.0418",,,,,,,,,,,
714,ပရဟိတ,,မာတာလူမှုကူညီရေးအသင်း,,မင်္ဂလာဒုံမြို့နယ်,09429690272,,,,,မင်္ဂလာဒုံ,Mingaladon,ရန်ကုန်တိုင်းဒေသကြီး,Yangon,"16.94914,96.12795",,,,,,,,,,,
715,ပရဟိတ,,ဓမ္မဝါဒီလူမှုကူညီရေးအသင်း,,မင်္ဂလာဒုံမြို့နယ်,09974740097,,,,,မင်္ဂလာဒုံ,Mingaladon,ရန်ကုန်တိုင်းဒေသကြီး,Yangon,"16.94914,96.12795",,,,,,,,,,,
716,ပရဟိတ,,မဇ္ဈိမလှိုင်းလူမှုကူညီရေးအသင်း,,ထောက်ကြန့်မြို့နယ်,09799913778,,,,,ထောက်ကြန့်,Htaukkyant ,ရန်ကုန်တိုင်းဒေသကြီး,Yangon,"17.0427556521,96.1323128013",,,,,,,,,,,
717,ပရဟိတ,,Super Sunday လူမှုကူညီရေးအသင်း,,အင်းစိန်မြို့နယ်,09965025307,,,,,အင်းစိန်,Insein,ရန်ကုန်တိုင်းဒေသကြီး,Yangon,"16.901771,96.095959",,,,,,,,,,,
718,ပရဟိတ,,အေးမြချမ်းသာ လူမှုကူညီရေးအသင်း,,ထန်းတပင်မြို့နယ်,09793894962,,,,,ထန်းတပင်,Htantabin ,ရန်ကုန်တိုင်းဒေသကြီး,Yangon,"17.0174,95.9827",,,,,,,,,,,
719,ပရဟိတ,,စာနာစိတ်ဖြင့်ကမ်းလက်များ လူမှုကူညီရေးအသင်း,,ရွှေပြည်သာမြို့နယ်,09679809080,,,,,ရွှေပြည်သာ,Shwepyithar ,ရန်ကုန်တိုင်းဒေသကြီး,Yangon,"16.95504,96.08329",,,,,,,,,,,
720,ပရဟိတ,,ဇီဝိတ ပါလ လူမှုကူညီရေးအသင်း,,ရွှေပြည်သာမြို့နယ်,09799516966,,,,,ရွှေပြည်သာ,Shwepyithar ,ရန်ကုန်တိုင်းဒေသကြီး,Yangon,"16.95504,96.08329",,,,,,,,,,,
721,ပရဟိတ,,ဖြူစင်မေတ္တာ လူမှုကူညီရေးအသင်း,,ရွှေပြည်သာမြို့နယ်,0973017188,,,,,ရွှေပြည်သာ,Shwepyithar ,ရန်ကုန်တိုင်းဒေသကြီး,Yangon,"16.95504,96.08329",,,,,,,,,,,
722,ပရဟိတ,,လောကဓံ သစ္စာ လူမှုကူညီရေးအသင်း,,ရွှေပြည်သာမြို့နယ်,095015706,,,,,ရွှေပြည်သာ,Shwepyithar ,ရန်ကုန်တိုင်းဒေသကြီး,Yangon,"16.95504,96.08329",,,,,,,,,,,
723,ပရဟိတ,,Golden Star လူမှုကူညီရေးအသင်း,,တညင်းကုန်းမြို့နယ်,09899927044,,,,,,,,,,,,,,,,,,,,
724,ပရဟိတ,,သွေး လူငယ်ပရဟိတအသင်း,,ဒဂုံမြို့သစ်အရှေ့ပိုင်းမြို့နယ်,09953172293,,,,,ဒဂုံမြို့သစ် (အရှေ့ပိုင်း),Dagon Myothit (East),ရန်ကုန်တိုင်းဒေသကြီး,Yangon,"16.912805,96.213226",,,,,,,,,,,
725,ပရဟိတ,,မေတ္တာသင်္ဂဟ သာရေးနာရေးအသင်း,,ဒဂုံမြို့သစ်အရှေ့ပိုင်းမြို့နယ်,09264557869,,,,,ဒဂုံမြို့သစ် (အရှေ့ပိုင်း),Dagon Myothit (East),ရန်ကုန်တိုင်းဒေသကြီး,Yangon,"16.912805,96.213226",,,,,,,,,,,
726,ပရဟိတ,,သီရိမင်္ဂလာပရဟိတအသင်း,,ဒဂုံမြို့သစ်တောင်ပိုင်းမြို့နယ်,09260336577,,,,,ဒဂုံမြို့သစ်(တောင်ပိုင်း),Dagon Myothit (South) ,ရန်ကုန်တိုင်းဒေသကြီး,Yangon,"16.84016,96.22582",,,,,,,,,,,
727,ပရဟိတ,,အနှိုင်းမဲ့ နာရေးကူညီမှုအသင်း,,ဒဂုံမြို့သစ်တောင်ပိုင်းမြို့နယ်,09448044142,,,,,ဒဂုံမြို့သစ်(တောင်ပိုင်း),Dagon Myothit (South) ,ရန်ကုန်တိုင်းဒေသကြီး,Yangon,"16.84016,96.22582",,,,,,,,,,,
728,ပရဟိတ,,အမေ့မေတ္တာ နာရေးကူညီမှုအသင်း,,ဒဂုံမြို့သစ်တောင်ပိုင်းမြို့နယ်,09766097376,,,,,ဒဂုံမြို့သစ်(တောင်ပိုင်း),Dagon Myothit (South) ,ရန်ကုန်တိုင်းဒေသကြီး,Yangon,"16.84016,96.22582",,,,,,,,,,,
729,ပရဟိတ,,မင်္ဂလာရာမ နာရေးကူညီမှုအသင်း,,ဒဂုံမြို့သစ်တောင်ပိုင်းမြို့နယ်,09252319202,,,,,ဒဂုံမြို့သစ်(တောင်ပိုင်း),Dagon Myothit (South) ,ရန်ကုန်တိုင်းဒေသကြီး,Yangon,"16.84016,96.22582",,,,,,,,,,,
730,ပရဟိတ,,ထွန်းမေတ္တာ ပရဟိတအသင်း,,ဒဂုံမြို့သစ်မြောက်ပိုင်းမြို့နယ်,09777928035,,,,,ဒဂုံမြို့သစ်(မြောက်ပိုင်း),Dagon Myothit (North) ,ရန်ကုန်တိုင်းဒေသကြီး,Yangon,"16.87774,96.19079",,,,,,,,,,,
731,ပရဟိတ,,ရွှေသန်လျင် နာရေးကူညီမှုအသင်း,,ဒဂုံဆိပ်ကမ်းမြို့နယ်,0973148886,,,,,ဒဂုံမြို့သစ် (ဆိပ်ကမ်း),Dagon Myothit (Seikkan),ရန်ကုန်တိုင်းဒေသကြီး,Yangon,"16.840488,96.272564",,,,,,,,,,,
732,ပရဟိတ,,ဓူဝံကြယ် လူမှုကူညီကယ်ဆယ်ရေးအသင်း,,သာကေတမြို့နယ်,09425944244,,,,,သာကေတ,Thaketa,ရန်ကုန်တိုင်းဒေသကြီး,Yangon,"16.793009,96.202959",,,,,,,,,,,
733,ပရဟိတ,,ဖြူစင်မေတ္တာအောင်ရတနာအသင်း,,သာကေတမြို့နယ်,09444491200,,,,,သာကေတ,Thaketa,ရန်ကုန်တိုင်းဒေသကြီး,Yangon,"16.793009,96.202959",,,,,,,,,,,
734,ပရဟိတ,,ဖြူစင်မေတ္တာ ပရဟိတအသင်း,,ဒေါပုံမြို့နယ်,095083332,,,,,,,,,,,,,,,,,,,,
735,ပရဟိတ,,လှိုင်သာယာကွန်ယက် ,,(၁၄) သင်း,,,,,,,,,,,,,,,,,,,,,
736,ပရဟိတ,,People Rescue Organization (PRO) လူမှုကူညီကယ်ဆယ်ရေးအသင်း,,(၄) သင်း,,,,,,,,,,,,,,,,,,,,,
737,ပရဟိတ,,ဖြူစင် မေတ္တာလူမှုကူညီရေးအသင်း,,ပီလခတ်ကျေးရွာ,,,,,,,,,,,,,,,,,,,,,
738,ပရဟိတ,,ကုသိုလ်တောင်နာရေးကူညီမှုအသင်း,,ဝမ်းရွာကျေးရွာ,,,,,,,,,,,,,,,,,,,,,
739,ပရဟိတ,,မနောသုခလူမှုကူညီရေးအသင်း,,လှည်းကူးမြို့နယ်,,,,,,လှည်းကူး,Hlegu ,ရန်ကုန်တိုင်းဒေသကြီး,Yangon,"17.09875,96.22745",,,,,,,,,,,
740,ပရဟိတ,,ခိုကိုးရာမဲ့ဘိုးဘွားများစောင့်ရှောက်ရေးနှင့်လူမှုကူညီရေးအသင်း,,တိုက်ကြီးမြို့နယ်,,,,,,တိုက်ကြီး,Taikkyi ,ရန်ကုန်တိုင်းဒေသကြီး,Yangon,"17.31263,95.96344",,,,,,,,,,,
741,ပရဟိတ,,ရှမ်းမေတ္တာ လူမှုကူညီရေးအသင်း,,တိုက်ကြီးမြို့နယ်,,,,,,တိုက်ကြီး,Taikkyi ,ရန်ကုန်တိုင်းဒေသကြီး,Yangon,"17.31263,95.96344",,,,,,,,,,,
742,ပရဟိတ,,ရှင်သန်ရေးကူညီမှုအသင်းခွဲ (၁),,မင်္ဂလာဒုံမြို့နယ်,,,,,,မင်္ဂလာဒုံ,Mingaladon,ရန်ကုန်တိုင်းဒေသကြီး,Yangon,"16.94914,96.12795",,,,,,,,,,,
743,ပရဟိတ,,Family Driving Group(FDG) လူမှုကူညီရေးအသင်း,,လှိုင်သာယာမြို့နယ်,,,,,,လှိုင်သာယာ,Hlaingtharya ,ရန်ကုန်တိုင်းဒေသကြီး,Yangon,"16.85402,96.06893",,,,,,,,,,,
744,,,အိန္ဒြာဦး ဆေးကုခန်း,,အမှတ် (၇၈) စိတ္တသုခလမ်း၊ ကျောက်မြောင်းမြို့နယ်,,,,,,ကျောက်မြောင်း,Kyauk Myaung ,စစ်ကိုင်းတိုင်းဒေသကြီး,Sagaing,"22.59329,95.94495",မနက် ၈:၃၀ မှ ၁၀:၃၀နာရီထိ၊  ညနေ ၄ မှ ၇:၃၀ နာရီထိ ဆေးခန်း ဖွင့်သည်။ ကုသစရိတ် ရှိသည်။ ,,,,,,,,,,
745,,,ဒေါက်တာ ခင်မောင်ဝေ,,တပင်ရွှေထီးလမ်းမပေါ်၊ ၃၉ ရပ်ကွက်၊ ဒဂုံမြို့သစ် မြောက်ပိုင်းမြို့နယ်,,,,,,ဒဂုံမြို့သစ်(မြောက်ပိုင်း),Dagon Myothit (North) ,ရန်ကုန်တိုင်းဒေသကြီး,Yangon,"16.87774,96.19079",ညနေ ၅ နာရီမှစဆေးခန်းပြနိုင်သည်။ ငွေကြေးခက်ခဲသူများအတွက် အခမဲ့,,,,,,,,,,
746,ဆရာဝန် (အိမ်ဝန်ဆောင်မှု),,ရွှေဟင်္သာ အဆင့်မြင့် ဆေးခန်းနှင့် ရောဂါရှာဖွေရေး,,https://www.facebook.com/%E1%80%9B%E1%80%BD%E1%80%BE%E1%80%B1%E1%80%9F%E1%80%84%E1%80%BA%E1%80%B9%E1%80%9E%E1%80%AC-%E1%80%A1%E1%80%86%E1%80%84%E1%80%BA%E1%80%B7%E1%80%99%E1%80%BC%E1%80%84%E1%80%BA%E1%80%B7%E1%80%86%E1%80%B1%E1%80%B8%E1%80%81%E1%80%94%E1%80%BA%E1%80%B8%E1%80%94%E1%80%BE%E1%80%84%E1%80%BA%E1%80%B7-%E1%80%9B%E1%80%B1%E1%80%AC%E1%80%82%E1%80%AB%E1%80%9B%E1%80%BE%E1%80%AC%E1%80%96%E1%80%BD%E1%80%B1%E1%80%9B%E1%80%B1%E1%80%B8-100822618926566/,09981924865,,,,,မုံရွာ,Monywa ,စစ်ကိုင်းတိုင်းဒေသကြီး,Sagaing,"22.12168,95.13963",,,,,,,,,,,
747,ကိုဗစ်စစ်ရန်,,ဝိတိုရိယဆေးရုံ ,,အမှတ်(၆၈) တော်ဝန်လမ်း၊ မရမ်းကုန်း,,,,,,မရမ်းကုန်း,Mayangone,ရန်ကုန်တိုင်းဒေသကြီး,Yangon,"16.86619,96.142611","RDT, RT, PCR",,,,,,,,,,
748,ကိုဗစ်စစ်ရန်,,N-Health Myanmar ဓါတ်ခွဲခန်း,,အမှတ် (၈၀၇) မဟာဗန္ဓုလလမ်း၊ လမ်းမတော်မြို့နယ်,,,,,,လမ်းမတော်,Lanmadaw,ရန်ကုန်တိုင်းဒေသကြီး,Yangon,"16.779913,96.142335","RDT, RT, PCR",,,,,,,,,,
749,ကိုဗစ်စစ်ရန်,,Yangon Aerodrome ဓါတ်ခွဲခန်း,,မင်္ဂလာဒုံ လေဆိပ်ဝင်း၊ ပြည်လမ်း၊ အနန်းပင် ရပ်ကွက်၊ မင်္ဂလာဒုံမြို့နယ်,,,,,,မင်္ဂလာဒုံ,Mingaladon,ရန်ကုန်တိုင်းဒေသကြီး,Yangon,"16.94914,96.12795","RDT, RT, PCR",,,,,,,,,,
750,ကိုဗစ်စစ်ရန်,,အာယုဆေးရုံ,,အမှတ် (၄၀၀)  ကျိုက္ကဆံလမ်း၊ တာမွေမြို့နယ်,,,,,,တာမွေ,Tamwe,ရန်ကုန်တိုင်းဒေသကြီး,Yangon,"16.810182,96.17646",RDT ,,,,,,,,,,
751,ကိုဗစ်စစ်ရန်,,KBC ကေဘီစီ ဆေးရုံ,,အမှတ် (၁၄/က) ကျမ်းစာကျောင်းကုန်း၊ အရှေ့ကြို့ကုန်း၊ အင်းစိန်မြို့နယ်,,,,,,အင်းစိန်,Insein,ရန်ကုန်တိုင်းဒေသကြီး,Yangon,"16.901771,96.095959",RDT ,,,,,,,,,,
752,ကိုဗစ်စစ်ရန်,,OSC ဆေးရုံ,,အမှတ် (င/၁၃၇)၊ သူဓမ္မာလမ်း၊ မြောက်ဥက္ကလာပမြို့နယ်,,,,,,မြောက်ဥက္ကလာပ,North Okkalapa,ရန်ကုန်တိုင်းဒေသကြီး,Yangon,"16.918775,96.163028",RDT ,,,,,,,,,,
753,ကိုဗစ်စစ်ရန်,,ရွှေဂုံတိုင် (SSC) ဆေးရုံ,,အမှတ် (၇) အရှေ့ရွှေဂုံတိုင်လမ်း၊ ဗဟန်းမြို့နယ်,,,,,,ဗဟန်း,Bahan,ရန်ကုန်တိုင်းဒေသကြီး,Yangon,"16.815427,96.156112",RDT ,,,,,,,,,,
,အခြား,Oxygen Flowmeter,အောင်ရတနာ ဆေးခန်း,,အမှတ် (၁) ရတနာလမ်း (ဝေဇယန္တာလမ်းထောင့်) ၁၆ ကွေ့၊ သင်္ကန်းကျွန်းမြို့နယ်,013551355,09964551377,09407071144,09407071155,,သင်္ဃန်းကျွန်း,Thingangyun,ရန်ကုန်တိုင်းဒေသကြီး,Yangon,"16.831011,96.19323",,,,,,,,,,,
,အခြား,Oxygen Flowmeter,ကမ်,,အမှတ် (၉၁၂) ဗိုလ်ဆွန်ပက်လမ်း၊ ၃၆ ရပ်ကွက်၊ ဒဂုံမြို့သစ် မြောက်ပိုင်း,09264370402,0925243042,,,,ဒဂုံမြို့သစ်(မြောက်ပိုင်း),Dagon Myothit (North) ,ရန်ကုန်တိုင်းဒေသကြီး,Yangon,"16.87774,96.19079",,,,,,,,,,,